,language_id,id,cladesOrder,clade_id,iso_code,first_node_depth,proximate_node_depth,proximate_node_posterior_probability,ascii_name,utf8_name,description,earliestTimeDepthBound,latestTimeDepthBound,progress,author,foss_stat,glottocode,level0,level1,level2,level3,low_stat,representative,reviewer,rfcWebPath1,rfcWebPath2,soundcompcode,variety,sortRankInClade,sndCompLevel0,sndCompLevel1,sndCompLevel2,sndCompLevel3,entryTimeframe,originalAsciiName,historical,notInExport,distribution,logNormalMean,logNormalOffset,logNormalStDev,normalMean,normalStDev,uniformLower,uniformUpper,latitude,longitude,exampleLanguage,fragmentary,nativeScriptIsRtl,loc_justification
373,286,26606,3,30,aae,3663,1100,1,AlbanianArberesh,Albanian: Arbëresh,,NA,NA,5,Borana Lushaj,FALSE,arbe1236,5,0,0,0,FALSE,FALSE,NA,,NA,NA,,40,0,0,0,0,NA,,FALSE,FALSE,_,NA,NA,NA,NA,NA,NA,NA,38.882,16.488,FALSE,FALSE,FALSE,"Set on the village of Caraffa di Catanzaro in Calabira, toe 'toe' of Italy, the variety targeted here."
1,3,3049,3,30,aln,3663,250,1,AlbanianGheg,Albanian: Gheg,,NA,NA,5,Ulrich Geupel,FALSE,gheg1238,5,0,0,0,FALSE,FALSE,NA,,NA,NA,,20,9,1,0,0,NA,Albanian_Gheg,FALSE,FALSE,_,NA,NA,NA,NA,NA,NA,NA,42.667,21.167,FALSE,FALSE,FALSE,"Set on Pristina, the capital of Kosovo, as a reference point for the variety targeted, namely north-eastern Gheg as spoken roughly in Kosovo."
189,143,3050,3,30,sqi,3663,250,1,AlbanianStandard,Albanian: Standard,"Adjectives are cited with the accompanying (sort of) article: i for masculine and e for feminine. Nouns are cited in their indefinite forms. Due to a lack of infinitive, verbs are cited in the 1st person singular active indicative.",NA,NA,5,Michiel de Vaan,FALSE,alba1267,5,0,0,0,FALSE,TRUE,NA,,NA,NA,,30,9,1,0,0,NA,Albanian_Standard,FALSE,FALSE,_,NA,NA,NA,NA,NA,NA,NA,41.111,20.081,FALSE,FALSE,FALSE,"Set on the city of Elbasan, whose historical variety is a transitional dialect that features both Gheg and Tosk elements and was used as a first standard language in the early 20th century.  This had an important impact on what was since further development into today's standard language, and although not completely identical with it, remains close to the modern standard."
146,110,51719,3,21,grc,5310,2500,1,AncientGreek,Greek: Ancient,"Classical Attic. For phonological description and phonetic reconstruction cf. Allen (1987).  Verb forms listed in 1.sg. present indicative unless otherwise specified.  Nouns listed in nominative singular unless otherwise specified.  Transliterations follow the ALA-LC system, with the addition of accentual diacritics.",NA,NA,5,Matthew Scarborough,FALSE,anci1242,3,1,0,0,FALSE,TRUE,NA,http://www.perseus.tufts.edu/hopper/text?doc=Perseus:text:1999.04.0057:entry=,NA,NA,,20,5,0,0,0,NA,Ancient_Greek,TRUE,FALSE,N,NA,NA,NA,2400,32,NA,NA,37.96,23.73,FALSE,FALSE,FALSE,"Site of Classical Athens, the area where the Attic dialect of Ancient Greek originated."
147,110,51720,2,43,grc,5310,2500,1,AncientGreek,Greek: Ancient,"Classical Attic. For phonological description and phonetic reconstruction cf. Allen (1987).  Verb forms listed in 1.sg. present indicative unless otherwise specified.  Nouns listed in nominative singular unless otherwise specified.  Transliterations follow the ALA-LC system, with the addition of accentual diacritics.",NA,NA,5,Matthew Scarborough,FALSE,anci1242,3,1,0,0,FALSE,TRUE,NA,http://www.perseus.tufts.edu/hopper/text?doc=Perseus:text:1999.04.0057:entry=,NA,NA,,20,5,0,0,0,NA,Ancient_Greek,TRUE,FALSE,N,NA,NA,NA,2400,32,NA,NA,37.96,23.73,FALSE,FALSE,FALSE,"Site of Classical Athens, the area where the Attic dialect of Ancient Greek originated."
241,203,52067,3,5,xno,5564,1200,1,AngloNorman,Anglo-Norman,,NA,NA,5,Heather Pagan,FALSE,angl1258,9,1,1,0,FALSE,FALSE,NA,http://www.anglo-norman.net/D/,NA,NA,,61,0,0,0,0,NA,Anglo-Norman,TRUE,FALSE,N,NA,NA,NA,700,50,NA,NA,51.5,-0.14,FALSE,FALSE,FALSE,"Set in Westminster, traditional venue for the coronation of English monarchs since Norman times."
243,203,52069,1,34,xno,5564,1200,1,AngloNorman,Anglo-Norman,,NA,NA,5,Heather Pagan,FALSE,angl1258,9,1,1,0,FALSE,FALSE,NA,http://www.anglo-norman.net/D/,NA,NA,,61,0,0,0,0,NA,Anglo-Norman,TRUE,FALSE,N,NA,NA,NA,700,50,NA,NA,51.5,-0.14,FALSE,FALSE,FALSE,"Set in Westminster, traditional venue for the coronation of English monarchs since Norman times."
242,203,52068,2,51,xno,5564,1200,1,AngloNorman,Anglo-Norman,,NA,NA,5,Heather Pagan,FALSE,angl1258,9,1,1,0,FALSE,FALSE,NA,http://www.anglo-norman.net/D/,NA,NA,,61,0,0,0,0,NA,Anglo-Norman,TRUE,FALSE,N,NA,NA,NA,700,50,NA,NA,51.5,-0.14,FALSE,FALSE,FALSE,"Set in Westminster, traditional venue for the coronation of English monarchs since Norman times."
3,8,3047,3,31,hye,5310,400,1,ArmenianEastern,Armenian: Eastern,,NA,NA,5,Martin Macak,FALSE,nucl1235,4,0,0,0,FALSE,FALSE,NA,,NA,NA,Yerevan variety.,20,9,3,0,0,NA,Armenian_Eastern,FALSE,FALSE,_,NA,NA,NA,NA,NA,NA,NA,40.181,44.514,TRUE,FALSE,FALSE,"Set in Yerevan, the capital of Armenia, the dialect of which historically forms the basis of colloquial Eastern Armenian and is the most widespread of the Armenian dialects today."
2,7,3048,3,31,hyw,5310,400,1,ArmenianWestern,Armenian: Western,,NA,NA,5,Martin Macak,FALSE,homs1234,4,0,0,0,FALSE,FALSE,NA,,NA,NA,"Western Armenian literary language, ultimately closely related to the dialect of the Erzerum area.",30,9,3,0,0,NA,Armenian_Western,FALSE,FALSE,_,NA,NA,NA,NA,NA,NA,NA,39.91,41.28,FALSE,FALSE,FALSE,"Set in the town of Erzurum, formerly a major dialect area of Western Armenian in Asia Minor, and ultimately closely related to the Western Armenian literary language effectively based on the dialect of Constantinople (Istanbul)."
348,272,51746,2,24,asm,5520,650,1,Assamese,Assamese,,NA,NA,2,Patrycja Markus,FALSE,assa1263,6,1,0,0,FALSE,FALSE,NA,,NA,NA,,25,0,0,0,0,NA,,FALSE,FALSE,_,NA,NA,NA,NA,NA,NA,NA,26.23,92.52,FALSE,FALSE,FALSE,"Set at Raha, Nagaon province, provenance of the informant from whom the data were elicited"
347,272,51745,3,33,asm,6981,650,1,Assamese,Assamese,,NA,NA,2,Patrycja Markus,FALSE,assa1263,6,1,0,0,FALSE,FALSE,NA,,NA,NA,,25,0,0,0,0,NA,,FALSE,FALSE,_,NA,NA,NA,NA,NA,NA,NA,26.23,92.52,FALSE,FALSE,FALSE,"Set at Raha, Nagaon province, provenance of the informant from whom the data were elicited"
174,128,51804,2,23,ave,5520,4150,1,AvestanYounger,Avestan: Younger,,NA,NA,5,Thomas Jügel,FALSE,aves1237,6,3,0,0,FALSE,TRUE,NA,,NA,NA,,10,7,0,0,0,NA,Avestan,TRUE,FALSE,O,350,2550,0.8,NA,NA,NA,NA,31.54,53.63,FALSE,FALSE,FALSE,"It is uncertain where Avestan was originally spoken. For further discussion, cf. Humbach, Helmut, Josef Elfenbein & Prods Oktor Skjærvø. 1991. The Gāthās of Zarathushtra and other Old Avestan Texts. Part I: Introduction – Text and Translation Heidelberg: Carl Winter Universitätsverlag"
173,128,51803,3,33,ave,6981,4150,1,AvestanYounger,Avestan: Younger,,NA,NA,5,Thomas Jügel,FALSE,aves1237,6,3,0,0,FALSE,TRUE,NA,,NA,NA,,10,7,0,0,0,NA,Avestan,TRUE,FALSE,O,350,2550,0.8,NA,NA,NA,NA,31.54,53.63,FALSE,FALSE,FALSE,"It is uncertain where Avestan was originally spoken. For further discussion, cf. Humbach, Helmut, Josef Elfenbein & Prods Oktor Skjærvø. 1991. The Gāthās of Zarathushtra and other Old Avestan Texts. Part I: Introduction – Text and Translation Heidelberg: Carl Winter Universitätsverlag"
356,278,51820,2,23,xbc,5520,3250,0.24,Bactrian,Bactrian,,NA,NA,5,Nicholas Sims-Williams,FALSE,bact1239,6,3,0,0,FALSE,FALSE,NA,,NA,NA,,55,0,0,0,0,NA,,TRUE,FALSE,N,NA,NA,NA,1400,25,NA,NA,36.75,66.9,FALSE,FALSE,FALSE,"Set on Balkh, ancient capital of Bactria."
355,278,51819,3,33,xbc,6981,3250,0.24,Bactrian,Bactrian,,NA,NA,5,Nicholas Sims-Williams,FALSE,bact1239,6,3,0,0,FALSE,FALSE,NA,,NA,NA,,55,0,0,0,0,NA,,TRUE,FALSE,N,NA,NA,NA,1400,25,NA,NA,36.75,66.9,FALSE,FALSE,FALSE,"Set on Balkh, ancient capital of Bactria."
328,257,51848,2,23,bqi,5520,850,0.96,Bakhtiari,Bakhtiari,,NA,NA,5,Mortaza Taheri-Ardali and Erik Anonby,FALSE,bakh1245,6,3,0,0,FALSE,FALSE,NA,,NA,NA,,83,0,0,0,0,NA,,FALSE,FALSE,_,NA,NA,NA,NA,NA,NA,NA,32.02,50.66,FALSE,FALSE,FALSE,"These are the coordinates for the town of Ardal, where the language data were collected."
327,257,51847,3,33,bqi,6981,850,0.96,Bakhtiari,Bakhtiari,,NA,NA,5,Mortaza Taheri-Ardali and Erik Anonby,FALSE,bakh1245,6,3,0,0,FALSE,FALSE,NA,,NA,NA,,83,0,0,0,0,NA,,FALSE,FALSE,_,NA,NA,NA,NA,NA,NA,NA,32.02,50.66,FALSE,FALSE,FALSE,"These are the coordinates for the town of Ardal, where the language data were collected."
352,274,51840,2,23,bgn,5520,1500,1,BalochiSistani,Balochi: Sistani,,NA,NA,5,Maryam Nourzaei and Shirin Adibifar,FALSE,west2368,6,3,0,0,FALSE,FALSE,NA,,NA,NA,Sistani Balochi,79,0,0,0,0,NA,,FALSE,FALSE,_,NA,NA,NA,NA,NA,NA,NA,29.45,60.88,FALSE,FALSE,FALSE,"Zahedan, Iran, main urban centre in which this variety is spoken"
351,274,51839,3,33,bgn,6981,1500,1,BalochiSistani,Balochi: Sistani,,NA,NA,5,Maryam Nourzaei and Shirin Adibifar,FALSE,west2368,6,3,0,0,FALSE,FALSE,NA,,NA,NA,Sistani Balochi,79,0,0,0,0,NA,,FALSE,FALSE,_,NA,NA,NA,NA,NA,NA,NA,29.45,60.88,FALSE,FALSE,FALSE,"Zahedan, Iran, main urban centre in which this variety is spoken"
9,16,51940,3,11,bel,3663,200,1,Belarusian,Belarusian,Standard Belarusian,NA,NA,5,Lechosław Jocz,FALSE,bela1254,7,2,3,0,FALSE,FALSE,NA,http://www.slounik.org/search?search=,NA,NA,Standard,55,3,1,0,0,NA,Belarusian,FALSE,FALSE,_,NA,NA,NA,NA,NA,NA,NA,53.9,27.57,FALSE,FALSE,FALSE,"Set on Minsk, as the capital of Belarus"
10,16,51941,2,12,bel,3663,200,1,Belarusian,Belarusian,Standard Belarusian,NA,NA,5,Lechosław Jocz,FALSE,bela1254,7,2,3,0,FALSE,FALSE,NA,http://www.slounik.org/search?search=,NA,NA,Standard,55,3,1,0,0,NA,Belarusian,FALSE,FALSE,_,NA,NA,NA,NA,NA,NA,NA,53.9,27.57,FALSE,FALSE,FALSE,"Set on Minsk, as the capital of Belarus"
11,16,51942,1,47,bel,3663,200,1,Belarusian,Belarusian,Standard Belarusian,NA,NA,5,Lechosław Jocz,FALSE,bela1254,7,2,3,0,FALSE,FALSE,NA,http://www.slounik.org/search?search=,NA,NA,Standard,55,3,1,0,0,NA,Belarusian,FALSE,FALSE,_,NA,NA,NA,NA,NA,NA,NA,53.9,27.57,FALSE,FALSE,FALSE,"Set on Minsk, as the capital of Belarus"
5,10,51748,2,24,ben,5520,1500,0.71,Bengali,Bengali,,NA,NA,5,Patrycja Markus,FALSE,beng1280,6,1,0,0,FALSE,FALSE,NA,http://dsalsrv02.uchicago.edu/cgi-bin/app/biswas-bengali_query.py?searchhws=yes&qs=,NA,NA,,28,8,0,0,0,NA,Bengali,FALSE,FALSE,_,NA,NA,NA,NA,NA,NA,NA,22.57,88.36,FALSE,FALSE,FALSE,"Set on Kolkata (Calcutta), capital of the Indian state of West Bengal, and a cultural centre where Bengali is the dominant language."
4,10,51747,3,33,ben,6981,1500,0.71,Bengali,Bengali,,NA,NA,5,Patrycja Markus,FALSE,beng1280,6,1,0,0,FALSE,FALSE,NA,http://dsalsrv02.uchicago.edu/cgi-bin/app/biswas-bengali_query.py?searchhws=yes&qs=,NA,NA,,28,8,0,0,0,NA,Bengali,FALSE,FALSE,_,NA,NA,NA,NA,NA,NA,NA,22.57,88.36,FALSE,FALSE,FALSE,"Set on Kolkata (Calcutta), capital of the Indian state of West Bengal, and a cultural centre where Bengali is the dominant language."
277,222,51754,2,24,bho,5520,550,0.99,Bhojpuri,Bhojpuri,Gorakhpuri,NA,NA,5,Ganesh Gupta,FALSE,bhoj1244,6,1,0,0,FALSE,FALSE,NA,,NA,NA,,43,0,0,0,0,NA,,FALSE,FALSE,_,NA,NA,NA,NA,NA,NA,NA,26.76,83.37,FALSE,FALSE,FALSE,"Set on Gorakhpur, the town where the IE-CoR Bhojpuri data were elicited, and the centre of the Gorakhpuri dialect, one of the main dialects of Bhojpuri"
276,222,51753,3,33,bho,6981,550,0.99,Bhojpuri,Bhojpuri,Gorakhpuri,NA,NA,5,Ganesh Gupta,FALSE,bhoj1244,6,1,0,0,FALSE,FALSE,NA,,NA,NA,,43,0,0,0,0,NA,,FALSE,FALSE,_,NA,NA,NA,NA,NA,NA,NA,26.76,83.37,FALSE,FALSE,FALSE,"Set on Gorakhpur, the town where the IE-CoR Bhojpuri data were elicited, and the centre of the Gorakhpuri dialect, one of the main dialects of Bhojpuri"
289,234,52127,3,15,bre,4889,400,1,BretonGwened,Breton: Gwened,,NA,NA,5,Loïc Cheveau,FALSE,vann1244,10,2,3,0,FALSE,FALSE,NA,,NA,NA,Gwened (Vannetais) dialect,21,0,0,0,0,NA,,FALSE,FALSE,_,NA,NA,NA,NA,NA,NA,NA,47.66,-2.76,FALSE,FALSE,FALSE,"Set on Vannes, historical capital of Gwened"
290,234,52128,2,17,bre,4889,400,1,BretonGwened,Breton: Gwened,,NA,NA,5,Loïc Cheveau,FALSE,vann1244,10,2,3,0,FALSE,FALSE,NA,,NA,NA,Gwened (Vannetais) dialect,21,0,0,0,0,NA,,FALSE,FALSE,_,NA,NA,NA,NA,NA,NA,NA,47.66,-2.76,FALSE,FALSE,FALSE,"Set on Vannes, historical capital of Gwened"
291,234,52129,1,48,bre,4889,400,1,BretonGwened,Breton: Gwened,,NA,NA,5,Loïc Cheveau,FALSE,vann1244,10,2,3,0,FALSE,FALSE,NA,,NA,NA,Gwened (Vannetais) dialect,21,0,0,0,0,NA,,FALSE,FALSE,_,NA,NA,NA,NA,NA,NA,NA,47.66,-2.76,FALSE,FALSE,FALSE,"Set on Vannes, historical capital of Gwened"
280,229,52130,3,15,bre,4889,400,1,BretonTreger,Breton: Treger,,NA,NA,5,Steve Hewitt,FALSE,treg1244,10,2,3,0,FALSE,FALSE,NA,,NA,NA,Treger dialect,22,0,0,0,0,NA,,FALSE,FALSE,_,NA,NA,NA,NA,NA,NA,NA,48.79,-3.23,FALSE,FALSE,FALSE,"Set on Tréguier, capital of the historical region of Treger."
281,229,52131,2,17,bre,4889,400,1,BretonTreger,Breton: Treger,,NA,NA,5,Steve Hewitt,FALSE,treg1244,10,2,3,0,FALSE,FALSE,NA,,NA,NA,Treger dialect,22,0,0,0,0,NA,,FALSE,FALSE,_,NA,NA,NA,NA,NA,NA,NA,48.79,-3.23,FALSE,FALSE,FALSE,"Set on Tréguier, capital of the historical region of Treger."
282,229,52132,1,48,bre,4889,400,1,BretonTreger,Breton: Treger,,NA,NA,5,Steve Hewitt,FALSE,treg1244,10,2,3,0,FALSE,FALSE,NA,,NA,NA,Treger dialect,22,0,0,0,0,NA,,FALSE,FALSE,_,NA,NA,NA,NA,NA,NA,NA,48.79,-3.23,FALSE,FALSE,FALSE,"Set on Tréguier, capital of the historical region of Treger."
6,15,51874,3,11,bul,3663,500,0.28,Bulgarian,Bulgarian,Standard Bulgarian,NA,NA,5,Lechosław Jocz,FALSE,bulg1262,7,2,1,0,FALSE,FALSE,NA,https://rechnik.chitanka.info/w/,NA,NA,Standard,20,3,3,0,0,NA,Bulgarian,FALSE,FALSE,_,NA,NA,NA,NA,NA,NA,NA,42.7,23.33,FALSE,FALSE,FALSE,"Set on Sofia, as the capital of Bulgaria"
7,15,51875,2,12,bul,3663,500,0.28,Bulgarian,Bulgarian,Standard Bulgarian,NA,NA,5,Lechosław Jocz,FALSE,bulg1262,7,2,1,0,FALSE,FALSE,NA,https://rechnik.chitanka.info/w/,NA,NA,Standard,20,3,3,0,0,NA,Bulgarian,FALSE,FALSE,_,NA,NA,NA,NA,NA,NA,NA,42.7,23.33,FALSE,FALSE,FALSE,"Set on Sofia, as the capital of Bulgaria"
8,15,51876,1,45,bul,3663,500,0.28,Bulgarian,Bulgarian,Standard Bulgarian,NA,NA,5,Lechosław Jocz,FALSE,bulg1262,7,2,1,0,FALSE,FALSE,NA,https://rechnik.chitanka.info/w/,NA,NA,Standard,20,3,3,0,0,NA,Bulgarian,FALSE,FALSE,_,NA,NA,NA,NA,NA,NA,NA,42.7,23.33,FALSE,FALSE,FALSE,"Set on Sofia, as the capital of Bulgaria"
12,17,52085,3,5,cat,5564,850,1,Catalan,Catalan,,NA,NA,5,Kim Schulte,FALSE,stan1289,9,1,1,0,FALSE,FALSE,NA,,NA,NA,Standard Catalan.,75,2,1,0,0,NA,Catalan,FALSE,FALSE,_,NA,NA,NA,NA,NA,NA,NA,41.83,1.54,FALSE,FALSE,FALSE,"Set roughly on the geographical centre of Catalonia, given that standard Catalan (the variety represented in IE-CoR) is purposely based not on a single dialect."
14,17,52087,1,34,cat,5564,850,1,Catalan,Catalan,,NA,NA,5,Kim Schulte,FALSE,stan1289,9,1,1,0,FALSE,FALSE,NA,,NA,NA,Standard Catalan.,75,2,1,0,0,NA,Catalan,FALSE,FALSE,_,NA,NA,NA,NA,NA,NA,NA,41.83,1.54,FALSE,FALSE,FALSE,"Set roughly on the geographical centre of Catalonia, given that standard Catalan (the variety represented in IE-CoR) is purposely based not on a single dialect."
13,17,52086,2,51,cat,5564,850,1,Catalan,Catalan,,NA,NA,5,Kim Schulte,FALSE,stan1289,9,1,1,0,FALSE,FALSE,NA,,NA,NA,Standard Catalan.,75,2,1,0,0,NA,Catalan,FALSE,FALSE,_,NA,NA,NA,NA,NA,NA,NA,41.83,1.54,FALSE,FALSE,FALSE,"Set roughly on the geographical centre of Catalonia, given that standard Catalan (the variety represented in IE-CoR) is purposely based not on a single dialect."
175,129,3046,3,31,xcl,5310,2650,1,ClassicalArmenian,Armenian: Classical,,NA,NA,5,Martin Macak,FALSE,clas1249,4,0,0,0,FALSE,TRUE,NA,,NA,NA,,10,9,3,0,0,NA,Classical_Armenian,TRUE,FALSE,N,NA,NA,NA,1550,25,NA,NA,40.173,44.293,FALSE,FALSE,FALSE,"Set in present day Ejmiatsin, formerly also known as Vagharshapat, which was the capital of the Kingdom of Greater Armenia during the period of the earliest inscriptional and literary attestations of Classical Armenian."
15,18,51925,3,11,ces,3663,400,0.99,Czech,Czech,Standard Czech,NA,NA,5,Lechosław Jocz,FALSE,czec1258,7,2,2,0,FALSE,FALSE,NA,http://ssjc.ujc.cas.cz/search.php?hledej=Hledat&hsubstr=no&heslo=,NA,NA,Standard,85,3,2,0,0,NA,Czech,FALSE,FALSE,_,NA,NA,NA,NA,NA,NA,NA,50.09,14.42,FALSE,FALSE,FALSE,"Set on Prague, as the capital of the Czech Republic"
16,18,51926,2,12,ces,3663,400,0.99,Czech,Czech,Standard Czech,NA,NA,5,Lechosław Jocz,FALSE,czec1258,7,2,2,0,FALSE,FALSE,NA,http://ssjc.ujc.cas.cz/search.php?hledej=Hledat&hsubstr=no&heslo=,NA,NA,Standard,85,3,2,0,0,NA,Czech,FALSE,FALSE,_,NA,NA,NA,NA,NA,NA,NA,50.09,14.42,FALSE,FALSE,FALSE,"Set on Prague, as the capital of the Czech Republic"
17,18,51927,1,46,ces,3663,400,0.99,Czech,Czech,Standard Czech,NA,NA,5,Lechosław Jocz,FALSE,czec1258,7,2,2,0,FALSE,FALSE,NA,http://ssjc.ujc.cas.cz/search.php?hledej=Hledat&hsubstr=no&heslo=,NA,NA,Standard,85,3,2,0,0,NA,Czech,FALSE,FALSE,_,NA,NA,NA,NA,NA,NA,NA,50.09,14.42,FALSE,FALSE,FALSE,"Set on Prague, as the capital of the Czech Republic"
247,207,52040,3,5,dlm,5564,1100,0.24,DalmatianVegliote,Dalmatian: Vegliote,,NA,NA,5,Nikola Vuletić,FALSE,dalm1243,9,1,1,0,FALSE,FALSE,NA,,NA,NA,,29,0,0,0,0,NA,Dalmatian,TRUE,FALSE,N,NA,NA,NA,130,15,NA,NA,45.03,14.58,FALSE,FALSE,FALSE,"Set on the town of Krk (Italian name 'Veglia'), on the island of the same name, where the Vegliote variety was spoken."
249,207,52042,1,34,dlm,5564,1100,0.24,DalmatianVegliote,Dalmatian: Vegliote,,NA,NA,5,Nikola Vuletić,FALSE,dalm1243,9,1,1,0,FALSE,FALSE,NA,,NA,NA,,29,0,0,0,0,NA,Dalmatian,TRUE,FALSE,N,NA,NA,NA,130,15,NA,NA,45.03,14.58,FALSE,FALSE,FALSE,"Set on the town of Krk (Italian name 'Veglia'), on the island of the same name, where the Vegliote variety was spoken."
248,207,52041,2,51,dlm,5564,1100,0.24,DalmatianVegliote,Dalmatian: Vegliote,,NA,NA,5,Nikola Vuletić,FALSE,dalm1243,9,1,1,0,FALSE,FALSE,NA,,NA,NA,,29,0,0,0,0,NA,Dalmatian,TRUE,FALSE,N,NA,NA,NA,130,15,NA,NA,45.03,14.58,FALSE,FALSE,FALSE,"Set on the town of Krk (Italian name 'Veglia'), on the island of the same name, where the Vegliote variety was spoken."
18,20,51980,3,1,dan,4889,400,1,Danish,Danish,,NA,NA,5,Tonya Kim Dewey-Findell,FALSE,dani1285,8,2,1,0,FALSE,FALSE,NA,http://ordnet.dk/ddo/ordbog?query=,NA,NA,"Standard Danish, as spoken around Copenhagen.",70,1,2,0,0,NA,Danish,FALSE,FALSE,_,NA,NA,NA,NA,NA,NA,NA,55.68,12.57,FALSE,FALSE,FALSE,"Set in Copenhagen, generally considered the region closest to the perceived 'standard' form of Danish."
20,20,51982,1,3,dan,4889,400,1,Danish,Danish,,NA,NA,5,Tonya Kim Dewey-Findell,FALSE,dani1285,8,2,1,0,FALSE,FALSE,NA,http://ordnet.dk/ddo/ordbog?query=,NA,NA,"Standard Danish, as spoken around Copenhagen.",70,1,2,0,0,NA,Danish,FALSE,FALSE,_,NA,NA,NA,NA,NA,NA,NA,55.68,12.57,FALSE,FALSE,FALSE,"Set in Copenhagen, generally considered the region closest to the perceived 'standard' form of Danish."
19,20,51981,2,37,dan,4889,400,1,Danish,Danish,,NA,NA,5,Tonya Kim Dewey-Findell,FALSE,dani1285,8,2,1,0,FALSE,FALSE,NA,http://ordnet.dk/ddo/ordbog?query=,NA,NA,"Standard Danish, as spoken around Copenhagen.",70,1,2,0,0,NA,Danish,FALSE,FALSE,_,NA,NA,NA,NA,NA,NA,NA,55.68,12.57,FALSE,FALSE,FALSE,"Set in Copenhagen, generally considered the region closest to the perceived 'standard' form of Danish."
360,280,51850,2,23,fay,5520,500,1,Delvari,Delvari,,NA,NA,5,Fatemeh Nemati,FALSE,sout2645,6,3,0,0,FALSE,FALSE,NA,,NA,NA,,85,0,0,0,0,NA,,FALSE,FALSE,_,NA,NA,NA,NA,NA,NA,NA,28.75,51.07,FALSE,FALSE,FALSE,"Set on Delvar township, Bušehr province, Iran, main urban centre where this variety is spoken."
359,280,51849,3,33,fay,6981,500,1,Delvari,Delvari,,NA,NA,5,Fatemeh Nemati,FALSE,sout2645,6,3,0,0,FALSE,FALSE,NA,,NA,NA,,85,0,0,0,0,NA,,FALSE,FALSE,_,NA,NA,NA,NA,NA,NA,NA,28.75,51.07,FALSE,FALSE,FALSE,"Set on Delvar township, Bušehr province, Iran, main urban centre where this variety is spoken."
21,21,52008,3,1,nld,4889,400,0.76,Dutch,Dutch,,NA,NA,5,Annemarie Verkerk,FALSE,dutc1256,8,2,2,NA,FALSE,FALSE,NA,http://www.etymologiebank.nl/trefwoord/,NA,NA,,35,1,1,0,0,NA,Dutch,FALSE,FALSE,_,NA,NA,NA,NA,NA,NA,NA,52.145,4.73,FALSE,FALSE,FALSE,"Set on the approximage geographical centre of the Randstad, intermediate between the four main cities of Holland (Amsterdam. Rotterdam, The Hague and Utrecht), the region whose dialect was most influential in the development of modern standard Dutch."
23,21,52010,1,2,nld,4889,400,0.76,Dutch,Dutch,,NA,NA,5,Annemarie Verkerk,FALSE,dutc1256,8,2,2,NA,FALSE,FALSE,NA,http://www.etymologiebank.nl/trefwoord/,NA,NA,,35,1,1,0,0,NA,Dutch,FALSE,FALSE,_,NA,NA,NA,NA,NA,NA,NA,52.145,4.73,FALSE,FALSE,FALSE,"Set on the approximage geographical centre of the Randstad, intermediate between the four main cities of Holland (Amsterdam. Rotterdam, The Hague and Utrecht), the region whose dialect was most influential in the development of modern standard Dutch."
22,21,52009,2,37,nld,4889,400,0.76,Dutch,Dutch,,NA,NA,5,Annemarie Verkerk,FALSE,dutc1256,8,2,2,NA,FALSE,FALSE,NA,http://www.etymologiebank.nl/trefwoord/,NA,NA,,35,1,1,0,0,NA,Dutch,FALSE,FALSE,_,NA,NA,NA,NA,NA,NA,NA,52.145,4.73,FALSE,FALSE,FALSE,"Set on the approximage geographical centre of the Randstad, intermediate between the four main cities of Holland (Amsterdam. Rotterdam, The Hague and Utrecht), the region whose dialect was most influential in the development of modern standard Dutch."
192,145,51971,3,1,ovd,4889,650,0.95,Elfdalian,Elfdalian,,NA,NA,5,Lars Steensland,FALSE,elfd1234,8,2,1,0,FALSE,FALSE,NA,,NA,NA,,40,1,2,0,0,NA,Elfdalian,FALSE,FALSE,_,NA,NA,NA,NA,NA,NA,NA,61.23,14.03,FALSE,FALSE,FALSE,Set in the town of Älvdalen (Övdaln).
194,145,51973,1,3,ovd,4889,650,0.95,Elfdalian,Elfdalian,,NA,NA,5,Lars Steensland,FALSE,elfd1234,8,2,1,0,FALSE,FALSE,NA,,NA,NA,,40,1,2,0,0,NA,Elfdalian,FALSE,FALSE,_,NA,NA,NA,NA,NA,NA,NA,61.23,14.03,FALSE,FALSE,FALSE,Set in the town of Älvdalen (Övdaln).
193,145,51972,2,37,ovd,4889,650,0.95,Elfdalian,Elfdalian,,NA,NA,5,Lars Steensland,FALSE,elfd1234,8,2,1,0,FALSE,FALSE,NA,,NA,NA,,40,1,2,0,0,NA,Elfdalian,FALSE,FALSE,_,NA,NA,NA,NA,NA,NA,NA,61.23,14.03,FALSE,FALSE,FALSE,Set in the town of Älvdalen (Övdaln).
24,22,52141,3,1,eng,4889,1250,1,English,English,,NA,NA,5,Martin Findell and Paul Heggarty,FALSE,stan1293,8,2,2,NA,FALSE,FALSE,NA,http://www.oed.com/view/Entry/,NA,NA,"British English, with lexeme determinations based on majority usage in England.  Phonemic and phonetic transcriptions correspond to standard present-day pronunciations in south-east England. ",15,1,1,0,0,NA,English,FALSE,FALSE,_,NA,NA,NA,NA,NA,NA,NA,51.75,-1.26,FALSE,FALSE,FALSE,"Set on Oxford, popularly considered a prestige location of the perceived standard variety of English in (southern) England, and where lexical usage corresponds to the lexeme determinations in the IE-CoR data for English.  "
26,22,52143,1,2,eng,4889,1250,1,English,English,,NA,NA,5,Martin Findell and Paul Heggarty,FALSE,stan1293,8,2,2,NA,FALSE,FALSE,NA,http://www.oed.com/view/Entry/,NA,NA,"British English, with lexeme determinations based on majority usage in England.  Phonemic and phonetic transcriptions correspond to standard present-day pronunciations in south-east England. ",15,1,1,0,0,NA,English,FALSE,FALSE,_,NA,NA,NA,NA,NA,NA,NA,51.75,-1.26,FALSE,FALSE,FALSE,"Set on Oxford, popularly considered a prestige location of the perceived standard variety of English in (southern) England, and where lexical usage corresponds to the lexeme determinations in the IE-CoR data for English.  "
25,22,52142,2,37,eng,4889,1250,1,English,English,,NA,NA,5,Martin Findell and Paul Heggarty,FALSE,stan1293,8,2,2,NA,FALSE,FALSE,NA,http://www.oed.com/view/Entry/,NA,NA,"British English, with lexeme determinations based on majority usage in England.  Phonemic and phonetic transcriptions correspond to standard present-day pronunciations in south-east England. ",15,1,1,0,0,NA,English,FALSE,FALSE,_,NA,NA,NA,NA,NA,NA,NA,51.75,-1.26,FALSE,FALSE,FALSE,"Set on Oxford, popularly considered a prestige location of the perceived standard variety of English in (southern) England, and where lexical usage corresponds to the lexeme determinations in the IE-CoR data for English.  "
27,23,51962,3,1,fao,4889,1100,1,Faroese,Faroese,,NA,NA,5,Tonya Kim Dewey-Findell,FALSE,faro1244,8,2,1,0,FALSE,FALSE,NA,http://sleipnir.fo/obg/fob/fob.php?button_leita=&action=1&pageno=0&leitord=,NA,NA,,25,1,2,0,0,NA,Faroese,FALSE,FALSE,_,NA,NA,NA,NA,NA,NA,NA,62.012,-6.768,FALSE,FALSE,FALSE,"Set on Tórshavn, capital of the Faroe Islands, and a roughly central location among the islands and their corresponding dialects."
29,23,51964,1,3,fao,4889,1100,1,Faroese,Faroese,,NA,NA,5,Tonya Kim Dewey-Findell,FALSE,faro1244,8,2,1,0,FALSE,FALSE,NA,http://sleipnir.fo/obg/fob/fob.php?button_leita=&action=1&pageno=0&leitord=,NA,NA,,25,1,2,0,0,NA,Faroese,FALSE,FALSE,_,NA,NA,NA,NA,NA,NA,NA,62.012,-6.768,FALSE,FALSE,FALSE,"Set on Tórshavn, capital of the Faroe Islands, and a roughly central location among the islands and their corresponding dialects."
28,23,51963,2,37,fao,4889,1100,1,Faroese,Faroese,,NA,NA,5,Tonya Kim Dewey-Findell,FALSE,faro1244,8,2,1,0,FALSE,FALSE,NA,http://sleipnir.fo/obg/fob/fob.php?button_leita=&action=1&pageno=0&leitord=,NA,NA,,25,1,2,0,0,NA,Faroese,FALSE,FALSE,_,NA,NA,NA,NA,NA,NA,NA,62.012,-6.768,FALSE,FALSE,FALSE,"Set on Tórshavn, capital of the Faroe Islands, and a roughly central location among the islands and their corresponding dialects."
30,24,52011,3,1,vls,4889,400,0.76,Flemish,Flemish,,NA,NA,5,Tonya Kim Dewey-Findell,FALSE,vlaa1240,8,2,2,NA,FALSE,FALSE,NA,,NA,NA,,37,1,1,0,0,NA,Flemish,FALSE,FALSE,_,NA,NA,NA,NA,NA,NA,NA,51.101,4.176,FALSE,FALSE,FALSE,"Set at the approximate mid-point of the Flemish-speaking regions of Belgium, on the border between the two more central dialects, East Flanders and (South) Brabant."
32,24,52013,1,2,vls,4889,400,0.76,Flemish,Flemish,,NA,NA,5,Tonya Kim Dewey-Findell,FALSE,vlaa1240,8,2,2,NA,FALSE,FALSE,NA,,NA,NA,,37,1,1,0,0,NA,Flemish,FALSE,FALSE,_,NA,NA,NA,NA,NA,NA,NA,51.101,4.176,FALSE,FALSE,FALSE,"Set at the approximate mid-point of the Flemish-speaking regions of Belgium, on the border between the two more central dialects, East Flanders and (South) Brabant."
31,24,52012,2,37,vls,4889,400,0.76,Flemish,Flemish,,NA,NA,5,Tonya Kim Dewey-Findell,FALSE,vlaa1240,8,2,2,NA,FALSE,FALSE,NA,,NA,NA,,37,1,1,0,0,NA,Flemish,FALSE,FALSE,_,NA,NA,NA,NA,NA,NA,NA,51.101,4.176,FALSE,FALSE,FALSE,"Set at the approximate mid-point of the Flemish-speaking regions of Belgium, on the border between the two more central dialects, East Flanders and (South) Brabant."
273,220,52079,3,5,frp,5564,300,0.99,FrancoProvencal,Franco-Provençal,"Franco-Provençal (‘Arpitan’) refers to the Alpine varieties of Romance spoken in parts of Switzerland (Suisse Romande), Italy (Val d’Aosta) and France (Savoy).  Not to be confused with Provençal, spoken in the Provence region of south-eastern France.  ",NA,NA,5,Jérémie Delorme,FALSE,fran1269,9,1,1,0,FALSE,FALSE,NA,,NA,NA,,70,0,0,0,0,NA,,FALSE,FALSE,_,NA,NA,NA,NA,NA,NA,NA,45.92,7.05,FALSE,FALSE,FALSE,"Set at the meeting point of the borders of Switzerland (Suisse Romande), Italy (Val d'Aosta) and France (Savoy), the regions of all three countries where Franco-Provençal is spoken. "
275,220,52081,1,34,frp,5564,300,0.99,FrancoProvencal,Franco-Provençal,"Franco-Provençal (‘Arpitan’) refers to the Alpine varieties of Romance spoken in parts of Switzerland (Suisse Romande), Italy (Val d’Aosta) and France (Savoy).  Not to be confused with Provençal, spoken in the Provence region of south-eastern France.  ",NA,NA,5,Jérémie Delorme,FALSE,fran1269,9,1,1,0,FALSE,FALSE,NA,,NA,NA,,70,0,0,0,0,NA,,FALSE,FALSE,_,NA,NA,NA,NA,NA,NA,NA,45.92,7.05,FALSE,FALSE,FALSE,"Set at the meeting point of the borders of Switzerland (Suisse Romande), Italy (Val d'Aosta) and France (Savoy), the regions of all three countries where Franco-Provençal is spoken. "
274,220,52080,2,51,frp,5564,300,0.99,FrancoProvencal,Franco-Provençal,"Franco-Provençal (‘Arpitan’) refers to the Alpine varieties of Romance spoken in parts of Switzerland (Suisse Romande), Italy (Val d’Aosta) and France (Savoy).  Not to be confused with Provençal, spoken in the Provence region of south-eastern France.  ",NA,NA,5,Jérémie Delorme,FALSE,fran1269,9,1,1,0,FALSE,FALSE,NA,,NA,NA,,70,0,0,0,0,NA,,FALSE,FALSE,_,NA,NA,NA,NA,NA,NA,NA,45.92,7.05,FALSE,FALSE,FALSE,"Set at the meeting point of the borders of Switzerland (Suisse Romande), Italy (Val d'Aosta) and France (Savoy), the regions of all three countries where Franco-Provençal is spoken. "
33,25,52070,3,5,fra,5564,300,0.99,French,French,,NA,NA,5,Paul Heggarty,FALSE,stan1290,9,1,1,0,FALSE,FALSE,NA,http://www.cnrtl.fr/etymologie/,NA,NA,"Standard, with lexical usage of north-central France.",63,2,2,0,0,NA,French,FALSE,FALSE,_,NA,NA,NA,NA,NA,NA,NA,47.24,0.69,TRUE,FALSE,FALSE,"Set in Tours, traditionally and still widely considered among French-speakers as a region whose (pronunciation) is close(st) to the perceived 'standard' language.  More relevant for IE-CoR is its location within north-central France, where lexical usage generally corresponds most closely to the entries in this IE-CoR data for French."
35,25,52072,1,34,fra,5564,300,0.99,French,French,,NA,NA,5,Paul Heggarty,FALSE,stan1290,9,1,1,0,FALSE,FALSE,NA,http://www.cnrtl.fr/etymologie/,NA,NA,"Standard, with lexical usage of north-central France.",63,2,2,0,0,NA,French,FALSE,FALSE,_,NA,NA,NA,NA,NA,NA,NA,47.24,0.69,TRUE,FALSE,FALSE,"Set in Tours, traditionally and still widely considered among French-speakers as a region whose (pronunciation) is close(st) to the perceived 'standard' language.  More relevant for IE-CoR is its location within north-central France, where lexical usage generally corresponds most closely to the entries in this IE-CoR data for French."
34,25,52071,2,51,fra,5564,300,0.99,French,French,,NA,NA,5,Paul Heggarty,FALSE,stan1290,9,1,1,0,FALSE,FALSE,NA,http://www.cnrtl.fr/etymologie/,NA,NA,"Standard, with lexical usage of north-central France.",63,2,2,0,0,NA,French,FALSE,FALSE,_,NA,NA,NA,NA,NA,NA,NA,47.24,0.69,TRUE,FALSE,FALSE,"Set in Tours, traditionally and still widely considered among French-speakers as a region whose (pronunciation) is close(st) to the perceived 'standard' language.  More relevant for IE-CoR is its location within north-central France, where lexical usage generally corresponds most closely to the entries in this IE-CoR data for French."
36,26,52002,3,1,frs,4889,500,1,Frisian,Frisian,,NA,NA,5,Arjen Versloot,FALSE,west2354,8,2,2,NA,FALSE,FALSE,NA,,NA,NA,"West Frisian, ‘common dialect’.",25,1,1,0,0,NA,Frisian,FALSE,FALSE,_,NA,NA,NA,NA,NA,NA,NA,53.13,5.78,FALSE,FALSE,FALSE,"Set roughly at the transition between the main surviving dialects, Klaaifrysk and Wâldfrysk."
38,26,52004,1,2,frs,4889,500,1,Frisian,Frisian,,NA,NA,5,Arjen Versloot,FALSE,west2354,8,2,2,NA,FALSE,FALSE,NA,,NA,NA,"West Frisian, ‘common dialect’.",25,1,1,0,0,NA,Frisian,FALSE,FALSE,_,NA,NA,NA,NA,NA,NA,NA,53.13,5.78,FALSE,FALSE,FALSE,"Set roughly at the transition between the main surviving dialects, Klaaifrysk and Wâldfrysk."
37,26,52003,2,37,frs,4889,500,1,Frisian,Frisian,,NA,NA,5,Arjen Versloot,FALSE,west2354,8,2,2,NA,FALSE,FALSE,NA,,NA,NA,"West Frisian, ‘common dialect’.",25,1,1,0,0,NA,Frisian,FALSE,FALSE,_,NA,NA,NA,NA,NA,NA,NA,53.13,5.78,FALSE,FALSE,FALSE,"Set roughly at the transition between the main surviving dialects, Klaaifrysk and Wâldfrysk."
161,122,52049,3,5,fur,5564,800,0.57,Friulian,Friulian,,NA,NA,5,Giorgio Cadorini,FALSE,friu1240,9,1,1,0,FALSE,FALSE,NA,http://claap.org/definizion/?diz=fur-it&leme=,NA,NA,,41,2,3,0,0,NA,Friulian,FALSE,FALSE,_,NA,NA,NA,NA,NA,NA,NA,46.06,13.23,FALSE,FALSE,FALSE,"Set in Udine, cultural and political centre of the Friulian language"
163,122,52051,1,34,fur,5564,800,0.57,Friulian,Friulian,,NA,NA,5,Giorgio Cadorini,FALSE,friu1240,9,1,1,0,FALSE,FALSE,NA,http://claap.org/definizion/?diz=fur-it&leme=,NA,NA,,41,2,3,0,0,NA,Friulian,FALSE,FALSE,_,NA,NA,NA,NA,NA,NA,NA,46.06,13.23,FALSE,FALSE,FALSE,"Set in Udine, cultural and political centre of the Friulian language"
162,122,52050,2,51,fur,5564,800,0.57,Friulian,Friulian,,NA,NA,5,Giorgio Cadorini,FALSE,friu1240,9,1,1,0,FALSE,FALSE,NA,http://claap.org/definizion/?diz=fur-it&leme=,NA,NA,,41,2,3,0,0,NA,Friulian,FALSE,FALSE,_,NA,NA,NA,NA,NA,NA,NA,46.06,13.23,FALSE,FALSE,FALSE,"Set in Udine, cultural and political centre of the Friulian language"
49,38,52139,3,15,gle,4889,1000,1,GaelicIrish,Gaelic: Irish,Modern standard as interpreted by a Galway speaker,NA,NA,5,Cormac Anderson,FALSE,iris1253,10,3,0,0,FALSE,FALSE,NA,http://www.teanglann.ie/ga/fgb/,NA,NA,Modern standard,40,4,1,0,0,NA,Irish,FALSE,FALSE,_,NA,NA,NA,NA,NA,NA,NA,53.21,-8.5,FALSE,FALSE,FALSE,Set at south Galway provenance of primary coder
50,38,52140,2,16,gle,4889,1000,1,GaelicIrish,Gaelic: Irish,Modern standard as interpreted by a Galway speaker,NA,NA,5,Cormac Anderson,FALSE,iris1253,10,3,0,0,FALSE,FALSE,NA,http://www.teanglann.ie/ga/fgb/,NA,NA,Modern standard,40,4,1,0,0,NA,Irish,FALSE,FALSE,_,NA,NA,NA,NA,NA,NA,NA,53.21,-8.5,FALSE,FALSE,FALSE,Set at south Galway provenance of primary coder
195,147,52137,3,15,glv,4889,600,1,GaelicManx,Gaelic: Manx,,NA,NA,5,Christopher Lewin,FALSE,manx1243,10,3,0,0,FALSE,FALSE,NA,,NA,NA,,30,4,1,0,0,NA,Manx,TRUE,FALSE,N,NA,NA,NA,200,30,NA,NA,54.26,-4.63,FALSE,FALSE,FALSE,"Set at Tynwald Hill, traditional meeting place of the Manx parliamentary assembly"
196,147,52138,2,16,glv,4889,600,1,GaelicManx,Gaelic: Manx,,NA,NA,5,Christopher Lewin,FALSE,manx1243,10,3,0,0,FALSE,FALSE,NA,,NA,NA,,30,4,1,0,0,NA,Manx,TRUE,FALSE,N,NA,NA,NA,200,30,NA,NA,54.26,-4.63,FALSE,FALSE,FALSE,"Set at Tynwald Hill, traditional meeting place of the Manx parliamentary assembly"
152,115,52135,3,15,gla,4889,600,1,GaelicScottish,Gaelic: Scottish,,NA,NA,5,Peadar O'Muircheartaigh,FALSE,scot1245,10,3,0,0,FALSE,FALSE,NA,,NA,NA,South Uist,20,4,1,0,0,NA,Scottish_Gaelic,FALSE,FALSE,_,NA,NA,NA,NA,NA,NA,NA,57.27,-7.32,FALSE,FALSE,FALSE,"Set at the geographical midpoint of the island of South Uist, the variety targeted here. "
153,115,52136,2,16,gla,4889,600,1,GaelicScottish,Gaelic: Scottish,,NA,NA,5,Peadar O'Muircheartaigh,FALSE,scot1245,10,3,0,0,FALSE,FALSE,NA,,NA,NA,South Uist,20,4,1,0,0,NA,Scottish_Gaelic,FALSE,FALSE,_,NA,NA,NA,NA,NA,NA,NA,57.27,-7.32,FALSE,FALSE,FALSE,"Set at the geographical midpoint of the island of South Uist, the variety targeted here. "
185,140,52104,3,15,xtg,4889,2800,0.79,Gaulish,Gaulish,"Lexeme determinations are difficult because much of our knowledge of the Gaulish lexicon is through analysis of proper names, including personal names, theonyms, and toponyms. Lexeme determinations have been made in cases where it seems clear that a form did indeed have the relevant meaning synchronically in Gaulish, including cases where this is an inference from proper names. For extensive discussion of the difficulties in determining lexeme meanings in Gaulish, see the introduction to Delamarre's Gaulish lexicon. ",2300,1800,5,Britta Irslinger,FALSE,tran1282,10,1,0,0,FALSE,FALSE,NA,,NA,NA,,20,4,3,0,0,NA,Gaulish,TRUE,FALSE,N,NA,NA,NA,2050,125,NA,NA,45.7,3.1,FALSE,FALSE,FALSE,"Gergovia, stronghold of the Arverni"
186,140,52105,2,39,xtg,4889,2800,0.79,Gaulish,Gaulish,"Lexeme determinations are difficult because much of our knowledge of the Gaulish lexicon is through analysis of proper names, including personal names, theonyms, and toponyms. Lexeme determinations have been made in cases where it seems clear that a form did indeed have the relevant meaning synchronically in Gaulish, including cases where this is an inference from proper names. For extensive discussion of the difficulties in determining lexeme meanings in Gaulish, see the introduction to Delamarre's Gaulish lexicon. ",2300,1800,5,Britta Irslinger,FALSE,tran1282,10,1,0,0,FALSE,FALSE,NA,,NA,NA,,20,4,3,0,0,NA,Gaulish,TRUE,FALSE,N,NA,NA,NA,2050,125,NA,NA,45.7,3.1,FALSE,FALSE,FALSE,"Gergovia, stronghold of the Arverni"
377,288,51772,2,24,gwt,5520,1950,0.98,Gawarbati,Gawarbati,"This is not a true dialect division, more a recent divergence effect from the international border (Pakistan/Afghanistan) cutting through the region where the language is spoken.",NA,NA,5,Henrik Liljegren,FALSE,gawa1247,6,1,0,0,FALSE,FALSE,NA,,NA,NA,Pakistani Gawarbati,84,0,0,0,0,NA,,FALSE,FALSE,_,NA,NA,NA,NA,NA,NA,NA,35.311,71.55,FALSE,FALSE,FALSE,"Set on Arandu (Chitral district), the main Gawarbati town on the Pakistani side of the border and home of the main language consultant for these IE-CoR data."
376,288,51771,3,33,gwt,6981,1950,0.98,Gawarbati,Gawarbati,"This is not a true dialect division, more a recent divergence effect from the international border (Pakistan/Afghanistan) cutting through the region where the language is spoken.",NA,NA,5,Henrik Liljegren,FALSE,gawa1247,6,1,0,0,FALSE,FALSE,NA,,NA,NA,Pakistani Gawarbati,84,0,0,0,0,NA,,FALSE,FALSE,_,NA,NA,NA,NA,NA,NA,NA,35.311,71.55,FALSE,FALSE,FALSE,"Set on Arandu (Chitral district), the main Gawarbati town on the Pakistani side of the border and home of the main language consultant for these IE-CoR data."
382,290,51770,2,24,gwc,5520,1200,1,Gawri,Gawri,The best described variety and the ’standard for ongoing orthography development. ,NA,NA,3,Muhammad Zaman Sagar and Henrik Liljegren,FALSE,kala1373,6,1,0,0,FALSE,FALSE,NA,,NA,NA,"Kalam Kohistani, representing one of two main varieties (of Swat and Dir, respectively)",82,0,0,0,0,NA,,FALSE,FALSE,_,NA,NA,NA,NA,NA,NA,NA,35.478,72.589,FALSE,FALSE,FALSE,"Set on Kalam (Swat district), the main Gawri town and home of the main language consultant for these IE-CoR data."
381,290,51769,3,33,gwc,6981,1200,1,Gawri,Gawri,The best described variety and the ’standard for ongoing orthography development. ,NA,NA,3,Muhammad Zaman Sagar and Henrik Liljegren,FALSE,kala1373,6,1,0,0,FALSE,FALSE,NA,,NA,NA,"Kalam Kohistani, representing one of two main varieties (of Swat and Dir, respectively)",82,0,0,0,0,NA,,FALSE,FALSE,_,NA,NA,NA,NA,NA,NA,NA,35.478,72.589,FALSE,FALSE,FALSE,"Set on Kalam (Swat district), the main Gawri town and home of the main language consultant for these IE-CoR data."
39,27,52026,3,1,deu,4889,200,1,German,German,"‘Hochdeutsch’ standard German, particularly as spoken in (north-central) Germany.",NA,NA,5,Cassandra Freiberg,FALSE,stan1295,8,2,2,NA,FALSE,FALSE,NA,,NA,NA,"‘Hochdeutsch’ standard, in (north-central) Germany.",57,1,1,0,0,NA,German,FALSE,FALSE,_,NA,NA,NA,NA,NA,NA,NA,52.37,9.72,FALSE,FALSE,FALSE,"Set on Hannover.  Although without particular linguistic merit, Hannover is at least widely considered among German-speakers as a region whose (pronunciation) is close(st) to the perceived ‘standard’ language.  More relevant for IE-CoR is simply that Hannover is in a fairly central location within northern Germany, where lexical usage generally corresponds most closely to the lexeme determinations in the IE-CoR data for German."
41,27,52028,1,2,deu,4889,200,1,German,German,"‘Hochdeutsch’ standard German, particularly as spoken in (north-central) Germany.",NA,NA,5,Cassandra Freiberg,FALSE,stan1295,8,2,2,NA,FALSE,FALSE,NA,,NA,NA,"‘Hochdeutsch’ standard, in (north-central) Germany.",57,1,1,0,0,NA,German,FALSE,FALSE,_,NA,NA,NA,NA,NA,NA,NA,52.37,9.72,FALSE,FALSE,FALSE,"Set on Hannover.  Although without particular linguistic merit, Hannover is at least widely considered among German-speakers as a region whose (pronunciation) is close(st) to the perceived ‘standard’ language.  More relevant for IE-CoR is simply that Hannover is in a fairly central location within northern Germany, where lexical usage generally corresponds most closely to the lexeme determinations in the IE-CoR data for German."
40,27,52027,2,37,deu,4889,200,1,German,German,"‘Hochdeutsch’ standard German, particularly as spoken in (north-central) Germany.",NA,NA,5,Cassandra Freiberg,FALSE,stan1295,8,2,2,NA,FALSE,FALSE,NA,,NA,NA,"‘Hochdeutsch’ standard, in (north-central) Germany.",57,1,1,0,0,NA,German,FALSE,FALSE,_,NA,NA,NA,NA,NA,NA,NA,52.37,9.72,FALSE,FALSE,FALSE,"Set on Hannover.  Although without particular linguistic merit, Hannover is at least widely considered among German-speakers as a region whose (pronunciation) is close(st) to the perceived ‘standard’ language.  More relevant for IE-CoR is simply that Hannover is in a fairly central location within northern Germany, where lexical usage generally corresponds most closely to the lexeme determinations in the IE-CoR data for German."
338,263,52029,3,1,gsw,4889,200,1,GermanBernese,German: Bernese,,NA,NA,5,Manuel Widmer,FALSE,swis1247,8,2,2,NA,FALSE,FALSE,NA,,NA,NA,,59,0,0,0,0,NA,,FALSE,FALSE,_,NA,NA,NA,NA,NA,NA,NA,46.95,7.42,FALSE,FALSE,FALSE,Set on Bern.
340,263,52031,1,2,gsw,4889,200,1,GermanBernese,German: Bernese,,NA,NA,5,Manuel Widmer,FALSE,swis1247,8,2,2,NA,FALSE,FALSE,NA,,NA,NA,,59,0,0,0,0,NA,,FALSE,FALSE,_,NA,NA,NA,NA,NA,NA,NA,46.95,7.42,FALSE,FALSE,FALSE,Set on Bern.
339,263,52030,2,37,gsw,4889,200,1,GermanBernese,German: Bernese,,NA,NA,5,Manuel Widmer,FALSE,swis1247,8,2,2,NA,FALSE,FALSE,NA,,NA,NA,,59,0,0,0,0,NA,,FALSE,FALSE,_,NA,NA,NA,NA,NA,NA,NA,46.95,7.42,FALSE,FALSE,FALSE,Set on Bern.
412,303,51949,3,1,got,4889,2400,1,Gothic,Gothic,,NA,NA,5,Matthew Boutilier,FALSE,goth1244,8,1,0,0,FALSE,FALSE,NA,,NA,NA,The text of the Gothic Bible as translated by Wulfila.,0,0,0,0,0,NA,,TRUE,FALSE,N,NA,NA,NA,1630,10,NA,NA,43.22,25.61,FALSE,FALSE,FALSE,"Nicopolis ad Istrum. Although original to northern Europe, by the date at which Gothic language was first written down, in the form of Wulfila's translation of the Bible into Gothic, Wulfila and his Gothic-speaking followers were settled in the Roman province of Moesia, around Nicopolis ad Istrum (near Veliko Tarnovo in north-central Bulgaria) "
413,303,51950,2,36,got,4889,2400,1,Gothic,Gothic,,NA,NA,5,Matthew Boutilier,FALSE,goth1244,8,1,0,0,FALSE,FALSE,NA,,NA,NA,The text of the Gothic Bible as translated by Wulfila.,0,0,0,0,0,NA,,TRUE,FALSE,N,NA,NA,NA,1630,10,NA,NA,43.22,25.61,FALSE,FALSE,FALSE,"Nicopolis ad Istrum. Although original to northern Europe, by the date at which Gothic language was first written down, in the form of Wulfila's translation of the Bible into Gothic, Wulfila and his Gothic-speaking followers were settled in the Roman province of Moesia, around Nicopolis ad Istrum (near Veliko Tarnovo in north-central Bulgaria) "
138,107,51951,3,1,got,4889,2400,1,GothicLegacy,Gothic_Legacy,,NA,NA,5,Tonya Dewey,FALSE,goth1244,8,1,0,0,FALSE,FALSE,NA,http://www.wulfila.be/lib/streitberg/1910/html/B,NA,NA,,10,1,3,0,0,NA,Gothic,TRUE,TRUE,N,NA,NA,NA,1630,10,NA,NA,44.1,21.7,FALSE,FALSE,FALSE,
139,107,51952,2,36,got,4889,2400,1,GothicLegacy,Gothic_Legacy,,NA,NA,5,Tonya Dewey,FALSE,goth1244,8,1,0,0,FALSE,FALSE,NA,http://www.wulfila.be/lib/streitberg/1910/html/B,NA,NA,,10,1,3,0,0,NA,Gothic,TRUE,TRUE,N,NA,NA,NA,1630,10,NA,NA,44.1,21.7,FALSE,FALSE,FALSE,
42,32,51723,3,21,ell,5310,550,0.7,Greek,Greek: Modern Std,"Contemporary Standard Modern Greek.  Transliterations follow ISO 843 TL. For phonological interpretation cf. Holton, Mackridge, and Philippaki-Warburton (2012)",NA,NA,5,Matthew Scarborough,FALSE,mode1248,3,2,0,0,FALSE,FALSE,NA,http://www.greek-language.gr/greekLang/modern_greek/tools/lexica/triantafyllides/search.html?lq=,NA,NA,,40,5,0,0,0,NA,Greek,FALSE,FALSE,_,NA,NA,NA,NA,NA,NA,NA,37.98,23.73,FALSE,FALSE,FALSE,"Athens, the capital city of the present day Hellenic Republic."
43,32,51724,2,42,ell,5310,550,0.7,Greek,Greek: Modern Std,"Contemporary Standard Modern Greek.  Transliterations follow ISO 843 TL. For phonological interpretation cf. Holton, Mackridge, and Philippaki-Warburton (2012)",NA,NA,5,Matthew Scarborough,FALSE,mode1248,3,2,0,0,FALSE,FALSE,NA,http://www.greek-language.gr/greekLang/modern_greek/tools/lexica/triantafyllides/search.html?lq=,NA,NA,,40,5,0,0,0,NA,Greek,FALSE,FALSE,_,NA,NA,NA,NA,NA,NA,NA,37.98,23.73,FALSE,FALSE,FALSE,"Athens, the capital city of the present day Hellenic Republic."
255,210,51725,3,21,cpg,5310,900,0.27,GreekCappodocian,Greek: Cappadocian,,NA,NA,5,Nikos Liosis,FALSE,capp1239,3,2,0,0,FALSE,FALSE,NA,,NA,NA,,42,0,0,0,0,NA,Greek_Cappodocian,FALSE,FALSE,_,NA,NA,NA,NA,NA,NA,NA,38.73,35.45,FALSE,FALSE,FALSE,Area roughly corresponding to location of villages where present day Cappadocian Greek dialects are spoken.
256,210,51726,2,42,cpg,5310,900,0.27,GreekCappodocian,Greek: Cappadocian,,NA,NA,5,Nikos Liosis,FALSE,capp1239,3,2,0,0,FALSE,FALSE,NA,,NA,NA,,42,0,0,0,0,NA,Greek_Cappodocian,FALSE,FALSE,_,NA,NA,NA,NA,NA,NA,NA,38.73,35.45,FALSE,FALSE,FALSE,Area roughly corresponding to location of villages where present day Cappadocian Greek dialects are spoken.
237,195,51729,3,21,ell,5310,550,0.7,GreekCypriot,Greek: Cypriot,,NA,NA,5,Charalambos Christodoulou,FALSE,cypr1249,3,2,0,0,FALSE,FALSE,NA,,NA,NA,,49,0,0,0,0,NA,Greek_Cypriot,FALSE,FALSE,_,NA,NA,NA,NA,NA,NA,NA,35,33,FALSE,FALSE,FALSE,Approximate centre of the Greek Cypriot administered region of Cyprus.
238,195,51730,2,42,ell,5310,550,0.7,GreekCypriot,Greek: Cypriot,,NA,NA,5,Charalambos Christodoulou,FALSE,cypr1249,3,2,0,0,FALSE,FALSE,NA,,NA,NA,,49,0,0,0,0,NA,Greek_Cypriot,FALSE,FALSE,_,NA,NA,NA,NA,NA,NA,NA,35,33,FALSE,FALSE,FALSE,Approximate centre of the Greek Cypriot administered region of Cyprus.
239,201,51731,3,21,ell,5310,900,0.27,GreekItaliot,Greek: Italiot,Modern Italiot Greek. Note this list contains both Calabrian and Apulian forms.,NA,NA,5,Nikos Liosis,FALSE,apul1236,3,2,0,0,FALSE,FALSE,NA,,NA,NA,,52,0,0,0,0,NA,Greek_Italiot,FALSE,FALSE,_,NA,NA,NA,NA,NA,NA,NA,37.94,15.83,FALSE,FALSE,FALSE,"Region of Calabria, one of two main locations along with Apulia where modern Italiot varieties of Hellenic are spoken in present day."
240,201,51732,2,42,ell,5310,900,0.27,GreekItaliot,Greek: Italiot,Modern Italiot Greek. Note this list contains both Calabrian and Apulian forms.,NA,NA,5,Nikos Liosis,FALSE,apul1236,3,2,0,0,FALSE,FALSE,NA,,NA,NA,,52,0,0,0,0,NA,Greek_Italiot,FALSE,FALSE,_,NA,NA,NA,NA,NA,NA,NA,37.94,15.83,FALSE,FALSE,FALSE,"Region of Calabria, one of two main locations along with Apulia where modern Italiot varieties of Hellenic are spoken in present day."
257,211,51727,3,21,pnt,5310,950,0.14,GreekPontic,Greek: Pontic,,NA,NA,5,Nikos Liosis,FALSE,pont1253,3,2,0,0,FALSE,FALSE,NA,,NA,NA,,44,0,0,0,0,NA,Greek_Pontic,FALSE,FALSE,_,NA,NA,NA,NA,NA,NA,NA,40.85,40.26,FALSE,FALSE,FALSE,"Geographical co-ordinates between Of and Çaykara in Trabazon province, the two regions with the largest numbers of Pontic Greek speakers in Anatolia."
258,211,51728,2,42,pnt,5310,950,0.14,GreekPontic,Greek: Pontic,,NA,NA,5,Nikos Liosis,FALSE,pont1253,3,2,0,0,FALSE,FALSE,NA,,NA,NA,,44,0,0,0,0,NA,Greek_Pontic,FALSE,FALSE,_,NA,NA,NA,NA,NA,NA,NA,40.85,40.26,FALSE,FALSE,FALSE,"Geographical co-ordinates between Of and Çaykara in Trabazon province, the two regions with the largest numbers of Pontic Greek speakers in Anatolia."
365,282,51832,2,23,hac,5520,500,0.87,Hawrami,Hawrami,,NA,NA,5,Parvin Mahmoudveysi,FALSE,hawr1243,6,3,0,0,FALSE,FALSE,NA,,NA,NA,,70,0,0,0,0,NA,,FALSE,FALSE,_,NA,NA,NA,NA,NA,NA,NA,35.04,46.36,FALSE,FALSE,FALSE,"Set at Parveh, Iran, main urban centre in which this variety is spoken"
364,282,51831,3,33,hac,6981,500,0.87,Hawrami,Hawrami,,NA,NA,5,Parvin Mahmoudveysi,FALSE,hawr1243,6,3,0,0,FALSE,FALSE,NA,,NA,NA,,70,0,0,0,0,NA,,FALSE,FALSE,_,NA,NA,NA,NA,NA,NA,NA,35.04,46.36,FALSE,FALSE,FALSE,"Set at Parveh, Iran, main urban centre in which this variety is spoken"
45,35,51756,2,24,hin,5520,200,1,Hindi,Hindi,"Hindi:  the official language of India, and a lingua franca for almost all of nothern India.",NA,NA,5,Krzysztof Stroński,FALSE,hind1269,6,1,0,0,FALSE,FALSE,NA,,NA,NA,,45,8,0,0,0,NA,Hindi,FALSE,FALSE,_,NA,NA,NA,NA,NA,NA,NA,28.704,77.102,TRUE,FALSE,FALSE,"Set on Delhi, India"
44,35,51755,3,33,hin,6981,200,1,Hindi,Hindi,"Hindi:  the official language of India, and a lingua franca for almost all of nothern India.",NA,NA,5,Krzysztof Stroński,FALSE,hind1269,6,1,0,0,FALSE,FALSE,NA,,NA,NA,,45,8,0,0,0,NA,Hindi,FALSE,FALSE,_,NA,NA,NA,NA,NA,NA,NA,28.704,77.102,TRUE,FALSE,FALSE,"Set on Delhi, India"
117,80,3033,3,22,hit,6932,4700,1,Hittite,Hittite,,NA,NA,5,Matilde Serangeli and Matthew Scarborough,FALSE,hitt1242,1,0,0,0,FALSE,TRUE,NA,,NA,NA,,10,6,0,0,0,NA,Hittite,TRUE,FALSE,N,NA,NA,NA,3450,125,NA,NA,40.01,34.62,FALSE,FALSE,FALSE,Site of Boğhazkale (Boğhazköy) identified with the Hittite capital Ḫattuša.
46,36,51959,3,1,isl,4889,1000,0.99,Icelandic,Icelandic,,NA,NA,5,Tonya Kim Dewey-Findell,FALSE,icel1247,8,2,1,0,FALSE,FALSE,NA,,NA,NA,,20,1,2,0,0,NA,Icelandic,FALSE,FALSE,_,NA,NA,NA,NA,NA,NA,NA,64.139,-21.951,FALSE,FALSE,FALSE,"Set in Reykjavík (on the Árni Magnússon Institute), as the capital of Iceland, given the general perception that dialectal variation by geography is in any case minimal."
48,36,51961,1,3,isl,4889,1000,0.99,Icelandic,Icelandic,,NA,NA,5,Tonya Kim Dewey-Findell,FALSE,icel1247,8,2,1,0,FALSE,FALSE,NA,,NA,NA,,20,1,2,0,0,NA,Icelandic,FALSE,FALSE,_,NA,NA,NA,NA,NA,NA,NA,64.139,-21.951,FALSE,FALSE,FALSE,"Set in Reykjavík (on the Árni Magnússon Institute), as the capital of Iceland, given the general perception that dialectal variation by geography is in any case minimal."
47,36,51960,2,37,isl,4889,1000,0.99,Icelandic,Icelandic,,NA,NA,5,Tonya Kim Dewey-Findell,FALSE,icel1247,8,2,1,0,FALSE,FALSE,NA,,NA,NA,,20,1,2,0,0,NA,Icelandic,FALSE,FALSE,_,NA,NA,NA,NA,NA,NA,NA,64.139,-21.951,FALSE,FALSE,FALSE,"Set in Reykjavík (on the Árni Magnússon Institute), as the capital of Iceland, given the general perception that dialectal variation by geography is in any case minimal."
51,39,52046,3,5,ita,5564,300,1,Italian,Italian,,NA,NA,5,Cormac Anderson and Matilde Serangeli,FALSE,ital1282,9,1,1,0,FALSE,FALSE,NA,,NA,NA,Standard (originally based on the Florence dialect of Dante),37,2,4,0,0,NA,Italian,FALSE,FALSE,_,NA,NA,NA,NA,NA,NA,NA,43.77,11.25,TRUE,FALSE,FALSE,"Set in Florence, the dialect of which historically formed the basis of standard ‘Italian’."
53,39,52048,1,34,ita,5564,300,1,Italian,Italian,,NA,NA,5,Cormac Anderson and Matilde Serangeli,FALSE,ital1282,9,1,1,0,FALSE,FALSE,NA,,NA,NA,Standard (originally based on the Florence dialect of Dante),37,2,4,0,0,NA,Italian,FALSE,FALSE,_,NA,NA,NA,NA,NA,NA,NA,43.77,11.25,TRUE,FALSE,FALSE,"Set in Florence, the dialect of which historically formed the basis of standard ‘Italian’."
52,39,52047,2,51,ita,5564,300,1,Italian,Italian,,NA,NA,5,Cormac Anderson and Matilde Serangeli,FALSE,ital1282,9,1,1,0,FALSE,FALSE,NA,,NA,NA,Standard (originally based on the Florence dialect of Dante),37,2,4,0,0,NA,Italian,FALSE,FALSE,_,NA,NA,NA,NA,NA,NA,NA,43.77,11.25,TRUE,FALSE,FALSE,"Set in Florence, the dialect of which historically formed the basis of standard ‘Italian’."
268,216,51792,2,27,wbk,6981,1500,1,KalasaAlaNiseigram_Legacy,Kalaṣa-alâ: Nišeigrâm_Legacy,"Kalaṣa-alâ consists of two major dialect groups, one comprising four villages of the upper Wâigal Valley plus four villages in adjacent valleys, the other including five villages in the lower valley.  Each village has its own sub-dialect.  The dialect of Nišeigrâm is the major one of the lower dialect group.  Kalaṣa-alâ has been called ""Waigali"" after the name of its home valley, but properly that name should denote only the dialect of the major village of the upper valley,Vâigal.",NA,NA,5,Richard Strand,FALSE,chim1297,6,2,0,0,FALSE,FALSE,NA,,NA,NA,"Nišei-alâ, the dialect of Kalaṣa-alâ spoken in Nišeigrâm.",30,0,0,0,0,NA,Kalasa-alaNiseigram,FALSE,TRUE,_,NA,NA,NA,NA,NA,NA,NA,35.093,70.848,FALSE,FALSE,FALSE,"Location of the main community, Niše'i (Nišeigrâm)."
267,216,51791,3,33,wbk,6981,1500,1,KalasaAlaNiseigram_Legacy,Kalaṣa-alâ: Nišeigrâm_Legacy,"Kalaṣa-alâ consists of two major dialect groups, one comprising four villages of the upper Wâigal Valley plus four villages in adjacent valleys, the other including five villages in the lower valley.  Each village has its own sub-dialect.  The dialect of Nišeigrâm is the major one of the lower dialect group.  Kalaṣa-alâ has been called ""Waigali"" after the name of its home valley, but properly that name should denote only the dialect of the major village of the upper valley,Vâigal.",NA,NA,5,Richard Strand,FALSE,chim1297,6,2,0,0,FALSE,FALSE,NA,,NA,NA,"Nišei-alâ, the dialect of Kalaṣa-alâ spoken in Nišeigrâm.",30,0,0,0,0,NA,Kalasa-alaNiseigram,FALSE,TRUE,_,NA,NA,NA,NA,NA,NA,NA,35.093,70.848,FALSE,FALSE,FALSE,"Location of the main community, Niše'i (Nišeigrâm)."
434,316,51790,2,27,wbk,6981,750,0.78,KalasalaNiseigram,Kalaṣa-alâ: Nišeigrâm,"Kalaṣa-alâ consists of two major dialect groups, one comprising four villages of the upper Wâigal Valley plus four villages in adjacent valleys, the other including five villages in the lower valley.  Each village has its own sub-dialect.  The dialect of Nišeigrâm is the major one of the lower dialect group.  Kalaṣa-alâ has been called ""Waigali"" after the name of its home valley, but properly that name should denote only the dialect of the major village of the upper valley,Vâigal.",NA,NA,5,Richard Strand,FALSE,chim1297,6,2,0,0,FALSE,FALSE,NA,,NA,NA,"Nišei-alâ, the dialect of Kalaṣa-alâ spoken in Nišeigrâm.",30,0,0,0,0,NA,,FALSE,FALSE,_,NA,NA,NA,NA,NA,NA,NA,35.093,70.848,FALSE,FALSE,FALSE,"Location of the main community, Niše'i (Nišeigrâm)."
433,316,51789,3,33,wbk,6981,750,0.78,KalasalaNiseigram,Kalaṣa-alâ: Nišeigrâm,"Kalaṣa-alâ consists of two major dialect groups, one comprising four villages of the upper Wâigal Valley plus four villages in adjacent valleys, the other including five villages in the lower valley.  Each village has its own sub-dialect.  The dialect of Nišeigrâm is the major one of the lower dialect group.  Kalaṣa-alâ has been called ""Waigali"" after the name of its home valley, but properly that name should denote only the dialect of the major village of the upper valley,Vâigal.",NA,NA,5,Richard Strand,FALSE,chim1297,6,2,0,0,FALSE,FALSE,NA,,NA,NA,"Nišei-alâ, the dialect of Kalaṣa-alâ spoken in Nišeigrâm.",30,0,0,0,0,NA,,FALSE,FALSE,_,NA,NA,NA,NA,NA,NA,NA,35.093,70.848,FALSE,FALSE,FALSE,"Location of the main community, Niše'i (Nišeigrâm)."
428,312,51778,2,27,xvi,6981,150,1,Kamviri,Kamviri,"Kâmkata-vari comprises two major dialects, Kâmviri and Kâta-vari, named after the ethnonyms of their speakers, the Kom and the Kâta.  The Kom, at least, are most probably descendants of the ancient Kamboja people, known since the 6th century BCE.  Kâmkata-vari has been misnamed ""Kati"" and ""Bashgali"" in older literature, without regard to the dialects.",NA,NA,5,Richard Strand,FALSE,kamv1242,6,2,0,0,FALSE,FALSE,NA,,NA,NA,The Kâmviri dialect of Kâmkata-vari.,10,0,0,0,0,NA,,FALSE,FALSE,_,NA,NA,NA,NA,NA,NA,NA,35.411,71.34,FALSE,FALSE,FALSE,"Location of the main community, Kâmdesh (Kʹombřom)."
427,312,51777,3,33,xvi,6981,150,1,Kamviri,Kamviri,"Kâmkata-vari comprises two major dialects, Kâmviri and Kâta-vari, named after the ethnonyms of their speakers, the Kom and the Kâta.  The Kom, at least, are most probably descendants of the ancient Kamboja people, known since the 6th century BCE.  Kâmkata-vari has been misnamed ""Kati"" and ""Bashgali"" in older literature, without regard to the dialects.",NA,NA,5,Richard Strand,FALSE,kamv1242,6,2,0,0,FALSE,FALSE,NA,,NA,NA,The Kâmviri dialect of Kâmkata-vari.,10,0,0,0,0,NA,,FALSE,FALSE,_,NA,NA,NA,NA,NA,NA,NA,35.411,71.34,FALSE,FALSE,FALSE,"Location of the main community, Kâmdesh (Kʹombřom)."
264,214,51780,2,27,xvi,6981,100,0.92,Kamviri_Legacy,Kâmviri_Legacy,"Kâmkata-vari comprises two major dialects, Kâmviri and Kâta-vari, named after the ethnonyms of their speakers, the Kom and the Kâta.  The Kom, at least, are most probably descendants of the ancient Kamboja people, known since the 6th century BCE.  Kâmkata-vari has been misnamed ""Kati"" and ""Bashgali"" in older literature, without regard to the dialects.",NA,NA,5,Richard Strand,FALSE,kamv1242,6,2,0,0,FALSE,FALSE,NA,,NA,NA,The Kâmviri dialect of Kâmkata-vari.,10,0,0,0,0,NA,Kamviri,FALSE,TRUE,_,NA,NA,NA,NA,NA,NA,NA,35.411,71.34,FALSE,FALSE,FALSE,"Location of the main community, Kâmdesh (Kʹombřom)."
263,214,51779,3,33,xvi,6981,100,0.92,Kamviri_Legacy,Kâmviri_Legacy,"Kâmkata-vari comprises two major dialects, Kâmviri and Kâta-vari, named after the ethnonyms of their speakers, the Kom and the Kâta.  The Kom, at least, are most probably descendants of the ancient Kamboja people, known since the 6th century BCE.  Kâmkata-vari has been misnamed ""Kati"" and ""Bashgali"" in older literature, without regard to the dialects.",NA,NA,5,Richard Strand,FALSE,kamv1242,6,2,0,0,FALSE,FALSE,NA,,NA,NA,The Kâmviri dialect of Kâmkata-vari.,10,0,0,0,0,NA,Kamviri,FALSE,TRUE,_,NA,NA,NA,NA,NA,NA,NA,35.411,71.34,FALSE,FALSE,FALSE,"Location of the main community, Kâmdesh (Kʹombřom)."
55,40,51766,2,24,kas,5520,2550,0.82,Kashmiri,Kashmiri,"This is essentially a northern variety of Kashmiri of the Kashmir valley, with respect to more divergent regional forms such as Poguli and Kashtawari spoken outside of the valley. However, this particular sub-variety is the one spoken on the Pakistani-administered side of the Line of Control.",NA,NA,5,Khawaja Rehman,FALSE,kash1277,6,1,0,0,FALSE,FALSE,NA,,NA,NA,Kamraaz variety,77,8,7,0,0,NA,Kashmiri,FALSE,FALSE,_,NA,NA,NA,NA,NA,NA,NA,34.793,74.193,FALSE,FALSE,FALSE,"Set on Sharda (Neelum valley, Azad Jammu & Kashmir), the home of the main language consultant for these IE-CoR data."
54,40,51765,3,33,kas,6981,2550,0.82,Kashmiri,Kashmiri,"This is essentially a northern variety of Kashmiri of the Kashmir valley, with respect to more divergent regional forms such as Poguli and Kashtawari spoken outside of the valley. However, this particular sub-variety is the one spoken on the Pakistani-administered side of the Line of Control.",NA,NA,5,Khawaja Rehman,FALSE,kash1277,6,1,0,0,FALSE,FALSE,NA,,NA,NA,Kamraaz variety,77,8,7,0,0,NA,Kashmiri,FALSE,FALSE,_,NA,NA,NA,NA,NA,NA,NA,34.793,74.193,FALSE,FALSE,FALSE,"Set on Sharda (Neelum valley, Azad Jammu & Kashmir), the home of the main language consultant for these IE-CoR data."
217,175,51913,3,11,csb,3663,400,1,Kashubian,Kashubian,West Slavic minority language spoken in Poland. Central Kashubian as spoken in the western part of this dialect area in the vicinity of Serakòjce (Sierakowice),NA,NA,5,Lechosław Jocz,FALSE,kash1274,7,2,2,0,FALSE,FALSE,NA,,NA,NA,"Central dialect, around Sierakowice",75,3,2,0,0,NA,Kashubian,FALSE,FALSE,_,NA,NA,NA,NA,NA,NA,NA,54.35,17.89,FALSE,FALSE,FALSE,"Set on the village of Sierakowice, the largest town in the Central-West Kashubian dialect area"
218,175,51914,2,12,csb,3663,400,1,Kashubian,Kashubian,West Slavic minority language spoken in Poland. Central Kashubian as spoken in the western part of this dialect area in the vicinity of Serakòjce (Sierakowice),NA,NA,5,Lechosław Jocz,FALSE,kash1274,7,2,2,0,FALSE,FALSE,NA,,NA,NA,"Central dialect, around Sierakowice",75,3,2,0,0,NA,Kashubian,FALSE,FALSE,_,NA,NA,NA,NA,NA,NA,NA,54.35,17.89,FALSE,FALSE,FALSE,"Set on the village of Sierakowice, the largest town in the Central-West Kashubian dialect area"
219,175,51915,1,46,csb,3663,400,1,Kashubian,Kashubian,West Slavic minority language spoken in Poland. Central Kashubian as spoken in the western part of this dialect area in the vicinity of Serakòjce (Sierakowice),NA,NA,5,Lechosław Jocz,FALSE,kash1274,7,2,2,0,FALSE,FALSE,NA,,NA,NA,"Central dialect, around Sierakowice",75,3,2,0,0,NA,Kashubian,FALSE,FALSE,_,NA,NA,NA,NA,NA,NA,NA,54.35,17.89,FALSE,FALSE,FALSE,"Set on the village of Sierakowice, the largest town in the Central-West Kashubian dialect area"
430,314,51782,2,27,bsh,6981,100,0.92,KatavariEastern,Kâta-vari: Eastern,"Kâmkata-vari comprises two major dialects, Kâmviri and Kâta-vari, named after the ethnonyms of their speakers, the Kom and the Kâta.  Kâta-vari itself comprises two major dialects, Eastern Kâta-vari and Western Kâta-vari, of which the former is more conservative.  Kâmkata-vari has been misnamed ""Kati"" and ""Bashgali"" in older literature, without regard to the dialects.",NA,NA,5,Richard Strand,FALSE,east2308,6,2,0,0,FALSE,FALSE,NA,,NA,NA,The Eastern Kâta-vari dialect of Kâmkata-vari. ,20,0,0,0,0,NA,,FALSE,FALSE,_,NA,NA,NA,NA,NA,NA,NA,35.674,71.344,FALSE,FALSE,FALSE,"Location of the main community, Barg-i Matâl (Břagʹamâṭol)."
429,314,51781,3,33,bsh,6981,100,0.92,KatavariEastern,Kâta-vari: Eastern,"Kâmkata-vari comprises two major dialects, Kâmviri and Kâta-vari, named after the ethnonyms of their speakers, the Kom and the Kâta.  Kâta-vari itself comprises two major dialects, Eastern Kâta-vari and Western Kâta-vari, of which the former is more conservative.  Kâmkata-vari has been misnamed ""Kati"" and ""Bashgali"" in older literature, without regard to the dialects.",NA,NA,5,Richard Strand,FALSE,east2308,6,2,0,0,FALSE,FALSE,NA,,NA,NA,The Eastern Kâta-vari dialect of Kâmkata-vari. ,20,0,0,0,0,NA,,FALSE,FALSE,_,NA,NA,NA,NA,NA,NA,NA,35.674,71.344,FALSE,FALSE,FALSE,"Location of the main community, Barg-i Matâl (Břagʹamâṭol)."
188,141,51784,2,27,bsh,6981,150,1,KataVariEastern_Legacy,Kâta-vari: Eastern_Legacy,"Kâmkata-vari comprises two major dialects, Kâmviri and Kâta-vari, named after the ethnonyms of their speakers, the Kom and the Kâta.  Kâta-vari itself comprises two major dialects, Eastern Kâta-vari and Western Kâta-vari, of which the former is more conservative.  Kâmkata-vari has been misnamed ""Kati"" and ""Bashgali"" in older literature, without regard to the dialects.",NA,NA,5,Richard Strand,FALSE,east2308,6,2,0,0,FALSE,FALSE,NA,,NA,NA,The Eastern Kâta-vari dialect of Kâmkata-vari. ,20,8,8,0,0,NA,Kata-viriEastern,FALSE,TRUE,_,NA,NA,NA,NA,NA,NA,NA,35.674,71.344,FALSE,FALSE,FALSE,"Location of the main community, Barg-i Matâl (Břagʹamâṭol)."
187,141,51783,3,33,bsh,6981,150,1,KataVariEastern_Legacy,Kâta-vari: Eastern_Legacy,"Kâmkata-vari comprises two major dialects, Kâmviri and Kâta-vari, named after the ethnonyms of their speakers, the Kom and the Kâta.  Kâta-vari itself comprises two major dialects, Eastern Kâta-vari and Western Kâta-vari, of which the former is more conservative.  Kâmkata-vari has been misnamed ""Kati"" and ""Bashgali"" in older literature, without regard to the dialects.",NA,NA,5,Richard Strand,FALSE,east2308,6,2,0,0,FALSE,FALSE,NA,,NA,NA,The Eastern Kâta-vari dialect of Kâmkata-vari. ,20,8,8,0,0,NA,Kata-viriEastern,FALSE,TRUE,_,NA,NA,NA,NA,NA,NA,NA,35.674,71.344,FALSE,FALSE,FALSE,"Location of the main community, Barg-i Matâl (Břagʹamâṭol)."
432,315,51788,2,27,bsh,6981,100,0.92,KatavariKtivi,Kâta-vari: Ktivi,"Kâmkata-vari comprises two major dialects, Kâmviri and Kâta-vari, named after the ethnonyms of their speakers, the Kom and the Kâta.  Kâta-vari itself comprises two major dialects, Eastern Kâta-vari and Western Kâta-vari.  Among other changes, Western Kâta-vari has lost vocalic nasalization, which is retained in the other dialects.  Kâmkata-vari has been misnamed ""Kati"" and ""Bashgali"" in older literature, without regard to the dialects.",NA,NA,5,Richard Strand,FALSE,west2372,6,2,0,0,FALSE,FALSE,NA,,NA,NA,"The Western Kâta-vari dialect of Kâmkata-vari, as spoken in the Ktivi Valley of central Nûristân.",25,0,0,0,0,NA,,FALSE,FALSE,_,NA,NA,NA,NA,NA,NA,NA,35.314,70.743,FALSE,FALSE,FALSE,"Location of the main community, Kântivâ (Ktʹivi)."
431,315,51787,3,33,bsh,6981,100,0.92,KatavariKtivi,Kâta-vari: Ktivi,"Kâmkata-vari comprises two major dialects, Kâmviri and Kâta-vari, named after the ethnonyms of their speakers, the Kom and the Kâta.  Kâta-vari itself comprises two major dialects, Eastern Kâta-vari and Western Kâta-vari.  Among other changes, Western Kâta-vari has lost vocalic nasalization, which is retained in the other dialects.  Kâmkata-vari has been misnamed ""Kati"" and ""Bashgali"" in older literature, without regard to the dialects.",NA,NA,5,Richard Strand,FALSE,west2372,6,2,0,0,FALSE,FALSE,NA,,NA,NA,"The Western Kâta-vari dialect of Kâmkata-vari, as spoken in the Ktivi Valley of central Nûristân.",25,0,0,0,0,NA,,FALSE,FALSE,_,NA,NA,NA,NA,NA,NA,NA,35.314,70.743,FALSE,FALSE,FALSE,"Location of the main community, Kântivâ (Ktʹivi)."
262,213,51786,2,27,bsh,6981,1000,1,KataVariKtivi_Legacy,Kâta-vari: Ktivi_Legacy,"Kâmkata-vari comprises two major dialects, Kâmviri and Kâta-vari, named after the ethnonyms of their speakers, the Kom and the Kâta.  Kâta-vari itself comprises two major dialects, Eastern Kâta-vari and Western Kâta-vari.  Among other changes, Western Kâta-vari has lost vocalic nasalization, which is retained in the other dialects.  Kâmkata-vari has been misnamed ""Kati"" and ""Bashgali"" in older literature, without regard to the dialects.",NA,NA,5,Richard Strand,FALSE,west2372,6,2,0,0,FALSE,FALSE,NA,,NA,NA,"The Western Kâta-vari dialect of Kâmkata-vari, as spoken in the Ktivi Valley of central Nûristân.",25,0,0,0,0,NA,Kata-variKtivi,FALSE,TRUE,_,NA,NA,NA,NA,NA,NA,NA,35.314,70.743,FALSE,FALSE,FALSE,"Location of the main community, Kântivâ (Ktʹivi)."
261,213,51785,3,33,bsh,6981,1000,1,KataVariKtivi_Legacy,Kâta-vari: Ktivi_Legacy,"Kâmkata-vari comprises two major dialects, Kâmviri and Kâta-vari, named after the ethnonyms of their speakers, the Kom and the Kâta.  Kâta-vari itself comprises two major dialects, Eastern Kâta-vari and Western Kâta-vari.  Among other changes, Western Kâta-vari has lost vocalic nasalization, which is retained in the other dialects.  Kâmkata-vari has been misnamed ""Kati"" and ""Bashgali"" in older literature, without regard to the dialects.",NA,NA,5,Richard Strand,FALSE,west2372,6,2,0,0,FALSE,FALSE,NA,,NA,NA,"The Western Kâta-vari dialect of Kâmkata-vari, as spoken in the Ktivi Valley of central Nûristân.",25,0,0,0,0,NA,Kata-variKtivi,FALSE,TRUE,_,NA,NA,NA,NA,NA,NA,NA,35.314,70.743,FALSE,FALSE,FALSE,"Location of the main community, Kântivâ (Ktʹivi)."
216,174,51810,2,23,kho,5520,3300,0.24,Khotanese,Khotanese,"Eastern Middle Iranian of Khotan, Southern Silk Road (now Hotan in China)Written in South Turkestan Brahmi script",NA,NA,5,Martin Kümmel,FALSE,khot1251,6,3,0,0,FALSE,FALSE,NA,,NA,NA,,20,7,0,0,0,NA,Khotanese,TRUE,FALSE,N,NA,NA,NA,1500,125,NA,NA,37.06,80.01,FALSE,FALSE,FALSE,"Set on Hotan, the capital of the Kingdom of Khotan, in which Khotanese was spoken."
215,174,51809,3,33,kho,6981,3300,0.24,Khotanese,Khotanese,"Eastern Middle Iranian of Khotan, Southern Silk Road (now Hotan in China)Written in South Turkestan Brahmi script",NA,NA,5,Martin Kümmel,FALSE,khot1251,6,3,0,0,FALSE,FALSE,NA,,NA,NA,,20,7,0,0,0,NA,Khotanese,TRUE,FALSE,N,NA,NA,NA,1500,125,NA,NA,37.06,80.01,FALSE,FALSE,FALSE,"Set on Hotan, the capital of the Kingdom of Khotan, in which Khotanese was spoken."
370,284,51776,2,24,khw,5520,2500,0.69,Khowar,Khowar,"There is in fact only very slight dialect variation considering how widespread the language is, but due to only recent expansion.",NA,NA,5,Asfar Ali Khan and Henrik Liljegren,FALSE,khow1242,6,1,0,NA,FALSE,FALSE,NA,,NA,NA,Khowar of Mastuj,86,0,0,0,0,NA,,FALSE,FALSE,_,NA,NA,NA,NA,NA,NA,NA,36.28,72.515,FALSE,FALSE,FALSE,"Set on Mastuj (Chitral district), one of the oldest centres of the language and home of the main language consultant for these IE-CoR data."
369,284,51775,3,33,khw,6981,2500,0.69,Khowar,Khowar,"There is in fact only very slight dialect variation considering how widespread the language is, but due to only recent expansion.",NA,NA,5,Asfar Ali Khan and Henrik Liljegren,FALSE,khow1242,6,1,0,NA,FALSE,FALSE,NA,,NA,NA,Khowar of Mastuj,86,0,0,0,0,NA,,FALSE,FALSE,_,NA,NA,NA,NA,NA,NA,NA,36.28,72.515,FALSE,FALSE,FALSE,"Set on Mastuj (Chitral district), one of the oldest centres of the language and home of the main language consultant for these IE-CoR data."
375,287,51806,2,23,xco,5520,2500,0.67,Khwarazmian,Khwarazmian,,NA,NA,5,Adam Benkato,FALSE,khwa1238,6,3,0,0,FALSE,FALSE,NA,,NA,NA,,16,0,0,0,0,NA,,TRUE,FALSE,N,NA,NA,NA,850,75,NA,NA,42.3,59.15,FALSE,FALSE,FALSE,"Set in the area formerly of the lower reaches of the river Amu Darya (Oxus) south of the Aral Sea, ancient Khwarazmia."
374,287,51805,3,33,xco,6981,2500,0.67,Khwarazmian,Khwarazmian,,NA,NA,5,Adam Benkato,FALSE,khwa1238,6,3,0,0,FALSE,FALSE,NA,,NA,NA,,16,0,0,0,0,NA,,TRUE,FALSE,N,NA,NA,NA,850,75,NA,NA,42.3,59.15,FALSE,FALSE,FALSE,"Set in the area formerly of the lower reaches of the river Amu Darya (Oxus) south of the Aral Sea, ancient Khwarazmia."
302,242,51854,2,23,zum,5520,1100,0.68,Kumzari,Kumzari,,NA,NA,5,Erik Anonby,FALSE,kumz1235,6,3,0,0,FALSE,FALSE,NA,,NA,NA,,89,0,0,0,0,NA,,FALSE,FALSE,_,NA,NA,NA,NA,NA,NA,NA,26.34,56.41,FALSE,FALSE,FALSE,"These are the coordinates for the town of Kumzar, the historical, political and cultural centre of the language."
301,242,51853,3,33,zum,6981,1100,0.68,Kumzari,Kumzari,,NA,NA,5,Erik Anonby,FALSE,kumz1235,6,3,0,0,FALSE,FALSE,NA,,NA,NA,,89,0,0,0,0,NA,,FALSE,FALSE,_,NA,NA,NA,NA,NA,NA,NA,26.34,56.41,FALSE,FALSE,FALSE,"These are the coordinates for the town of Kumzar, the historical, political and cultural centre of the language."
350,273,51826,2,23,ckb,5520,500,0.87,KurdishCJafi,Kurdish C.: Jafi,,NA,NA,5,"Masoud Mohammadirad, Raheleh Izadifar, and Geoffrey Haig",FALSE,cent1972,6,3,0,0,FALSE,FALSE,NA,,NA,NA,Jafi dialect of Javanrud,63,0,0,0,0,NA,,FALSE,FALSE,_,NA,NA,NA,NA,NA,NA,NA,34.8,46.5,FALSE,FALSE,FALSE,"Set at Javanrud, Kermanshah province, Iran, provenance of the speaker from whom the data was elicited"
349,273,51825,3,33,ckb,6981,500,0.87,KurdishCJafi,Kurdish C.: Jafi,,NA,NA,5,"Masoud Mohammadirad, Raheleh Izadifar, and Geoffrey Haig",FALSE,cent1972,6,3,0,0,FALSE,FALSE,NA,,NA,NA,Jafi dialect of Javanrud,63,0,0,0,0,NA,,FALSE,FALSE,_,NA,NA,NA,NA,NA,NA,NA,34.8,46.5,FALSE,FALSE,FALSE,"Set at Javanrud, Kermanshah province, Iran, provenance of the speaker from whom the data was elicited"
155,118,51824,2,23,kmr,5520,1700,1,KurdishNBahdini,Kurdish N.: Bahdini,Northern Kurdish (Kurmanji),NA,NA,5,Baydaa Mustafa and Geoffrey Haig,FALSE,nort2641,6,3,0,0,FALSE,FALSE,NA,,NA,NA,,61,7,0,0,0,NA,Kurdish,FALSE,FALSE,_,NA,NA,NA,NA,NA,NA,NA,36.87,42.95,FALSE,FALSE,FALSE,"Set at Duhok, Iraq, main urban location in which this variety is spoken"
154,118,51823,3,33,kmr,6981,1700,1,KurdishNBahdini,Kurdish N.: Bahdini,Northern Kurdish (Kurmanji),NA,NA,5,Baydaa Mustafa and Geoffrey Haig,FALSE,nort2641,6,3,0,0,FALSE,FALSE,NA,,NA,NA,,61,7,0,0,0,NA,Kurdish,FALSE,FALSE,_,NA,NA,NA,NA,NA,NA,NA,36.87,42.95,FALSE,FALSE,FALSE,"Set at Duhok, Iraq, main urban location in which this variety is spoken"
372,285,51828,2,23,sdh,5520,900,1,KurdishSElami,Kurdish S.: Elami,,NA,NA,5,Mojtaba Gheitasi and Erik Anonby,FALSE,sout2640,6,3,0,0,FALSE,FALSE,NA,,NA,NA,Elami,65,0,0,0,0,NA,,FALSE,FALSE,_,NA,NA,NA,NA,NA,NA,NA,33.64,46.43,FALSE,FALSE,FALSE,"These are the coordinates for Ilam, the town where the language data were collected."
371,285,51827,3,33,sdh,6981,900,1,KurdishSElami,Kurdish S.: Elami,,NA,NA,5,Mojtaba Gheitasi and Erik Anonby,FALSE,sout2640,6,3,0,0,FALSE,FALSE,NA,,NA,NA,Elami,65,0,0,0,0,NA,,FALSE,FALSE,_,NA,NA,NA,NA,NA,NA,NA,33.64,46.43,FALSE,FALSE,FALSE,"These are the coordinates for Ilam, the town where the language data were collected."
423,308,51830,2,23,sdh,5520,700,0.78,KurdishSQorveh,Kurdish S.: Qorveh,"Variety of Qorveh, Kurdistan province, Iran",NA,NA,0,Masoud Mohammadirad,FALSE,sout2640,6,3,0,0,FALSE,FALSE,NA,,NA,NA,"Qorveh, Kurdistan province, Iran",67,0,0,0,0,NA,,FALSE,FALSE,_,NA,NA,NA,NA,NA,NA,NA,35.168,47.801,FALSE,FALSE,FALSE,"Coder was born and grew up in Qorveh, Kurdistan province, Iran, and learnt this variety as his native tongue.  "
422,308,51829,3,33,sdh,6981,700,0.78,KurdishSQorveh,Kurdish S.: Qorveh,"Variety of Qorveh, Kurdistan province, Iran",NA,NA,0,Masoud Mohammadirad,FALSE,sout2640,6,3,0,0,FALSE,FALSE,NA,,NA,NA,"Qorveh, Kurdistan province, Iran",67,0,0,0,0,NA,,FALSE,FALSE,_,NA,NA,NA,NA,NA,NA,NA,35.168,47.801,FALSE,FALSE,FALSE,"Coder was born and grew up in Qorveh, Kurdistan province, Iran, and learnt this variety as his native tongue.  "
56,42,52052,3,5,lld,5564,1050,0.24,Ladin,Ladin,,NA,NA,5,Paul Videsott,FALSE,ladi1250,9,1,1,0,FALSE,FALSE,NA,,NA,NA,,43,2,3,0,0,NA,Ladin,FALSE,FALSE,_,NA,NA,NA,NA,NA,NA,NA,46.51,11.77,FALSE,FALSE,FALSE,"Set on the border between Trentino and South Tyrol, a geographically central point of the area in which Ladin is spoken."
58,42,52054,1,34,lld,5564,1050,0.24,Ladin,Ladin,,NA,NA,5,Paul Videsott,FALSE,ladi1250,9,1,1,0,FALSE,FALSE,NA,,NA,NA,,43,2,3,0,0,NA,Ladin,FALSE,FALSE,_,NA,NA,NA,NA,NA,NA,NA,46.51,11.77,FALSE,FALSE,FALSE,"Set on the border between Trentino and South Tyrol, a geographically central point of the area in which Ladin is spoken."
57,42,52053,2,51,lld,5564,1050,0.24,Ladin,Ladin,,NA,NA,5,Paul Videsott,FALSE,ladi1250,9,1,1,0,FALSE,FALSE,NA,,NA,NA,,43,2,3,0,0,NA,Ladin,FALSE,FALSE,_,NA,NA,NA,NA,NA,NA,NA,46.51,11.77,FALSE,FALSE,FALSE,"Set on the border between Trentino and South Tyrol, a geographically central point of the area in which Ladin is spoken."
358,279,51852,2,23,lrl,5520,500,1,Lari,Lari,,NA,NA,5,Muhammed Ourang and Erik Anonby,FALSE,lari1253,6,3,0,0,FALSE,FALSE,NA,,NA,NA,,87,0,0,0,0,NA,,FALSE,FALSE,_,NA,NA,NA,NA,NA,NA,NA,27.21,53.66,FALSE,FALSE,FALSE,"Set on the town of Ahel, where the IE-CoR data were collected."
357,279,51851,3,33,lrl,6981,500,1,Lari,Lari,,NA,NA,5,Muhammed Ourang and Erik Anonby,FALSE,lari1253,6,3,0,0,FALSE,FALSE,NA,,NA,NA,,87,0,0,0,0,NA,,FALSE,FALSE,_,NA,NA,NA,NA,NA,NA,NA,27.21,53.66,FALSE,FALSE,FALSE,"Set on the town of Ahel, where the IE-CoR data were collected."
283,230,52118,3,15,cor,4889,850,1,LateCornish,Late Cornish,,400,200,5,Nicholas Williams,FALSE,oldc1252,10,2,2,0,FALSE,FALSE,NA,,NA,NA,,37,0,0,0,0,NA,,TRUE,FALSE,N,NA,NA,NA,300,50,NA,NA,50.08,-5.54,FALSE,FALSE,FALSE,"Set on Mousehole (Porthenys), the most probable location of the last native speakers of Cornish."
284,230,52119,2,17,cor,4889,850,1,LateCornish,Late Cornish,,400,200,5,Nicholas Williams,FALSE,oldc1252,10,2,2,0,FALSE,FALSE,NA,,NA,NA,,37,0,0,0,0,NA,,TRUE,FALSE,N,NA,NA,NA,300,50,NA,NA,50.08,-5.54,FALSE,FALSE,FALSE,"Set on Mousehole (Porthenys), the most probable location of the last native speakers of Cornish."
285,230,52120,1,50,cor,4889,850,1,LateCornish,Late Cornish,,400,200,5,Nicholas Williams,FALSE,oldc1252,10,2,2,0,FALSE,FALSE,NA,,NA,NA,,37,0,0,0,0,NA,,TRUE,FALSE,N,NA,NA,NA,300,50,NA,NA,50.08,-5.54,FALSE,FALSE,FALSE,"Set on Mousehole (Porthenys), the most probable location of the last native speakers of Cornish."
234,190,51862,3,11,ltg,3663,300,1,Latgalian,Latgalian,,NA,NA,5,Tijmen Pronk,FALSE,east2282,7,1,1,0,FALSE,FALSE,NA,,NA,NA,,15,0,0,0,0,NA,Latgalian,FALSE,FALSE,_,NA,NA,NA,NA,NA,NA,NA,56.5,27.33,FALSE,FALSE,FALSE,The coordinates are those of the town of Rēzekne in the centre of Latgalia.
235,190,51863,2,29,ltg,3663,300,1,Latgalian,Latgalian,,NA,NA,5,Tijmen Pronk,FALSE,east2282,7,1,1,0,FALSE,FALSE,NA,,NA,NA,,15,0,0,0,0,NA,Latgalian,FALSE,FALSE,_,NA,NA,NA,NA,NA,NA,NA,56.5,27.33,FALSE,FALSE,FALSE,The coordinates are those of the town of Rēzekne in the centre of Latgalia.
236,190,51864,1,52,ltg,3663,300,1,Latgalian,Latgalian,,NA,NA,5,Tijmen Pronk,FALSE,east2282,7,1,1,0,FALSE,FALSE,NA,,NA,NA,,15,0,0,0,0,NA,Latgalian,FALSE,FALSE,_,NA,NA,NA,NA,NA,NA,NA,56.5,27.33,FALSE,FALSE,FALSE,The coordinates are those of the town of Rēzekne in the centre of Latgalia.
150,112,52032,3,5,lat,5564,3550,1,Latin,Latin,Classical Latin (Literary Standard of the Roman Late Republic/Early Imperial Period). Verb forms given in the present infinitive otherwise specified.  Nouns given in nominative singular unless otherwise specified.,NA,NA,5,Matthew Scarborough,FALSE,lati1261,9,1,0,0,FALSE,TRUE,NA,http://www.perseus.tufts.edu/hopper/text?doc=Perseus%3Atext%3A1999.04.0059%3Aentry%3D,NA,NA,Classical Latin,10,2,0,0,0,NA,Latin,TRUE,FALSE,N,NA,NA,NA,2050,75,NA,NA,41.89,12.48,FALSE,FALSE,FALSE,Set in Rome.  
151,112,52033,2,51,lat,5564,3550,1,Latin,Latin,Classical Latin (Literary Standard of the Roman Late Republic/Early Imperial Period). Verb forms given in the present infinitive otherwise specified.  Nouns given in nominative singular unless otherwise specified.,NA,NA,5,Matthew Scarborough,FALSE,lati1261,9,1,0,0,FALSE,TRUE,NA,http://www.perseus.tufts.edu/hopper/text?doc=Perseus%3Atext%3A1999.04.0059%3Aentry%3D,NA,NA,Classical Latin,10,2,0,0,0,NA,Latin,TRUE,FALSE,N,NA,NA,NA,2050,75,NA,NA,41.89,12.48,FALSE,FALSE,FALSE,Set in Rome.  
59,44,51859,3,11,lav,3663,300,1,Latvian,Latvian,,NA,NA,5,Tijmen Pronk,FALSE,latv1249,7,1,1,0,FALSE,FALSE,NA,http://www.tezaurs.lv/#/sv/,NA,NA,Standard Latvian,10,3,8,0,0,NA,Latvian,FALSE,FALSE,_,NA,NA,NA,NA,NA,NA,NA,57.47,25.49,TRUE,FALSE,FALSE,"Standard Latvian is based on the Vidzeme subdialect of the Middle dialect. The coordinates are those of the village of Mūrmuiža near Valmiera, Latvia, close to where Jānis Endzelīns, one of the founders of the Latvian norm, was born."
60,44,51860,2,29,lav,3663,300,1,Latvian,Latvian,,NA,NA,5,Tijmen Pronk,FALSE,latv1249,7,1,1,0,FALSE,FALSE,NA,http://www.tezaurs.lv/#/sv/,NA,NA,Standard Latvian,10,3,8,0,0,NA,Latvian,FALSE,FALSE,_,NA,NA,NA,NA,NA,NA,NA,57.47,25.49,TRUE,FALSE,FALSE,"Standard Latvian is based on the Vidzeme subdialect of the Middle dialect. The coordinates are those of the village of Mūrmuiža near Valmiera, Latvia, close to where Jānis Endzelīns, one of the founders of the Latvian norm, was born."
61,44,51861,1,52,lav,3663,300,1,Latvian,Latvian,,NA,NA,5,Tijmen Pronk,FALSE,latv1249,7,1,1,0,FALSE,FALSE,NA,http://www.tezaurs.lv/#/sv/,NA,NA,Standard Latvian,10,3,8,0,0,NA,Latvian,FALSE,FALSE,_,NA,NA,NA,NA,NA,NA,NA,57.47,25.49,TRUE,FALSE,FALSE,"Standard Latvian is based on the Vidzeme subdialect of the Middle dialect. The coordinates are those of the village of Mūrmuiža near Valmiera, Latvia, close to where Jānis Endzelīns, one of the founders of the Latvian norm, was born."
62,46,51865,3,11,lit,3663,1400,1,Lithuanian,Lithuanian,,NA,NA,5,Tijmen Pronk,FALSE,lith1251,7,1,1,0,FALSE,TRUE,NA,http://etimologija.baltnexus.lt/?w=,NA,NA,Standard Lithuanian,20,3,8,0,0,NA,Lithuanian,FALSE,FALSE,_,NA,NA,NA,NA,NA,NA,NA,54.84,23.17,FALSE,FALSE,FALSE,"Standard Lithuanian is based on the West Aukštaitian dialect. The coordinates are those of the village of Rygiškiai, Lithuania, where Jonas Jablonskis, one of the founders of the Lithuanian norm, grew up."
63,46,51866,2,29,lit,3663,1400,1,Lithuanian,Lithuanian,,NA,NA,5,Tijmen Pronk,FALSE,lith1251,7,1,1,0,FALSE,TRUE,NA,http://etimologija.baltnexus.lt/?w=,NA,NA,Standard Lithuanian,20,3,8,0,0,NA,Lithuanian,FALSE,FALSE,_,NA,NA,NA,NA,NA,NA,NA,54.84,23.17,FALSE,FALSE,FALSE,"Standard Lithuanian is based on the West Aukštaitian dialect. The coordinates are those of the village of Rygiškiai, Lithuania, where Jonas Jablonskis, one of the founders of the Lithuanian norm, grew up."
64,46,51867,1,52,lit,3663,1400,1,Lithuanian,Lithuanian,,NA,NA,5,Tijmen Pronk,FALSE,lith1251,7,1,1,0,FALSE,TRUE,NA,http://etimologija.baltnexus.lt/?w=,NA,NA,Standard Lithuanian,20,3,8,0,0,NA,Lithuanian,FALSE,FALSE,_,NA,NA,NA,NA,NA,NA,NA,54.84,23.17,FALSE,FALSE,FALSE,"Standard Lithuanian is based on the West Aukštaitian dialect. The coordinates are those of the village of Rygiškiai, Lithuania, where Jonas Jablonskis, one of the founders of the Lithuanian norm, grew up."
182,133,3034,3,22,xlu,6932,4700,1,Luvian,Luvian,Composite list of Cuneiform Luvian (xlu) and Hieroglyphic Luvian (hlu). Cuneiform Luvian and Hieroglyphic Luvian data are indicated respectively as (CL) and (HL) in the Native Script data.,NA,NA,5,Matilde Serangeli and Matthew Scarborough,FALSE,cune1239,1,0,0,0,FALSE,FALSE,NA,,NA,NA,"Composite of both well-documented forms:  predominantly Cuneiform, but also some Hieroglyphic Luvian data.of predominantly Cuneiform Luvian (xlu) and Hieroglyphic Luvian (hlu). ",20,6,0,0,0,NA,Luvian,TRUE,FALSE,N,NA,NA,NA,3350,75,NA,NA,38.425,36.32,FALSE,FALSE,FALSE,"Set at a geographically intermediate point between the archaeological sites where the main archives of the Cuneiform and Hieroglyphic forms were found, i.e. respectively Ḫattuša (modern Boğazköy) and ancient Karkamış."
158,120,52023,3,1,ltz,4889,400,1,Luxembourgish,Luxembourgish,,NA,NA,5,Sam Mersch,FALSE,luxe1241,8,2,2,NA,FALSE,FALSE,NA,,NA,NA,,55,1,1,0,0,NA,Luxembourgish,FALSE,FALSE,_,NA,NA,NA,NA,NA,NA,NA,49.75,6.12,FALSE,FALSE,FALSE,Set on the approximate geographical mid-point of (the country of) Luxembourg.
160,120,52025,1,2,ltz,4889,400,1,Luxembourgish,Luxembourgish,,NA,NA,5,Sam Mersch,FALSE,luxe1241,8,2,2,NA,FALSE,FALSE,NA,,NA,NA,,55,1,1,0,0,NA,Luxembourgish,FALSE,FALSE,_,NA,NA,NA,NA,NA,NA,NA,49.75,6.12,FALSE,FALSE,FALSE,Set on the approximate geographical mid-point of (the country of) Luxembourg.
159,120,52024,2,37,ltz,4889,400,1,Luxembourgish,Luxembourgish,,NA,NA,5,Sam Mersch,FALSE,luxe1241,8,2,2,NA,FALSE,FALSE,NA,,NA,NA,,55,1,1,0,0,NA,Luxembourgish,FALSE,FALSE,_,NA,NA,NA,NA,NA,NA,NA,49.75,6.12,FALSE,FALSE,FALSE,Set on the approximate geographical mid-point of (the country of) Luxembourg.
183,134,3035,3,22,xlc,6932,,,Lycian,Lycian,"Lycian A (or common Lycian). Lycian B (Milyan) forms, when attested, are included in the lexical notes.",NA,NA,5,Matilde Serangeli and Matthew Scarborough,FALSE,lyci1241,1,0,0,0,FALSE,FALSE,NA,,NA,NA,,30,6,0,0,0,NA,Lycian,TRUE,TRUE,N,NA,NA,NA,2350,50,NA,NA,36.56,29.84,FALSE,FALSE,FALSE,"Set at the approximate centre of historical Lycia, roughly encompassing the peninsula in south-west Asia Minor between the present-day Gulf of Fethiye and Gulf of Antalya."
120,92,51877,3,11,mkd,3663,500,0.28,Macedonian,Macedonian,Standard Macedonian,NA,NA,5,Lechosław Jocz,FALSE,mace1250,7,2,1,0,FALSE,FALSE,NA,http://makedonski.info/search/#,NA,NA,Standard,25,3,3,0,0,NA,Macedonian,FALSE,FALSE,_,NA,NA,NA,NA,NA,NA,NA,42,21.43,FALSE,FALSE,FALSE,"Set on Skopje, as the capital of Macedonia "
121,92,51878,2,12,mkd,3663,500,0.28,Macedonian,Macedonian,Standard Macedonian,NA,NA,5,Lechosław Jocz,FALSE,mace1250,7,2,1,0,FALSE,FALSE,NA,http://makedonski.info/search/#,NA,NA,Standard,25,3,3,0,0,NA,Macedonian,FALSE,FALSE,_,NA,NA,NA,NA,NA,NA,NA,42,21.43,FALSE,FALSE,FALSE,"Set on Skopje, as the capital of Macedonia "
122,92,51879,1,45,mkd,3663,500,0.28,Macedonian,Macedonian,Standard Macedonian,NA,NA,5,Lechosław Jocz,FALSE,mace1250,7,2,1,0,FALSE,FALSE,NA,http://makedonski.info/search/#,NA,NA,Standard,25,3,3,0,0,NA,Macedonian,FALSE,FALSE,_,NA,NA,NA,NA,NA,NA,NA,42,21.43,FALSE,FALSE,FALSE,"Set on Skopje, as the capital of Macedonia "
324,254,51880,3,11,mkd,3663,100,1,MacedonianSuho,Macedonian: Suho,"The Suho dialect of Macedonian, as described by Małecki (1936)",NA,NA,5,Lechosław Jocz,FALSE,mace1250,7,2,1,0,FALSE,FALSE,NA,,NA,NA,Suho,26,0,0,0,0,NA,,FALSE,FALSE,_,NA,NA,NA,NA,NA,NA,NA,40.82,23.37,FALSE,FALSE,FALSE,Set on the village of Suho/Sochos in the Thessaloniki region of Greece.
325,254,51881,2,12,mkd,3663,100,1,MacedonianSuho,Macedonian: Suho,"The Suho dialect of Macedonian, as described by Małecki (1936)",NA,NA,5,Lechosław Jocz,FALSE,mace1250,7,2,1,0,FALSE,FALSE,NA,,NA,NA,Suho,26,0,0,0,0,NA,,FALSE,FALSE,_,NA,NA,NA,NA,NA,NA,NA,40.82,23.37,FALSE,FALSE,FALSE,Set on the village of Suho/Sochos in the Thessaloniki region of Greece.
326,254,51882,1,45,mkd,3663,100,1,MacedonianSuho,Macedonian: Suho,"The Suho dialect of Macedonian, as described by Małecki (1936)",NA,NA,5,Lechosław Jocz,FALSE,mace1250,7,2,1,0,FALSE,FALSE,NA,,NA,NA,Suho,26,0,0,0,0,NA,,FALSE,FALSE,_,NA,NA,NA,NA,NA,NA,NA,40.82,23.37,FALSE,FALSE,FALSE,Set on the village of Suho/Sochos in the Thessaloniki region of Greece.
321,253,51883,3,11,mkd,3663,100,1,MacedonianVisoka,Macedonian: Visoka,"The Visoka dialect of Macedonian, as described by Małecki (1936)",NA,NA,5,Lechosław Jocz,FALSE,mace1250,7,2,1,0,FALSE,FALSE,NA,,NA,NA,Visoka,27,0,0,0,0,NA,,FALSE,FALSE,_,NA,NA,NA,NA,NA,NA,NA,40.83,23.2,FALSE,FALSE,FALSE,Set on the village of Visoka/Osa in the Thessaloniki region of Greece.
322,253,51884,2,12,mkd,3663,100,1,MacedonianVisoka,Macedonian: Visoka,"The Visoka dialect of Macedonian, as described by Małecki (1936)",NA,NA,5,Lechosław Jocz,FALSE,mace1250,7,2,1,0,FALSE,FALSE,NA,,NA,NA,Visoka,27,0,0,0,0,NA,,FALSE,FALSE,_,NA,NA,NA,NA,NA,NA,NA,40.83,23.2,FALSE,FALSE,FALSE,Set on the village of Visoka/Osa in the Thessaloniki region of Greece.
323,253,51885,1,45,mkd,3663,100,1,MacedonianVisoka,Macedonian: Visoka,"The Visoka dialect of Macedonian, as described by Małecki (1936)",NA,NA,5,Lechosław Jocz,FALSE,mace1250,7,2,1,0,FALSE,FALSE,NA,,NA,NA,Visoka,27,0,0,0,0,NA,,FALSE,FALSE,_,NA,NA,NA,NA,NA,NA,NA,40.83,23.2,FALSE,FALSE,FALSE,Set on the village of Visoka/Osa in the Thessaloniki region of Greece.
191,144,51752,2,24,mag,5520,750,0.51,Magahi,Magahi,"Magahi is spoken mainly in Bihar and Jharkhand, along with some parts of West Bengal and Orissa. The data for this work was collected from the variety of Magahi spoken in and around the capital city of Patna, Jehanabad and Gaya.Although linguistically Magahi is different from Hindi (it does not even belong to same sub-family,as is clear from the Grierson's classification), the Indian government classifies Magahi as a dialect of Hindi. Despite this attitude, a large population (counting up to 13,978,565 according to the Census of India, 2001) residing in villages and small towns still speak and use the language astheir medium of communication and information-sharing (Alok et al 2011).",NA,NA,5,Ganesh Gupta,FALSE,maga1260,6,1,0,0,FALSE,FALSE,NA,,NA,NA,,39,8,0,0,0,NA,Magahi,FALSE,FALSE,_,NA,NA,NA,NA,NA,NA,NA,25.59,85.14,FALSE,FALSE,FALSE,"Set on Patna, the capital of the Indian state of Bihar, the major town in which Magahi is spoken."
190,144,51751,3,33,mag,6981,750,0.51,Magahi,Magahi,"Magahi is spoken mainly in Bihar and Jharkhand, along with some parts of West Bengal and Orissa. The data for this work was collected from the variety of Magahi spoken in and around the capital city of Patna, Jehanabad and Gaya.Although linguistically Magahi is different from Hindi (it does not even belong to same sub-family,as is clear from the Grierson's classification), the Indian government classifies Magahi as a dialect of Hindi. Despite this attitude, a large population (counting up to 13,978,565 according to the Census of India, 2001) residing in villages and small towns still speak and use the language astheir medium of communication and information-sharing (Alok et al 2011).",NA,NA,5,Ganesh Gupta,FALSE,maga1260,6,1,0,0,FALSE,FALSE,NA,,NA,NA,,39,8,0,0,0,NA,Magahi,FALSE,FALSE,_,NA,NA,NA,NA,NA,NA,NA,25.59,85.14,FALSE,FALSE,FALSE,"Set on Patna, the capital of the Indian state of Bihar, the major town in which Magahi is spoken."
149,111,51750,2,24,mai,5520,800,1,Maithili,Maithili,,NA,NA,5,Ganesh Gupta,FALSE,mait1250,6,1,0,0,FALSE,FALSE,NA,,NA,NA,,36,8,0,0,0,NA,Maithili,FALSE,FALSE,_,NA,NA,NA,NA,NA,NA,NA,26.35,86.08,FALSE,FALSE,FALSE,"Set on Madhubani, the cultural centre of the Mithila region, the home region of several renowned Maithili poets, among them Vidyapati Thakur, the ‘father of Maithili literature’."
148,111,51749,3,33,mai,6981,800,1,Maithili,Maithili,,NA,NA,5,Ganesh Gupta,FALSE,mait1250,6,1,0,0,FALSE,FALSE,NA,,NA,NA,,36,8,0,0,0,NA,Maithili,FALSE,FALSE,_,NA,NA,NA,NA,NA,NA,NA,26.35,86.08,FALSE,FALSE,FALSE,"Set on Madhubani, the cultural centre of the Mithila region, the home region of several renowned Maithili poets, among them Vidyapati Thakur, the ‘father of Maithili literature’."
72,50,51764,2,24,mar,5520,1750,1,Marathi,Marathi,"Marathi:  the official language of  the Indian state of Maharashtra, and one of the 22 scheduled languages of India. The data for this work was based on the standard Marathi spoken in Pune.",NA,NA,5,Mandar Purandare and Krzysztof Stroński,FALSE,mara1378,6,1,0,0,FALSE,FALSE,NA,,NA,NA,Pune variety,75,8,0,0,0,NA,Marathi,FALSE,FALSE,_,NA,NA,NA,NA,NA,NA,NA,18.52,73.856,FALSE,FALSE,FALSE,"Set on Pune, India."
71,50,51763,3,33,mar,6981,1750,1,Marathi,Marathi,"Marathi:  the official language of  the Indian state of Maharashtra, and one of the 22 scheduled languages of India. The data for this work was based on the standard Marathi spoken in Pune.",NA,NA,5,Mandar Purandare and Krzysztof Stroński,FALSE,mara1378,6,1,0,0,FALSE,FALSE,NA,,NA,NA,Pune variety,75,8,0,0,0,NA,Marathi,FALSE,FALSE,_,NA,NA,NA,NA,NA,NA,NA,18.52,73.856,FALSE,FALSE,FALSE,"Set on Pune, India."
342,265,51838,2,23,mzn,5520,650,0.88,Mazanderani,Mazanderani,,NA,NA,5,Shirin Adibifar and Raheleh Izadifar,FALSE,maza1291,6,3,0,0,FALSE,FALSE,NA,,NA,NA,,76,0,0,0,0,NA,,FALSE,FALSE,_,NA,NA,NA,NA,NA,NA,NA,36.57,53.06,FALSE,FALSE,FALSE,"Sari, Iran, main urban centre in which this variety is spoken"
341,265,51837,3,33,mzn,6981,650,0.88,Mazanderani,Mazanderani,,NA,NA,5,Shirin Adibifar and Raheleh Izadifar,FALSE,maza1291,6,3,0,0,FALSE,FALSE,NA,,NA,NA,,76,0,0,0,0,NA,,FALSE,FALSE,_,NA,NA,NA,NA,NA,NA,NA,36.57,53.06,FALSE,FALSE,FALSE,"Sari, Iran, main urban centre in which this variety is spoken"
361,281,52037,3,5,ruq,5564,850,1,MeglenoRomanian,Megleno-Romanian,,NA,NA,5,Petar Atanasov,FALSE,megl1237,9,1,1,0,FALSE,FALSE,NA,,NA,NA,,25,0,0,0,0,NA,,FALSE,FALSE,_,NA,NA,NA,NA,NA,NA,NA,41.12,22.38,FALSE,FALSE,FALSE,Set to a geographically central location within the area in which Megleno-Romanian is spoken
363,281,52039,1,34,ruq,5564,850,1,MeglenoRomanian,Megleno-Romanian,,NA,NA,5,Petar Atanasov,FALSE,megl1237,9,1,1,0,FALSE,FALSE,NA,,NA,NA,,25,0,0,0,0,NA,,FALSE,FALSE,_,NA,NA,NA,NA,NA,NA,NA,41.12,22.38,FALSE,FALSE,FALSE,Set to a geographically central location within the area in which Megleno-Romanian is spoken
362,281,52038,2,51,ruq,5564,850,1,MeglenoRomanian,Megleno-Romanian,,NA,NA,5,Petar Atanasov,FALSE,megl1237,9,1,1,0,FALSE,FALSE,NA,,NA,NA,,25,0,0,0,0,NA,,FALSE,FALSE,_,NA,NA,NA,NA,NA,NA,NA,41.12,22.38,FALSE,FALSE,FALSE,Set to a geographically central location within the area in which Megleno-Romanian is spoken
210,172,52124,3,15,xbm,4889,650,1,MiddleBreton,Middle Breton,,NA,NA,5,Britta Irslinger,FALSE,midd1359,10,2,3,0,FALSE,TRUE,NA,,NA,NA,,15,4,2,0,0,NA,Middle_Breton,TRUE,FALSE,N,NA,NA,NA,450,50,NA,NA,48.69,-3.98,FALSE,FALSE,FALSE,"Set on Saint-Paul de Léon, the historical capital of the Léon region."
211,172,52125,2,17,xbm,4889,650,1,MiddleBreton,Middle Breton,,NA,NA,5,Britta Irslinger,FALSE,midd1359,10,2,3,0,FALSE,TRUE,NA,,NA,NA,,15,4,2,0,0,NA,Middle_Breton,TRUE,FALSE,N,NA,NA,NA,450,50,NA,NA,48.69,-3.98,FALSE,FALSE,FALSE,"Set on Saint-Paul de Léon, the historical capital of the Léon region."
212,172,52126,1,48,xbm,4889,650,1,MiddleBreton,Middle Breton,,NA,NA,5,Britta Irslinger,FALSE,midd1359,10,2,3,0,FALSE,TRUE,NA,,NA,NA,,15,4,2,0,0,NA,Middle_Breton,TRUE,FALSE,N,NA,NA,NA,450,50,NA,NA,48.69,-3.98,FALSE,FALSE,FALSE,"Set on Saint-Paul de Léon, the historical capital of the Léon region."
286,231,52115,3,15,cnx,4889,850,1,MiddleCornish,Middle Cornish,,1000,400,5,Nicholas Williams,FALSE,oldc1252,10,2,2,0,FALSE,FALSE,NA,,NA,NA,,36,0,0,0,0,NA,,TRUE,FALSE,N,NA,NA,NA,700,100,NA,NA,50.17,-5.1,FALSE,FALSE,FALSE,"Set on Glasney College in Penryn, where many of the core surviving texts in Middle Cornish, particularly ‘Miracle plays’, were composed."
287,231,52116,2,17,cnx,4889,850,1,MiddleCornish,Middle Cornish,,1000,400,5,Nicholas Williams,FALSE,oldc1252,10,2,2,0,FALSE,FALSE,NA,,NA,NA,,36,0,0,0,0,NA,,TRUE,FALSE,N,NA,NA,NA,700,100,NA,NA,50.17,-5.1,FALSE,FALSE,FALSE,"Set on Glasney College in Penryn, where many of the core surviving texts in Middle Cornish, particularly ‘Miracle plays’, were composed."
288,231,52117,1,50,cnx,4889,850,1,MiddleCornish,Middle Cornish,,1000,400,5,Nicholas Williams,FALSE,oldc1252,10,2,2,0,FALSE,FALSE,NA,,NA,NA,,36,0,0,0,0,NA,,TRUE,FALSE,N,NA,NA,NA,700,100,NA,NA,50.17,-5.1,FALSE,FALSE,FALSE,"Set on Glasney College in Penryn, where many of the core surviving texts in Middle Cornish, particularly ‘Miracle plays’, were composed."
403,300,52005,3,1,dum,4889,950,0.91,MiddleDutch,Middle Dutch,,NA,NA,5,Matthew Boutilier,FALSE,midd1321,8,2,2,NA,FALSE,FALSE,NA,,NA,NA,Brabant dialect.,32,0,0,0,0,NA,,TRUE,FALSE,N,NA,NA,NA,800,15,NA,NA,51.433,5.483,FALSE,FALSE,FALSE,"Set on Eindhoven, the capital of modern Noord-Brabant and close to the centre of historical Brabant, a central dialect area and the most influential dialect in the Middle Dutch period."
405,300,52007,1,2,dum,4889,950,0.91,MiddleDutch,Middle Dutch,,NA,NA,5,Matthew Boutilier,FALSE,midd1321,8,2,2,NA,FALSE,FALSE,NA,,NA,NA,Brabant dialect.,32,0,0,0,0,NA,,TRUE,FALSE,N,NA,NA,NA,800,15,NA,NA,51.433,5.483,FALSE,FALSE,FALSE,"Set on Eindhoven, the capital of modern Noord-Brabant and close to the centre of historical Brabant, a central dialect area and the most influential dialect in the Middle Dutch period."
404,300,52006,2,37,dum,4889,950,0.91,MiddleDutch,Middle Dutch,,NA,NA,5,Matthew Boutilier,FALSE,midd1321,8,2,2,NA,FALSE,FALSE,NA,,NA,NA,Brabant dialect.,32,0,0,0,0,NA,,TRUE,FALSE,N,NA,NA,NA,800,15,NA,NA,51.433,5.483,FALSE,FALSE,FALSE,"Set on Eindhoven, the capital of modern Noord-Brabant and close to the centre of historical Brabant, a central dialect area and the most influential dialect in the Middle Dutch period."
400,299,52020,3,1,gmh,4889,1100,0.68,MiddleHighGerman,Middle High German,,NA,NA,5,Matthew Boutilier,FALSE,midd1343,8,2,2,NA,FALSE,FALSE,NA,,NA,NA,‘Dichtersprache’,52,0,0,0,0,NA,,TRUE,FALSE,N,NA,NA,NA,750,25,NA,NA,48.783,9.183,FALSE,FALSE,FALSE,"Set on Stuttgart, a major city in the Swabian-speaking area, given that the ‘standardised’ written form of Middle High German (the ‘Dichtersprache’) was generalised from the spoken language of Swabian area."
402,299,52022,1,2,gmh,4889,1100,0.68,MiddleHighGerman,Middle High German,,NA,NA,5,Matthew Boutilier,FALSE,midd1343,8,2,2,NA,FALSE,FALSE,NA,,NA,NA,‘Dichtersprache’,52,0,0,0,0,NA,,TRUE,FALSE,N,NA,NA,NA,750,25,NA,NA,48.783,9.183,FALSE,FALSE,FALSE,"Set on Stuttgart, a major city in the Swabian-speaking area, given that the ‘standardised’ written form of Middle High German (the ‘Dichtersprache’) was generalised from the spoken language of Swabian area."
401,299,52021,2,37,gmh,4889,1100,0.68,MiddleHighGerman,Middle High German,,NA,NA,5,Matthew Boutilier,FALSE,midd1343,8,2,2,NA,FALSE,FALSE,NA,,NA,NA,‘Dichtersprache’,52,0,0,0,0,NA,,TRUE,FALSE,N,NA,NA,NA,750,25,NA,NA,48.783,9.183,FALSE,FALSE,FALSE,"Set on Stuttgart, a major city in the Swabian-speaking area, given that the ‘standardised’ written form of Middle High German (the ‘Dichtersprache’) was generalised from the spoken language of Swabian area."
226,178,51844,2,23,xmn,5520,2200,1,MiddlePersian,Middle Persian,"Middle Persian as found in Manichaean texts from Central Asia, written in Manichaean script. In contrast to Zoroastrian ""Pahlavi"" writing reflects the actual phonology much better, and this variety also appears to be more strictly ""Persian"" (less loans from NW Iranian). Phonologization follows Durkin-Meisterernst and MacKenzie.",NA,NA,5,Martin Kümmel,FALSE,pahl1241,6,3,0,0,FALSE,FALSE,NA,,NA,NA,,81,7,0,0,0,NA,Middle_Persian,TRUE,FALSE,N,NA,NA,NA,1600,150,NA,NA,29.93,52.89,FALSE,FALSE,FALSE,Site of Persian capital Persepolis
225,178,51843,3,33,xmn,6981,2200,1,MiddlePersian,Middle Persian,"Middle Persian as found in Manichaean texts from Central Asia, written in Manichaean script. In contrast to Zoroastrian ""Pahlavi"" writing reflects the actual phonology much better, and this variety also appears to be more strictly ""Persian"" (less loans from NW Iranian). Phonologization follows Durkin-Meisterernst and MacKenzie.",NA,NA,5,Martin Kümmel,FALSE,pahl1241,6,3,0,0,FALSE,FALSE,NA,,NA,NA,,81,7,0,0,0,NA,Middle_Persian,TRUE,FALSE,N,NA,NA,NA,1600,150,NA,NA,29.93,52.89,FALSE,FALSE,FALSE,Site of Persian capital Persepolis
315,251,51892,3,11,hbs,3663,1400,0.39,MiddleSerboCroatChakavian,Middle Serbo-Croat: Čakavian,,NA,NA,5,Lechosław Jocz,FALSE,chak1265,7,2,1,0,FALSE,FALSE,NA,,NA,NA,Čakavian,34,0,0,0,0,NA,,TRUE,TRUE,N,NA,NA,NA,405,1,NA,NA,45.11,14,FALSE,FALSE,FALSE,
316,251,51893,2,12,hbs,3663,1400,0.39,MiddleSerboCroatChakavian,Middle Serbo-Croat: Čakavian,,NA,NA,5,Lechosław Jocz,FALSE,chak1265,7,2,1,0,FALSE,FALSE,NA,,NA,NA,Čakavian,34,0,0,0,0,NA,,TRUE,TRUE,N,NA,NA,NA,405,1,NA,NA,45.11,14,FALSE,FALSE,FALSE,
317,251,51894,1,45,hbs,3663,1400,0.39,MiddleSerboCroatChakavian,Middle Serbo-Croat: Čakavian,,NA,NA,5,Lechosław Jocz,FALSE,chak1265,7,2,1,0,FALSE,FALSE,NA,,NA,NA,Čakavian,34,0,0,0,0,NA,,TRUE,TRUE,N,NA,NA,NA,405,1,NA,NA,45.11,14,FALSE,FALSE,FALSE,
312,250,51895,3,11,kjv,3663,1400,0.39,MiddleSerboCroatKajkavian,Middle Serbo-Croat: Kajkavian,,NA,NA,5,Lechosław Jocz,FALSE,kajk1237,7,2,1,0,FALSE,FALSE,NA,,NA,NA,Kajkavian,36,0,0,0,0,NA,,TRUE,TRUE,N,NA,NA,NA,330,1,NA,NA,45.65,16.13,FALSE,FALSE,FALSE,
313,250,51896,2,12,kjv,3663,1400,0.39,MiddleSerboCroatKajkavian,Middle Serbo-Croat: Kajkavian,,NA,NA,5,Lechosław Jocz,FALSE,kajk1237,7,2,1,0,FALSE,FALSE,NA,,NA,NA,Kajkavian,36,0,0,0,0,NA,,TRUE,TRUE,N,NA,NA,NA,330,1,NA,NA,45.65,16.13,FALSE,FALSE,FALSE,
314,250,51897,1,45,kjv,3663,1400,0.39,MiddleSerboCroatKajkavian,Middle Serbo-Croat: Kajkavian,,NA,NA,5,Lechosław Jocz,FALSE,kajk1237,7,2,1,0,FALSE,FALSE,NA,,NA,NA,Kajkavian,36,0,0,0,0,NA,,TRUE,TRUE,N,NA,NA,NA,330,1,NA,NA,45.65,16.13,FALSE,FALSE,FALSE,
318,252,51889,3,11,hbs,3663,1400,0.39,MiddleSerboCroatShtokavian,Middle Serbo-Croat: Štokavian,,NA,NA,5,Lechosław Jocz,FALSE,shto1241,7,2,1,0,FALSE,FALSE,NA,,NA,NA,Štokavian,32,0,0,0,0,NA,,TRUE,TRUE,N,NA,NA,NA,351,1,NA,NA,43.86,18.41,FALSE,FALSE,FALSE,
319,252,51890,2,12,hbs,3663,1400,0.39,MiddleSerboCroatShtokavian,Middle Serbo-Croat: Štokavian,,NA,NA,5,Lechosław Jocz,FALSE,shto1241,7,2,1,0,FALSE,FALSE,NA,,NA,NA,Štokavian,32,0,0,0,0,NA,,TRUE,TRUE,N,NA,NA,NA,351,1,NA,NA,43.86,18.41,FALSE,FALSE,FALSE,
320,252,51891,1,45,hbs,3663,1400,0.39,MiddleSerboCroatShtokavian,Middle Serbo-Croat: Štokavian,,NA,NA,5,Lechosław Jocz,FALSE,shto1241,7,2,1,0,FALSE,FALSE,NA,,NA,NA,Štokavian,32,0,0,0,0,NA,,TRUE,TRUE,N,NA,NA,NA,351,1,NA,NA,43.86,18.41,FALSE,FALSE,FALSE,
298,239,52109,3,15,wlm,4889,950,0.84,MiddleWelsh,Middle Welsh,,850,550,5,Alexander Falileyev,FALSE,midd1363,10,2,1,0,FALSE,FALSE,NA,,NA,NA,,45,0,0,0,0,NA,,TRUE,FALSE,N,NA,NA,NA,650,75,NA,NA,52.2,-3.6,FALSE,FALSE,FALSE,Approximate midway point between provenance of White Book of Rhydderch and Red Book of Hergest
299,239,52110,2,17,wlm,4889,950,0.84,MiddleWelsh,Middle Welsh,,850,550,5,Alexander Falileyev,FALSE,midd1363,10,2,1,0,FALSE,FALSE,NA,,NA,NA,,45,0,0,0,0,NA,,TRUE,FALSE,N,NA,NA,NA,650,75,NA,NA,52.2,-3.6,FALSE,FALSE,FALSE,Approximate midway point between provenance of White Book of Rhydderch and Red Book of Hergest
300,239,52111,1,49,wlm,4889,950,0.84,MiddleWelsh,Middle Welsh,,850,550,5,Alexander Falileyev,FALSE,midd1363,10,2,1,0,FALSE,FALSE,NA,,NA,NA,,45,0,0,0,0,NA,,TRUE,FALSE,N,NA,NA,NA,650,75,NA,NA,52.2,-3.6,FALSE,FALSE,FALSE,Approximate midway point between provenance of White Book of Rhydderch and Red Book of Hergest
424,311,52055,3,5,lmo,5564,300,1,Milanese,Milanese,"Milanese, specifically as spoken in Carugate.",NA,NA,0,Tiago Tresoldi,FALSE,mila1243,9,1,1,0,FALSE,FALSE,NA,,NA,NA,Carugate (NE of Milan),48,0,0,0,0,NA,,FALSE,FALSE,_,NA,NA,NA,NA,NA,NA,NA,45.55,9.333,FALSE,FALSE,FALSE,"Set on Carugate, in the north-eastern suburbs of Milan, the home town of the native speakers whose variety is targeted here."
426,311,52057,1,34,lmo,5564,300,1,Milanese,Milanese,"Milanese, specifically as spoken in Carugate.",NA,NA,0,Tiago Tresoldi,FALSE,mila1243,9,1,1,0,FALSE,FALSE,NA,,NA,NA,Carugate (NE of Milan),48,0,0,0,0,NA,,FALSE,FALSE,_,NA,NA,NA,NA,NA,NA,NA,45.55,9.333,FALSE,FALSE,FALSE,"Set on Carugate, in the north-eastern suburbs of Milan, the home town of the native speakers whose variety is targeted here."
425,311,52056,2,51,lmo,5564,300,1,Milanese,Milanese,"Milanese, specifically as spoken in Carugate.",NA,NA,0,Tiago Tresoldi,FALSE,mila1243,9,1,1,0,FALSE,FALSE,NA,,NA,NA,Carugate (NE of Milan),48,0,0,0,0,NA,,FALSE,FALSE,_,NA,NA,NA,NA,NA,NA,NA,45.55,9.333,FALSE,FALSE,FALSE,"Set on Carugate, in the north-eastern suburbs of Milan, the home town of the native speakers whose variety is targeted here."
213,173,51717,3,21,gmy,5310,3400,1,MycenaeanGreek,Greek: Mycenaean,Mycenaean Greek from Linear B sources.,NA,NA,5,Matthew Scarborough,FALSE,myce1241,3,1,0,0,FALSE,FALSE,NA,,NA,NA,,10,5,0,0,0,NA,Mycenaean_Greek,TRUE,FALSE,N,NA,NA,NA,3350,55,NA,NA,37.73,22.75,FALSE,FALSE,FALSE,"Archaeological Site of Mycenae. Other major archive centres were Knossos, Pylos, Tiryns, and Thebes."
214,173,51718,2,43,gmy,5310,3400,1,MycenaeanGreek,Greek: Mycenaean,Mycenaean Greek from Linear B sources.,NA,NA,5,Matthew Scarborough,FALSE,myce1241,3,1,0,0,FALSE,FALSE,NA,,NA,NA,,10,5,0,0,0,NA,Mycenaean_Greek,TRUE,FALSE,N,NA,NA,NA,3350,55,NA,NA,37.73,22.75,FALSE,FALSE,FALSE,"Archaeological Site of Mycenae. Other major archive centres were Knossos, Pylos, Tiryns, and Thebes."
231,189,52043,3,5,nap,5564,750,0.59,Neapolitan,Neapolitan,,NA,NA,5,Giovanni Abete,FALSE,neap1235,9,1,1,0,FALSE,FALSE,NA,,NA,NA,,33,0,0,0,0,NA,Neapolitan,FALSE,FALSE,_,NA,NA,NA,NA,NA,NA,NA,40.85,14.25,FALSE,FALSE,FALSE,Set in Naples.
233,189,52045,1,34,nap,5564,750,0.59,Neapolitan,Neapolitan,,NA,NA,5,Giovanni Abete,FALSE,neap1235,9,1,1,0,FALSE,FALSE,NA,,NA,NA,,33,0,0,0,0,NA,Neapolitan,FALSE,FALSE,_,NA,NA,NA,NA,NA,NA,NA,40.85,14.25,FALSE,FALSE,FALSE,Set in Naples.
232,189,52044,2,51,nap,5564,750,0.59,Neapolitan,Neapolitan,,NA,NA,5,Giovanni Abete,FALSE,neap1235,9,1,1,0,FALSE,FALSE,NA,,NA,NA,,33,0,0,0,0,NA,Neapolitan,FALSE,FALSE,_,NA,NA,NA,NA,NA,NA,NA,40.85,14.25,FALSE,FALSE,FALSE,Set in Naples.
74,51,51760,2,24,nep,5520,1400,0.49,Nepali,Nepali,"Nepali:  the official language of Nepal, as well as one of the 22 recognized languages of India, and an official language of the Indian state of Sikkim",NA,NA,5,Krzysztof Stroński,FALSE,east1436,6,1,0,0,FALSE,FALSE,NA,,NA,NA,,55,8,0,0,0,NA,Nepali,FALSE,FALSE,_,NA,NA,NA,NA,NA,NA,NA,27.717,85.323,FALSE,FALSE,FALSE,"Set at Kathmandu, the capital of the Federal Democratic Republic of Nepal and the major educational, cultural and literary centre for Nepali."
73,51,51759,3,33,nep,6981,1400,0.49,Nepali,Nepali,"Nepali:  the official language of Nepal, as well as one of the 22 recognized languages of India, and an official language of the Indian state of Sikkim",NA,NA,5,Krzysztof Stroński,FALSE,east1436,6,1,0,0,FALSE,FALSE,NA,,NA,NA,,55,8,0,0,0,NA,Nepali,FALSE,FALSE,_,NA,NA,NA,NA,NA,NA,NA,27.717,85.323,FALSE,FALSE,FALSE,"Set at Kathmandu, the capital of the Federal Democratic Republic of Nepal and the major educational, cultural and literary centre for Nepali."
83,58,51965,3,1,nob,4889,50,1,NorwegianBokmal,Norwegian: Bokmål,,NA,NA,5,Steve Pepper & Jade Jørgen Sandstedt,FALSE,norw1259,8,2,1,0,FALSE,FALSE,NA,https://ordbok.uib.no/perl/ordbok.cgi?ant_bokmaal=5&ant_nynorsk=5&bokmaal=+&ordbok=bokmaal&OPP=+,NA,NA,Lexeme determinations based on majority usage in Urban East Norwegian. Phonemic and phonetic transcriptions correspond to present-day pronunciations in Western Oslo.,30,1,2,0,0,NA,Norwegian_Riksmal,FALSE,FALSE,_,NA,NA,NA,NA,NA,NA,NA,59.914,10.718,FALSE,FALSE,FALSE,"Set on Oslo, since Bokmål was originally based on the ‘Dano-Norwegian’ spoken by the ‘urban elite’, especially in Oslo."
85,58,51967,1,3,nob,4889,50,1,NorwegianBokmal,Norwegian: Bokmål,,NA,NA,5,Steve Pepper & Jade Jørgen Sandstedt,FALSE,norw1259,8,2,1,0,FALSE,FALSE,NA,https://ordbok.uib.no/perl/ordbok.cgi?ant_bokmaal=5&ant_nynorsk=5&bokmaal=+&ordbok=bokmaal&OPP=+,NA,NA,Lexeme determinations based on majority usage in Urban East Norwegian. Phonemic and phonetic transcriptions correspond to present-day pronunciations in Western Oslo.,30,1,2,0,0,NA,Norwegian_Riksmal,FALSE,FALSE,_,NA,NA,NA,NA,NA,NA,NA,59.914,10.718,FALSE,FALSE,FALSE,"Set on Oslo, since Bokmål was originally based on the ‘Dano-Norwegian’ spoken by the ‘urban elite’, especially in Oslo."
84,58,51966,2,37,nob,4889,50,1,NorwegianBokmal,Norwegian: Bokmål,,NA,NA,5,Steve Pepper & Jade Jørgen Sandstedt,FALSE,norw1259,8,2,1,0,FALSE,FALSE,NA,https://ordbok.uib.no/perl/ordbok.cgi?ant_bokmaal=5&ant_nynorsk=5&bokmaal=+&ordbok=bokmaal&OPP=+,NA,NA,Lexeme determinations based on majority usage in Urban East Norwegian. Phonemic and phonetic transcriptions correspond to present-day pronunciations in Western Oslo.,30,1,2,0,0,NA,Norwegian_Riksmal,FALSE,FALSE,_,NA,NA,NA,NA,NA,NA,NA,59.914,10.718,FALSE,FALSE,FALSE,"Set on Oslo, since Bokmål was originally based on the ‘Dano-Norwegian’ spoken by the ‘urban elite’, especially in Oslo."
414,304,51968,3,1,nno,4889,50,1,NorwegianNynorsk,Norwegian: Nynorsk,,NA,NA,4,Jade Jørgen Sandstedt & Unn Røyneland,FALSE,norw1262,8,2,1,0,FALSE,FALSE,NA,https://ordbok.uib.no/perl/ordbok.cgi?ant_bokmaal=5&ant_nynorsk=5&nynorsk=+&ordbok=nynorsk&OPP=+,NA,NA,"Norwegian Nynorsk, with lexeme determinations based on majority usage. Phonemic and phonetic transcriptions based on normed (non-regional) Nynorsk speech.",32,0,0,0,0,NA,,FALSE,FALSE,_,NA,NA,NA,NA,NA,NA,NA,61.18,6.59,FALSE,FALSE,FALSE,"Set in Western Norway, representing the area with majority Nynorsk usage. Nynorsk is a non-regional written language, constructed to represent fundamental historical commonalities across Norwegian dialects."
416,304,51970,1,3,nno,4889,50,1,NorwegianNynorsk,Norwegian: Nynorsk,,NA,NA,4,Jade Jørgen Sandstedt & Unn Røyneland,FALSE,norw1262,8,2,1,0,FALSE,FALSE,NA,https://ordbok.uib.no/perl/ordbok.cgi?ant_bokmaal=5&ant_nynorsk=5&nynorsk=+&ordbok=nynorsk&OPP=+,NA,NA,"Norwegian Nynorsk, with lexeme determinations based on majority usage. Phonemic and phonetic transcriptions based on normed (non-regional) Nynorsk speech.",32,0,0,0,0,NA,,FALSE,FALSE,_,NA,NA,NA,NA,NA,NA,NA,61.18,6.59,FALSE,FALSE,FALSE,"Set in Western Norway, representing the area with majority Nynorsk usage. Nynorsk is a non-regional written language, constructed to represent fundamental historical commonalities across Norwegian dialects."
415,304,51969,2,37,nno,4889,50,1,NorwegianNynorsk,Norwegian: Nynorsk,,NA,NA,4,Jade Jørgen Sandstedt & Unn Røyneland,FALSE,norw1262,8,2,1,0,FALSE,FALSE,NA,https://ordbok.uib.no/perl/ordbok.cgi?ant_bokmaal=5&ant_nynorsk=5&nynorsk=+&ordbok=nynorsk&OPP=+,NA,NA,"Norwegian Nynorsk, with lexeme determinations based on majority usage. Phonemic and phonetic transcriptions based on normed (non-regional) Nynorsk speech.",32,0,0,0,0,NA,,FALSE,FALSE,_,NA,NA,NA,NA,NA,NA,NA,61.18,6.59,FALSE,FALSE,FALSE,"Set in Western Norway, representing the area with majority Nynorsk usage. Nynorsk is a non-regional written language, constructed to represent fundamental historical commonalities across Norwegian dialects."
223,177,51721,3,21,grc,5310,2050,0.94,NTGreek,Greek: New Testament,Strictly confined to the variety of Roman-period koiné Greek that is attested in the New Testament corpus.  Other varieties of Jewish koiné Greek (e.g. in the Septuagint translation of the Hebrew scriptures) are not included.,NA,NA,5,Matthew Scarborough,FALSE,koin1234,3,1,0,0,FALSE,FALSE,NA,http://www.perseus.tufts.edu/hopper/text?doc=Perseus:text:1999.04.0057:entry=,NA,NA,,30,5,0,0,0,NA,NT_Greek,TRUE,FALSE,N,NA,NA,NA,1900,20,NA,NA,31.77,35.21,FALSE,FALSE,FALSE,Site of Jerusalem in Roman Palestine.
224,177,51722,2,43,grc,5310,2050,0.94,NTGreek,Greek: New Testament,Strictly confined to the variety of Roman-period koiné Greek that is attested in the New Testament corpus.  Other varieties of Jewish koiné Greek (e.g. in the Septuagint translation of the Hebrew scriptures) are not included.,NA,NA,5,Matthew Scarborough,FALSE,koin1234,3,1,0,0,FALSE,FALSE,NA,http://www.perseus.tufts.edu/hopper/text?doc=Perseus:text:1999.04.0057:entry=,NA,NA,,30,5,0,0,0,NA,NT_Greek,TRUE,FALSE,N,NA,NA,NA,1900,20,NA,NA,31.77,35.21,FALSE,FALSE,FALSE,Site of Jerusalem in Roman Palestine.
197,148,52121,3,15,obt,4889,1500,0.97,OldBreton,Old Breton,,1200,900,5,Britta Irslinger,FALSE,oldb1248,10,2,3,0,FALSE,FALSE,NA,,NA,NA,,10,4,2,0,0,NA,Old_Breton,TRUE,FALSE,N,NA,NA,NA,1050,75,NA,NA,48,-2.8,FALSE,FALSE,FALSE,Set at approximate midway point between Lomarec and Gomené inscriptions
198,148,52122,2,17,obt,4889,1500,0.97,OldBreton,Old Breton,,1200,900,5,Britta Irslinger,FALSE,oldb1248,10,2,3,0,FALSE,FALSE,NA,,NA,NA,,10,4,2,0,0,NA,Old_Breton,TRUE,FALSE,N,NA,NA,NA,1050,75,NA,NA,48,-2.8,FALSE,FALSE,FALSE,Set at approximate midway point between Lomarec and Gomené inscriptions
199,148,52123,1,48,obt,4889,1500,0.97,OldBreton,Old Breton,,1200,900,5,Britta Irslinger,FALSE,oldb1248,10,2,3,0,FALSE,FALSE,NA,,NA,NA,,10,4,2,0,0,NA,Old_Breton,TRUE,FALSE,N,NA,NA,NA,1050,75,NA,NA,48,-2.8,FALSE,FALSE,FALSE,Set at approximate midway point between Lomarec and Gomené inscriptions
378,289,52082,3,5,cat,5564,850,1,OldCatalan,Old Catalan,,NA,NA,5,Maria-Reina Bastardas,FALSE,oldc1251,9,1,1,0,FALSE,FALSE,NA,,NA,NA,,72,0,0,0,0,NA,,TRUE,FALSE,N,NA,NA,NA,750,25,NA,NA,41.38,1.08,FALSE,FALSE,FALSE,"Set on the monastery of Poblet, where the abbot commissioned the Catalan version of the Llibre dels Fets, the primary source material for the IE-CoR entries for Old Catalan."
380,289,52084,1,34,cat,5564,850,1,OldCatalan,Old Catalan,,NA,NA,5,Maria-Reina Bastardas,FALSE,oldc1251,9,1,1,0,FALSE,FALSE,NA,,NA,NA,,72,0,0,0,0,NA,,TRUE,FALSE,N,NA,NA,NA,750,25,NA,NA,41.38,1.08,FALSE,FALSE,FALSE,"Set on the monastery of Poblet, where the abbot commissioned the Catalan version of the Llibre dels Fets, the primary source material for the IE-CoR entries for Old Catalan."
379,289,52083,2,51,cat,5564,850,1,OldCatalan,Old Catalan,,NA,NA,5,Maria-Reina Bastardas,FALSE,oldc1251,9,1,1,0,FALSE,FALSE,NA,,NA,NA,,72,0,0,0,0,NA,,TRUE,FALSE,N,NA,NA,NA,750,25,NA,NA,41.38,1.08,FALSE,FALSE,FALSE,"Set on the monastery of Poblet, where the abbot commissioned the Catalan version of the Llibre dels Fets, the primary source material for the IE-CoR entries for Old Catalan."
133,100,51871,3,11,chu,3663,1400,0.45,OldChurchSlavonic,Old Church Slavonic,Old Church Slavonic as documented in the texts of the strict canon (manuscripts from the 10th and 11th centuries AD),NA,NA,5,Lechosław Jocz,FALSE,chur1257,7,2,1,0,FALSE,TRUE,NA,,NA,NA,Old Church Slavonic sensu stricto,10,3,3,0,0,NA,Old_Church_Slavonic,TRUE,FALSE,N,NA,NA,NA,1000,50,NA,NA,40.65,22.9,FALSE,FALSE,FALSE,"Set on Thessaloniki (Greece), the hometown of Saints Cyril and Methodius, the creators of Old Church Slavonic as a written language."
134,100,51872,2,12,chu,3663,1400,0.45,OldChurchSlavonic,Old Church Slavonic,Old Church Slavonic as documented in the texts of the strict canon (manuscripts from the 10th and 11th centuries AD),NA,NA,5,Lechosław Jocz,FALSE,chur1257,7,2,1,0,FALSE,TRUE,NA,,NA,NA,Old Church Slavonic sensu stricto,10,3,3,0,0,NA,Old_Church_Slavonic,TRUE,FALSE,N,NA,NA,NA,1000,50,NA,NA,40.65,22.9,FALSE,FALSE,FALSE,"Set on Thessaloniki (Greece), the hometown of Saints Cyril and Methodius, the creators of Old Church Slavonic as a written language."
135,100,51873,1,45,chu,3663,1400,0.45,OldChurchSlavonic,Old Church Slavonic,Old Church Slavonic as documented in the texts of the strict canon (manuscripts from the 10th and 11th centuries AD),NA,NA,5,Lechosław Jocz,FALSE,chur1257,7,2,1,0,FALSE,TRUE,NA,,NA,NA,Old Church Slavonic sensu stricto,10,3,3,0,0,NA,Old_Church_Slavonic,TRUE,FALSE,N,NA,NA,NA,1000,50,NA,NA,40.65,22.9,FALSE,FALSE,FALSE,"Set on Thessaloniki (Greece), the hometown of Saints Cyril and Methodius, the creators of Old Church Slavonic as a written language."
303,243,51922,3,11,ces,3663,800,1,OldCzech,Old Czech,Old Czech as documented in dictionaries and corpora published at http://vokabular.ujc.cas.cz,NA,NA,5,Lechosław Jocz,FALSE,czec1258,7,2,2,0,FALSE,FALSE,NA,,NA,NA,,84,0,0,0,0,NA,,TRUE,FALSE,N,NA,NA,NA,656,31,NA,NA,50.09,14.42,FALSE,FALSE,FALSE,"Set on Prague, as the capital of historical Bohemia"
304,243,51923,2,12,ces,3663,800,1,OldCzech,Old Czech,Old Czech as documented in dictionaries and corpora published at http://vokabular.ujc.cas.cz,NA,NA,5,Lechosław Jocz,FALSE,czec1258,7,2,2,0,FALSE,FALSE,NA,,NA,NA,,84,0,0,0,0,NA,,TRUE,FALSE,N,NA,NA,NA,656,31,NA,NA,50.09,14.42,FALSE,FALSE,FALSE,"Set on Prague, as the capital of historical Bohemia"
305,243,51924,1,46,ces,3663,800,1,OldCzech,Old Czech,Old Czech as documented in dictionaries and corpora published at http://vokabular.ujc.cas.cz,NA,NA,5,Lechosław Jocz,FALSE,czec1258,7,2,2,0,FALSE,FALSE,NA,,NA,NA,,84,0,0,0,0,NA,,TRUE,FALSE,N,NA,NA,NA,656,31,NA,NA,50.09,14.42,FALSE,FALSE,FALSE,"Set on Prague, as the capital of historical Bohemia"
397,298,51993,3,1,ang,4889,1250,1,OldEnglish,Old English,,NA,NA,5,Matthew Boutilier,FALSE,olde1238,8,2,2,NA,FALSE,FALSE,NA,,NA,NA,West Saxon dialect of Old English,10,0,0,0,0,NA,,TRUE,FALSE,N,NA,NA,NA,1050,50,NA,NA,51.06,-1.33,FALSE,FALSE,FALSE,"Set on Winchester, as the reference point for the best documented dialect of Old English, sometimes even referred to as the ""Winchester standard""."
399,298,51995,1,2,ang,4889,1250,1,OldEnglish,Old English,,NA,NA,5,Matthew Boutilier,FALSE,olde1238,8,2,2,NA,FALSE,FALSE,NA,,NA,NA,West Saxon dialect of Old English,10,0,0,0,0,NA,,TRUE,FALSE,N,NA,NA,NA,1050,50,NA,NA,51.06,-1.33,FALSE,FALSE,FALSE,"Set on Winchester, as the reference point for the best documented dialect of Old English, sometimes even referred to as the ""Winchester standard""."
398,298,51994,2,37,ang,4889,1250,1,OldEnglish,Old English,,NA,NA,5,Matthew Boutilier,FALSE,olde1238,8,2,2,NA,FALSE,FALSE,NA,,NA,NA,West Saxon dialect of Old English,10,0,0,0,0,NA,,TRUE,FALSE,N,NA,NA,NA,1050,50,NA,NA,51.06,-1.33,FALSE,FALSE,FALSE,"Set on Winchester, as the reference point for the best documented dialect of Old English, sometimes even referred to as the ""Winchester standard""."
129,99,51989,3,1,ang,4889,1250,1,OldEnglishLegacy,Old_English_Legacy,Late West Saxon Old English,NA,NA,5,Martin Findell,FALSE,olde1238,8,2,2,1,FALSE,FALSE,NA,,NA,NA,,61,1,1,0,0,NA,Old_English,TRUE,TRUE,N,NA,NA,NA,1050,50,NA,NA,51.06,-1.33,FALSE,FALSE,FALSE,
131,99,51991,1,2,ang,4889,1250,1,OldEnglishLegacy,Old_English_Legacy,Late West Saxon Old English,NA,NA,5,Martin Findell,FALSE,olde1238,8,2,2,1,FALSE,FALSE,NA,,NA,NA,,61,1,1,0,0,NA,Old_English,TRUE,TRUE,N,NA,NA,NA,1050,50,NA,NA,51.06,-1.33,FALSE,FALSE,FALSE,
130,99,51990,2,37,ang,4889,1250,1,OldEnglishLegacy,Old_English_Legacy,Late West Saxon Old English,NA,NA,5,Martin Findell,FALSE,olde1238,8,2,2,1,FALSE,FALSE,NA,,NA,NA,,61,1,1,0,0,NA,Old_English,TRUE,TRUE,N,NA,NA,NA,1050,50,NA,NA,51.06,-1.33,FALSE,FALSE,FALSE,
132,99,51992,0,40,ang,4889,1250,1,OldEnglishLegacy,Old_English_Legacy,Late West Saxon Old English,NA,NA,5,Martin Findell,FALSE,olde1238,8,2,2,1,FALSE,FALSE,NA,,NA,NA,,61,1,1,0,0,NA,Old_English,TRUE,TRUE,N,NA,NA,NA,1050,50,NA,NA,51.06,-1.33,FALSE,FALSE,FALSE,
252,209,52064,3,5,fro,5564,600,0.98,OldFrench,Old French,,1158,650,5,Sabine Tittel,FALSE,oldf1239,9,1,1,0,FALSE,FALSE,NA,,NA,NA,,60,0,0,0,0,NA,Old_French,TRUE,TRUE,N,NA,NA,NA,900,150,NA,NA,48.85,2.35,FALSE,FALSE,FALSE,"Set in Paris, cultural and political centre of the area in which Old French was spoken."
254,209,52066,1,34,fro,5564,600,0.98,OldFrench,Old French,,1158,650,5,Sabine Tittel,FALSE,oldf1239,9,1,1,0,FALSE,FALSE,NA,,NA,NA,,60,0,0,0,0,NA,Old_French,TRUE,TRUE,N,NA,NA,NA,900,150,NA,NA,48.85,2.35,FALSE,FALSE,FALSE,"Set in Paris, cultural and political centre of the area in which Old French was spoken."
253,209,52065,2,51,fro,5564,600,0.98,OldFrench,Old French,,1158,650,5,Sabine Tittel,FALSE,oldf1239,9,1,1,0,FALSE,FALSE,NA,,NA,NA,,60,0,0,0,0,NA,Old_French,TRUE,TRUE,N,NA,NA,NA,900,150,NA,NA,48.85,2.35,FALSE,FALSE,FALSE,"Set in Paris, cultural and political centre of the area in which Old French was spoken."
406,301,51999,3,1,ofs,4889,1200,0.89,OldFrisian,Old Frisian,Old East Frisian (the variety of the Hunsingo and Emsingo manuscripts on which IE-CoR lexeme determinations are based),NA,NA,5,Matthew Boutilier,FALSE,oldf1241,8,2,2,NA,FALSE,FALSE,NA,,NA,NA,,20,0,0,0,0,NA,,TRUE,FALSE,N,NA,NA,NA,625,35,NA,NA,53.34,6.5,FALSE,FALSE,FALSE,"Set on the approximate location of the origin of the Hunsingo manuscripts, according to the map by Bremmer (2009:16), also as a roughly central location within the range of all Old Frisian manuscripts."
408,301,52001,1,2,ofs,4889,1200,0.72,OldFrisian,Old Frisian,Old East Frisian (the variety of the Hunsingo and Emsingo manuscripts on which IE-CoR lexeme determinations are based),NA,NA,5,Matthew Boutilier,FALSE,oldf1241,8,2,2,NA,FALSE,FALSE,NA,,NA,NA,,20,0,0,0,0,NA,,TRUE,FALSE,N,NA,NA,NA,625,35,NA,NA,53.34,6.5,FALSE,FALSE,FALSE,"Set on the approximate location of the origin of the Hunsingo manuscripts, according to the map by Bremmer (2009:16), also as a roughly central location within the range of all Old Frisian manuscripts."
407,301,52000,2,37,ofs,4889,1200,0.72,OldFrisian,Old Frisian,Old East Frisian (the variety of the Hunsingo and Emsingo manuscripts on which IE-CoR lexeme determinations are based),NA,NA,5,Matthew Boutilier,FALSE,oldf1241,8,2,2,NA,FALSE,FALSE,NA,,NA,NA,,20,0,0,0,0,NA,,TRUE,FALSE,N,NA,NA,NA,625,35,NA,NA,53.34,6.5,FALSE,FALSE,FALSE,"Set on the approximate location of the origin of the Hunsingo manuscripts, according to the map by Bremmer (2009:16), also as a roughly central location within the range of all Old Frisian manuscripts."
389,295,52017,3,1,goh,4889,1400,0.96,OldHighGerman,Old High German,,NA,NA,5,Matthew Boutilier,FALSE,oldh1241,8,2,2,NA,FALSE,TRUE,NA,,NA,NA,"East Franconian, the dialect of the Old High German Tatian text.",50,0,0,0,0,NA,,TRUE,FALSE,N,NA,NA,NA,1170,5,NA,NA,50.554,9.672,FALSE,FALSE,FALSE,"Set on the monastery of Fulda, where the major reference text in Old High German, the translation of Tatian, is widely assumed to have been produced."
391,295,52019,1,2,goh,4889,1400,0.96,OldHighGerman,Old High German,,NA,NA,5,Matthew Boutilier,FALSE,oldh1241,8,2,2,NA,FALSE,TRUE,NA,,NA,NA,"East Franconian, the dialect of the Old High German Tatian text.",50,0,0,0,0,NA,,TRUE,FALSE,N,NA,NA,NA,1170,5,NA,NA,50.554,9.672,FALSE,FALSE,FALSE,"Set on the monastery of Fulda, where the major reference text in Old High German, the translation of Tatian, is widely assumed to have been produced."
390,295,52018,2,37,goh,4889,1400,0.96,OldHighGerman,Old High German,,NA,NA,5,Matthew Boutilier,FALSE,oldh1241,8,2,2,NA,FALSE,TRUE,NA,,NA,NA,"East Franconian, the dialect of the Old High German Tatian text.",50,0,0,0,0,NA,,TRUE,FALSE,N,NA,NA,NA,1170,5,NA,NA,50.554,9.672,FALSE,FALSE,FALSE,"Set on the monastery of Fulda, where the major reference text in Old High German, the translation of Tatian, is widely assumed to have been produced."
168,126,51986,3,1,goh,4889,1400,0.96,OldHighGerman_Legacy,Old_High_German_Legacy,9th century East Franconian,NA,NA,5,Tonya Dewey,FALSE,oldh1241,8,2,2,0,FALSE,FALSE,NA,,NA,NA,,16,1,1,0,0,NA,Old_High_German,TRUE,TRUE,N,NA,NA,NA,1050,50,NA,NA,50,10,FALSE,FALSE,FALSE,
170,126,51988,1,2,goh,4889,1400,0.96,OldHighGerman_Legacy,Old_High_German_Legacy,9th century East Franconian,NA,NA,5,Tonya Dewey,FALSE,oldh1241,8,2,2,0,FALSE,FALSE,NA,,NA,NA,,16,1,1,0,0,NA,Old_High_German,TRUE,TRUE,N,NA,NA,NA,1050,50,NA,NA,50,10,FALSE,FALSE,FALSE,
169,126,51987,2,37,goh,4889,1400,0.96,OldHighGerman_Legacy,Old_High_German_Legacy,9th century East Franconian,NA,NA,5,Tonya Dewey,FALSE,oldh1241,8,2,2,0,FALSE,FALSE,NA,,NA,NA,,16,1,1,0,0,NA,Old_High_German,TRUE,TRUE,N,NA,NA,NA,1050,50,NA,NA,50,10,FALSE,FALSE,FALSE,
409,302,51956,3,1,non,4889,1000,0.99,OldIcelandic,Old Icelandic,,NA,NA,5,Matthew Boutilier,FALSE,oldn1244,8,2,1,0,FALSE,FALSE,NA,,NA,NA,,15,0,0,0,0,NA,,TRUE,FALSE,N,NA,NA,NA,800,15,NA,NA,64.26,-21.12,FALSE,FALSE,FALSE,"Set at Þingvellir. the venue of the Alþingi, Iceland's historical parliament."
411,302,51958,1,3,non,4889,1000,0.99,OldIcelandic,Old Icelandic,,NA,NA,5,Matthew Boutilier,FALSE,oldn1244,8,2,1,0,FALSE,FALSE,NA,,NA,NA,,15,0,0,0,0,NA,,TRUE,FALSE,N,NA,NA,NA,800,15,NA,NA,64.26,-21.12,FALSE,FALSE,FALSE,"Set at Þingvellir. the venue of the Alþingi, Iceland's historical parliament."
410,302,51957,2,37,non,4889,1000,0.99,OldIcelandic,Old Icelandic,,NA,NA,5,Matthew Boutilier,FALSE,oldn1244,8,2,1,0,FALSE,FALSE,NA,,NA,NA,,15,0,0,0,0,NA,,TRUE,FALSE,N,NA,NA,NA,800,15,NA,NA,64.26,-21.12,FALSE,FALSE,FALSE,"Set at Þingvellir. the venue of the Alþingi, Iceland's historical parliament."
171,127,52133,3,15,sga,4889,1600,1,OldIrish,Old Irish,Primarily based on Old Irish glosses,NA,NA,5,Cormac Anderson,FALSE,oldi1245,10,3,0,0,FALSE,TRUE,NA,http://dil.ie/,NA,NA,,10,4,1,0,0,NA,Old_Irish,TRUE,FALSE,N,NA,NA,NA,1250,50,NA,NA,54.35,-6.66,FALSE,FALSE,FALSE,"Set at Armagh, primary site of Irish Christianity and centre for Old Irish"
172,127,52134,2,16,sga,4889,1550,1,OldIrish,Old Irish,Primarily based on Old Irish glosses,NA,NA,5,Cormac Anderson,FALSE,oldi1245,10,3,0,0,FALSE,TRUE,NA,http://dil.ie/,NA,NA,,10,4,1,0,0,NA,Old_Irish,TRUE,FALSE,N,NA,NA,NA,1250,50,NA,NA,54.35,-6.66,FALSE,FALSE,FALSE,"Set at Armagh, primary site of Irish Christianity and centre for Old Irish"
143,109,51953,3,1,non,4889,500,1,OldNorse,Old Norse,,NA,NA,5,Tonya Dewey,TRUE,oldn1244,8,2,1,0,FALSE,TRUE,NA,http://web.ff.cuni.cz/cgi-bin/uaa_slovnik/gmc_search_v3?cmd=formquery2&query=,NA,NA,,10,1,2,0,0,NA,Old_Norse,TRUE,TRUE,N,NA,NA,NA,775,75,NA,NA,65.33,-19.53,FALSE,FALSE,FALSE,
145,109,51955,1,3,non,4889,500,1,OldNorse,Old Norse,,NA,NA,5,Tonya Dewey,TRUE,oldn1244,8,2,1,0,FALSE,TRUE,NA,http://web.ff.cuni.cz/cgi-bin/uaa_slovnik/gmc_search_v3?cmd=formquery2&query=,NA,NA,,10,1,2,0,0,NA,Old_Norse,TRUE,TRUE,N,NA,NA,NA,775,75,NA,NA,65.33,-19.53,FALSE,FALSE,FALSE,
144,109,51954,2,37,non,4889,500,1,OldNorse,Old Norse,,NA,NA,5,Tonya Dewey,TRUE,oldn1244,8,2,1,0,FALSE,TRUE,NA,http://web.ff.cuni.cz/cgi-bin/uaa_slovnik/gmc_search_v3?cmd=formquery2&query=,NA,NA,,10,1,2,0,0,NA,Old_Norse,TRUE,TRUE,N,NA,NA,NA,775,75,NA,NA,65.33,-19.53,FALSE,FALSE,FALSE,
306,245,51934,3,11,orv,3663,1250,0.95,OldNovgorod,Old Novgorod,"Historical Slavic variety from northern Russia, markedly divergent from Old Russian proper, showing some features that are entirely absent in all other historical and modern Slavic varieties",NA,NA,5,Lechosław Jocz,FALSE,oldr1238,7,2,3,0,FALSE,FALSE,NA,,NA,NA,,48,0,0,0,0,NA,,TRUE,FALSE,N,NA,NA,NA,795,107,NA,NA,58.55,31.27,FALSE,FALSE,FALSE,Set on Velikij Novgorod
307,245,51935,2,12,orv,3663,1250,0.95,OldNovgorod,Old Novgorod,"Historical Slavic variety from northern Russia, markedly divergent from Old Russian proper, showing some features that are entirely absent in all other historical and modern Slavic varieties",NA,NA,5,Lechosław Jocz,FALSE,oldr1238,7,2,3,0,FALSE,FALSE,NA,,NA,NA,,48,0,0,0,0,NA,,TRUE,FALSE,N,NA,NA,NA,795,107,NA,NA,58.55,31.27,FALSE,FALSE,FALSE,Set on Velikij Novgorod
308,245,51936,1,47,orv,3663,1250,0.95,OldNovgorod,Old Novgorod,"Historical Slavic variety from northern Russia, markedly divergent from Old Russian proper, showing some features that are entirely absent in all other historical and modern Slavic varieties",NA,NA,5,Lechosław Jocz,FALSE,oldr1238,7,2,3,0,FALSE,FALSE,NA,,NA,NA,,48,0,0,0,0,NA,,TRUE,FALSE,N,NA,NA,NA,795,107,NA,NA,58.55,31.27,FALSE,FALSE,FALSE,Set on Velikij Novgorod
366,283,52152,3,5,pro,5564,900,1,OldOccitan,Old Occitan,"Provençal Occitan, with lexeme determinations based on majority usage in Provençal texts. Phonemic and phonetic transcriptions correspond to standard present-day pronunciations of Occitan in southern France and evidence from medieval Provençal, where known.",NA,NA,5,Lisa Bevevino,FALSE,oldp1253,9,1,1,0,FALSE,FALSE,NA,,NA,NA,Provençal Occitan,68,0,0,0,0,NA,,TRUE,FALSE,N,NA,NA,NA,700,50,NA,NA,43.949,4.806,FALSE,FALSE,FALSE,"Set in Avignon, popularly considered a prestige location of the perceived standard variety of Provençal, and where many medieval manuscripts originated."
368,283,52154,1,34,pro,5564,900,1,OldOccitan,Old Occitan,"Provençal Occitan, with lexeme determinations based on majority usage in Provençal texts. Phonemic and phonetic transcriptions correspond to standard present-day pronunciations of Occitan in southern France and evidence from medieval Provençal, where known.",NA,NA,5,Lisa Bevevino,FALSE,oldp1253,9,1,1,0,FALSE,FALSE,NA,,NA,NA,Provençal Occitan,68,0,0,0,0,NA,,TRUE,FALSE,N,NA,NA,NA,700,50,NA,NA,43.949,4.806,FALSE,FALSE,FALSE,"Set in Avignon, popularly considered a prestige location of the perceived standard variety of Provençal, and where many medieval manuscripts originated."
367,283,52153,2,51,pro,5564,900,1,OldOccitan,Old Occitan,"Provençal Occitan, with lexeme determinations based on majority usage in Provençal texts. Phonemic and phonetic transcriptions correspond to standard present-day pronunciations of Occitan in southern France and evidence from medieval Provençal, where known.",NA,NA,5,Lisa Bevevino,FALSE,oldp1253,9,1,1,0,FALSE,FALSE,NA,,NA,NA,Provençal Occitan,68,0,0,0,0,NA,,TRUE,FALSE,N,NA,NA,NA,700,50,NA,NA,43.949,4.806,FALSE,FALSE,FALSE,"Set in Avignon, popularly considered a prestige location of the perceived standard variety of Provençal, and where many medieval manuscripts originated."
179,131,51842,2,23,peo,5520,2850,0.99,OldPersian,Old Persian,,NA,NA,5,Thomas Jügel,FALSE,oldp1254,6,3,0,0,FALSE,FALSE,NA,,NA,NA,,80,7,0,0,0,NA,Old_Persian,TRUE,FALSE,N,NA,NA,NA,2450,75,NA,NA,31.47,49.71,FALSE,FALSE,FALSE,"Site of Anshan in Elam, the original home city of the Achaemenids."
178,131,51841,3,33,peo,6981,2850,0.99,OldPersian,Old Persian,,NA,NA,5,Thomas Jügel,FALSE,oldp1254,6,3,0,0,FALSE,FALSE,NA,,NA,NA,,80,7,0,0,0,NA,Old_Persian,TRUE,FALSE,N,NA,NA,NA,2450,75,NA,NA,31.47,49.71,FALSE,FALSE,FALSE,"Site of Anshan in Elam, the original home city of the Achaemenids."
295,238,51907,3,11,pol,3663,700,1,OldPolish,Old Polish,Old Polish as documented in the dictionary Słownik Staropolski (1953-2002),NA,NA,5,Lechosław Jocz,FALSE,poli1260,7,2,2,0,FALSE,FALSE,NA,,NA,NA,,70,0,0,0,0,NA,,TRUE,FALSE,N,NA,NA,NA,600,50,NA,NA,52.54,17.61,FALSE,FALSE,FALSE,"Set on Gniezno, as the oldest capital of Poland"
296,238,51908,2,12,pol,3663,700,1,OldPolish,Old Polish,Old Polish as documented in the dictionary Słownik Staropolski (1953-2002),NA,NA,5,Lechosław Jocz,FALSE,poli1260,7,2,2,0,FALSE,FALSE,NA,,NA,NA,,70,0,0,0,0,NA,,TRUE,FALSE,N,NA,NA,NA,600,50,NA,NA,52.54,17.61,FALSE,FALSE,FALSE,"Set on Gniezno, as the oldest capital of Poland"
297,238,51909,1,46,pol,3663,700,1,OldPolish,Old Polish,Old Polish as documented in the dictionary Słownik Staropolski (1953-2002),NA,NA,5,Lechosław Jocz,FALSE,poli1260,7,2,2,0,FALSE,FALSE,NA,,NA,NA,,70,0,0,0,0,NA,,TRUE,FALSE,N,NA,NA,NA,600,50,NA,NA,52.54,17.61,FALSE,FALSE,FALSE,"Set on Gniezno, as the oldest capital of Poland"
140,108,51868,3,11,prg,3663,2500,1,OldPrussian,Old Prussian,,NA,NA,5,Tijmen Pronk,FALSE,prus1238,7,1,2,0,FALSE,FALSE,NA,,NA,NA,"Data were taken from the following Old Prussian sources: The three cathechisms, the Elbing vocabulary and Grunau's vocabulary. These sources represent several slightly different dialects of the Old Prussian language.",0,3,8,0,0,NA,Old_Prussian,TRUE,FALSE,N,NA,NA,NA,500,50,NA,NA,54.92,20.48,FALSE,FALSE,FALSE,"The coordinates are those of Moxovoe, Kaliningrad Oblast', Russia. It is an archeological site located on the Sambia peninsula, which was one of the last areas where Old Prussian was spoken."
141,108,51869,2,29,prg,3663,2500,1,OldPrussian,Old Prussian,,NA,NA,5,Tijmen Pronk,FALSE,prus1238,7,1,2,0,FALSE,FALSE,NA,,NA,NA,"Data were taken from the following Old Prussian sources: The three cathechisms, the Elbing vocabulary and Grunau's vocabulary. These sources represent several slightly different dialects of the Old Prussian language.",0,3,8,0,0,NA,Old_Prussian,TRUE,FALSE,N,NA,NA,NA,500,50,NA,NA,54.92,20.48,FALSE,FALSE,FALSE,"The coordinates are those of Moxovoe, Kaliningrad Oblast', Russia. It is an archeological site located on the Sambia peninsula, which was one of the last areas where Old Prussian was spoken."
142,108,51870,1,38,prg,3663,2500,1,OldPrussian,Old Prussian,,NA,NA,5,Tijmen Pronk,FALSE,prus1238,7,1,2,0,FALSE,FALSE,NA,,NA,NA,"Data were taken from the following Old Prussian sources: The three cathechisms, the Elbing vocabulary and Grunau's vocabulary. These sources represent several slightly different dialects of the Old Prussian language.",0,3,8,0,0,NA,Old_Prussian,TRUE,FALSE,N,NA,NA,NA,500,50,NA,NA,54.92,20.48,FALSE,FALSE,FALSE,"The coordinates are those of Moxovoe, Kaliningrad Oblast', Russia. It is an archeological site located on the Sambia peninsula, which was one of the last areas where Old Prussian was spoken."
394,297,52014,3,1,osx,4889,1500,1,OldSaxon,Old Saxon,,NA,NA,5,Matthew Boutilier,FALSE,olds1250,8,2,2,NA,FALSE,FALSE,NA,,NA,NA,The text of the epic poem Hêliand.,40,0,0,0,0,NA,,TRUE,FALSE,N,NA,NA,NA,1175,15,NA,NA,53.076,8.81,FALSE,FALSE,FALSE,"Set on Bremen, an important early city central within the region where Old Saxon was spoken."
396,297,52016,1,2,osx,4889,1500,1,OldSaxon,Old Saxon,,NA,NA,5,Matthew Boutilier,FALSE,olds1250,8,2,2,NA,FALSE,FALSE,NA,,NA,NA,The text of the epic poem Hêliand.,40,0,0,0,0,NA,,TRUE,FALSE,N,NA,NA,NA,1175,15,NA,NA,53.076,8.81,FALSE,FALSE,FALSE,"Set on Bremen, an important early city central within the region where Old Saxon was spoken."
395,297,52015,2,37,osx,4889,1500,1,OldSaxon,Old Saxon,,NA,NA,5,Matthew Boutilier,FALSE,olds1250,8,2,2,NA,FALSE,FALSE,NA,,NA,NA,The text of the epic poem Hêliand.,40,0,0,0,0,NA,,TRUE,FALSE,N,NA,NA,NA,1175,15,NA,NA,53.076,8.81,FALSE,FALSE,FALSE,"Set on Bremen, an important early city central within the region where Old Saxon was spoken."
335,261,51983,3,1,osx,4889,1500,1,OldSaxonLegacy,Old_Saxon_Legacy,,NA,NA,5,Tonya Dewey,FALSE,olds1250,8,2,2,0,FALSE,FALSE,NA,,NA,NA,,11,0,0,0,0,NA,,TRUE,TRUE,N,NA,NA,NA,1100,25,NA,NA,51.39,7,FALSE,FALSE,FALSE,
337,261,51985,1,2,osx,4889,1500,1,OldSaxonLegacy,Old_Saxon_Legacy,,NA,NA,5,Tonya Dewey,FALSE,olds1250,8,2,2,0,FALSE,FALSE,NA,,NA,NA,,11,0,0,0,0,NA,,TRUE,TRUE,N,NA,NA,NA,1100,25,NA,NA,51.39,7,FALSE,FALSE,FALSE,
336,261,51984,2,37,osx,4889,1500,1,OldSaxonLegacy,Old_Saxon_Legacy,,NA,NA,5,Tonya Dewey,FALSE,olds1250,8,2,2,0,FALSE,FALSE,NA,,NA,NA,,11,0,0,0,0,NA,,TRUE,TRUE,N,NA,NA,NA,1100,25,NA,NA,51.39,7,FALSE,FALSE,FALSE,
244,204,52088,3,5,osp,5564,800,0.81,OldSpanish,Old Spanish,,NA,NA,5,Stephen Dworkin,FALSE,olds1249,9,1,1,0,FALSE,FALSE,NA,,NA,NA,,80,0,0,0,0,NA,Old_Spanish,TRUE,FALSE,N,NA,NA,NA,750,75,NA,NA,39.857,-4.024,FALSE,FALSE,FALSE,"Set on Toledo, since the IE-CoR data for Old Spanish are centred on texts from the royal chancellery of Alfonso el Sabio (reigned 1252-1284 CE) in Toledo."
246,204,52090,1,34,osp,5564,800,0.81,OldSpanish,Old Spanish,,NA,NA,5,Stephen Dworkin,FALSE,olds1249,9,1,1,0,FALSE,FALSE,NA,,NA,NA,,80,0,0,0,0,NA,Old_Spanish,TRUE,FALSE,N,NA,NA,NA,750,75,NA,NA,39.857,-4.024,FALSE,FALSE,FALSE,"Set on Toledo, since the IE-CoR data for Old Spanish are centred on texts from the royal chancellery of Alfonso el Sabio (reigned 1252-1284 CE) in Toledo."
245,204,52089,2,51,osp,5564,800,0.81,OldSpanish,Old Spanish,,NA,NA,5,Stephen Dworkin,FALSE,olds1249,9,1,1,0,FALSE,FALSE,NA,,NA,NA,,80,0,0,0,0,NA,Old_Spanish,TRUE,FALSE,N,NA,NA,NA,750,75,NA,NA,39.857,-4.024,FALSE,FALSE,FALSE,"Set on Toledo, since the IE-CoR data for Old Spanish are centred on texts from the royal chancellery of Alfonso el Sabio (reigned 1252-1284 CE) in Toledo."
205,157,51974,3,1,swe,4889,1150,0.53,OldSwedish,Old Swedish,,NA,NA,5,Tonya Kim Dewey-Findell,FALSE,swed1254,8,2,1,0,FALSE,FALSE,NA,,NA,NA,,50,1,2,0,0,NA,Old_Swedish,TRUE,FALSE,N,NA,NA,NA,650,75,NA,NA,57.728,12.7,FALSE,FALSE,FALSE,"Set on the approximate midpoint of the province of Västergötland (West Gothland), since the main early texts for Old Swedish are the legal codes for this region, the Västgötalagen."
207,157,51976,1,3,swe,4889,1150,0.53,OldSwedish,Old Swedish,,NA,NA,5,Tonya Kim Dewey-Findell,FALSE,swed1254,8,2,1,0,FALSE,FALSE,NA,,NA,NA,,50,1,2,0,0,NA,Old_Swedish,TRUE,FALSE,N,NA,NA,NA,650,75,NA,NA,57.728,12.7,FALSE,FALSE,FALSE,"Set on the approximate midpoint of the province of Västergötland (West Gothland), since the main early texts for Old Swedish are the legal codes for this region, the Västgötalagen."
206,157,51975,2,37,swe,4889,1150,0.53,OldSwedish,Old Swedish,,NA,NA,5,Tonya Kim Dewey-Findell,FALSE,swed1254,8,2,1,0,FALSE,FALSE,NA,,NA,NA,,50,1,2,0,0,NA,Old_Swedish,TRUE,FALSE,N,NA,NA,NA,650,75,NA,NA,57.728,12.7,FALSE,FALSE,FALSE,"Set on the approximate midpoint of the province of Västergötland (West Gothland), since the main early texts for Old Swedish are the legal codes for this region, the Västgötalagen."
200,150,52106,3,15,owl,4889,1200,1,OldWelsh,Old Welsh,,1250,850,5,Alexander Falileyev,FALSE,oldw1241,10,2,1,0,FALSE,FALSE,NA,,NA,NA,,40,4,2,0,0,NA,Old_Welsh,TRUE,FALSE,N,NA,NA,NA,1050,75,NA,NA,52.59,-4.09,FALSE,FALSE,FALSE,"Tywyn, location of the Cadfan stone"
201,150,52107,2,17,owl,4889,1200,1,OldWelsh,Old Welsh,,1250,850,5,Alexander Falileyev,FALSE,oldw1241,10,2,1,0,FALSE,FALSE,NA,,NA,NA,,40,4,2,0,0,NA,Old_Welsh,TRUE,FALSE,N,NA,NA,NA,1050,75,NA,NA,52.59,-4.09,FALSE,FALSE,FALSE,"Tywyn, location of the Cadfan stone"
202,150,52108,1,49,owl,4889,1200,1,OldWelsh,Old Welsh,,1250,850,5,Alexander Falileyev,FALSE,oldw1241,10,2,1,0,FALSE,FALSE,NA,,NA,NA,,40,4,2,0,0,NA,Old_Welsh,TRUE,FALSE,N,NA,NA,NA,1050,75,NA,NA,52.59,-4.09,FALSE,FALSE,FALSE,"Tywyn, location of the Cadfan stone"
176,130,52100,3,5,osc,5564,2750,0.95,Oscan,Oscan,,NA,NA,5,Matthew Scarborough,FALSE,osca1245,9,2,0,0,FALSE,FALSE,NA,,NA,NA,,10,2,0,0,0,NA,Oscan,TRUE,FALSE,N,NA,NA,NA,2200,75,NA,NA,40.86,15.65,FALSE,FALSE,FALSE,South Central Italy. Approximate centre of Oscan speaking areas prior to the historical spread of Latin.
177,130,52101,2,35,osc,5564,2750,0.95,Oscan,Oscan,,NA,NA,5,Matthew Scarborough,FALSE,osca1245,9,2,0,0,FALSE,FALSE,NA,,NA,NA,,10,2,0,0,0,NA,Oscan,TRUE,FALSE,N,NA,NA,NA,2200,75,NA,NA,40.86,15.65,FALSE,FALSE,FALSE,South Central Italy. Approximate centre of Oscan speaking areas prior to the historical spread of Latin.
167,125,51858,2,23,oss,5520,250,1,OsseticDigor,Ossetic: Digor,"The dialect characteristic of the Iræf district, with non-phonemic palatalization of affricates and sibilants before front vowels (cf. /cʼew/ [čʼew] 'bird'). I still chose Digora (Digorskij district) as the location because the data are supposed to represent the whole of the Digor dialect. Also this variety appears to be currently more widespread than the one without palatalization.",NA,NA,5,Oleg Belyaev,FALSE,digo1242,6,3,0,0,FALSE,FALSE,NA,,NA,NA,The dialect characteristic of the Iræf district.,99,7,0,0,0,NA,Ossetic_Digor,FALSE,FALSE,_,NA,NA,NA,NA,NA,NA,NA,43.16,44.16,FALSE,FALSE,FALSE,"Digora, the largest Digor-speaking town of Ossetia and also roughly the centre of the modern Digor-speaking area. (The original Digor area was more in the highlands.)"
166,125,51857,3,33,oss,6981,250,1,OsseticDigor,Ossetic: Digor,"The dialect characteristic of the Iræf district, with non-phonemic palatalization of affricates and sibilants before front vowels (cf. /cʼew/ [čʼew] 'bird'). I still chose Digora (Digorskij district) as the location because the data are supposed to represent the whole of the Digor dialect. Also this variety appears to be currently more widespread than the one without palatalization.",NA,NA,5,Oleg Belyaev,FALSE,digo1242,6,3,0,0,FALSE,FALSE,NA,,NA,NA,The dialect characteristic of the Iræf district.,99,7,0,0,0,NA,Ossetic_Digor,FALSE,FALSE,_,NA,NA,NA,NA,NA,NA,NA,43.16,44.16,FALSE,FALSE,FALSE,"Digora, the largest Digor-speaking town of Ossetia and also roughly the centre of the modern Digor-speaking area. (The original Digor area was more in the highlands.)"
165,124,51856,2,23,oss,5520,250,1,OsseticIron,Ossetic: Iron,"Standard Iron as spoken by the majority of speakers in North Ossetia (specifically, with respect to the sound changes /c/ → /s/, /dz/ → /z/, /s/ → /š/, /z/ → /ž/).",NA,NA,5,Oleg Belyaev,FALSE,iron1242,6,3,0,0,FALSE,FALSE,NA,,NA,NA,Standard Iron as spoken by the majority of speakers in North Ossetia ,98,7,0,0,0,NA,Ossetic_Iron,FALSE,FALSE,_,NA,NA,NA,NA,NA,NA,NA,43.02,44.65,FALSE,FALSE,FALSE,"Vladikavkaz, the capital of North Ossetia, and roughly the geographical centre of the Iron-speaking area (albeit slightly to the east)."
164,124,51855,3,33,oss,6981,250,1,OsseticIron,Ossetic: Iron,"Standard Iron as spoken by the majority of speakers in North Ossetia (specifically, with respect to the sound changes /c/ → /s/, /dz/ → /z/, /s/ → /š/, /z/ → /ž/).",NA,NA,5,Oleg Belyaev,FALSE,iron1242,6,3,0,0,FALSE,FALSE,NA,,NA,NA,Standard Iron as spoken by the majority of speakers in North Ossetia ,98,7,0,0,0,NA,Ossetic_Iron,FALSE,FALSE,_,NA,NA,NA,NA,NA,NA,NA,43.02,44.65,FALSE,FALSE,FALSE,"Vladikavkaz, the capital of North Ossetia, and roughly the geographical centre of the Iron-speaking area (albeit slightly to the east)."
184,135,3036,3,22,plq,6932,,,Palaic,Palaic,Palaic as attested in multilingual Hittite liturgical texts excavated from the Hittite capital Hattuša (present-day Boğhazkale).,NA,NA,5,Matilde Serangeli and Matthew Scarborough,FALSE,pala1331,1,0,0,0,FALSE,FALSE,NA,,NA,NA,,40,6,0,0,0,NA,Palaic,TRUE,TRUE,N,NA,NA,NA,3500,100,NA,NA,41.4,33.75,FALSE,FALSE,FALSE,"Set at the approximate centre of historical Palā, generally agreed to have been located northwest of the Hittite territory across the present-day Kızıl Irmak river."
209,162,51742,2,24,pli,5520,3800,1,Pali,Pali,,NA,NA,5,Martin Kümmel,FALSE,pali1273,6,1,0,0,FALSE,FALSE,NA,http://dsalsrv02.uchicago.edu/cgi-bin/philologic/search3advanced?dbname=pali&searchdomain=headwords&matchtype=start&display=utf8&query=,NA,NA,,15,8,0,0,0,NA,Pali,TRUE,FALSE,N,NA,NA,NA,2450,75,NA,NA,23.18,75.78,FALSE,FALSE,FALSE,"It is difficult to give an exact original location for Pāli, but the location as given is set to reflect the dominant Western MIA characteristics of Pāli. It is set here at Ujjain, historical capital of Avanti, realm associated with Pāli (Warder, A. K. Indian Buddhism. 2000). For further discussion cf. Norman, K. R. 2002. ""Pāli and the languages of early Buddhism"" In Indo-Iranian Languages and Peoples, ed. by N. Sims-Williams, 135-50. Oxford: Oxford University Press."
208,162,51741,3,33,pli,6981,3800,1,Pali,Pali,,NA,NA,5,Martin Kümmel,FALSE,pali1273,6,1,0,0,FALSE,FALSE,NA,http://dsalsrv02.uchicago.edu/cgi-bin/philologic/search3advanced?dbname=pali&searchdomain=headwords&matchtype=start&display=utf8&query=,NA,NA,,15,8,0,0,0,NA,Pali,TRUE,FALSE,N,NA,NA,NA,2450,75,NA,NA,23.18,75.78,FALSE,FALSE,FALSE,"It is difficult to give an exact original location for Pāli, but the location as given is set to reflect the dominant Western MIA characteristics of Pāli. It is set here at Ujjain, historical capital of Avanti, realm associated with Pāli (Warder, A. K. Indian Buddhism. 2000). For further discussion cf. Norman, K. R. 2002. ""Pāli and the languages of early Buddhism"" In Indo-Iranian Languages and Peoples, ed. by N. Sims-Williams, 135-50. Oxford: Oxford University Press."
272,219,51768,2,24,phl,5520,1200,1,Palula,Palula,The best described variety and the ’standard for ongoing orthography development. ,NA,NA,5,Henrik Liljegren,FALSE,ashr1238,6,1,0,0,FALSE,FALSE,NA,,NA,NA,"Southern Palula (Ashreti), one of two main dialects",80,0,0,0,0,NA,Palula,FALSE,FALSE,_,NA,NA,NA,NA,NA,NA,NA,35.434,71.751,FALSE,FALSE,FALSE,"Set on Ashret (Chitral district), the largest Palula settlement and home of the main language consultant for these IE-CoR data."
271,219,51767,3,33,phl,6981,1200,1,Palula,Palula,The best described variety and the ’standard for ongoing orthography development. ,NA,NA,5,Henrik Liljegren,FALSE,ashr1238,6,1,0,0,FALSE,FALSE,NA,,NA,NA,"Southern Palula (Ashreti), one of two main dialects",80,0,0,0,0,NA,Palula,FALSE,FALSE,_,NA,NA,NA,NA,NA,NA,NA,35.434,71.751,FALSE,FALSE,FALSE,"Set on Ashret (Chitral district), the largest Palula settlement and home of the main language consultant for these IE-CoR data."
228,179,51822,2,23,xpr,5520,2600,0.91,Parthian,Parthian,"Middle Northwestern Iranian language, attested parallel to Middle Persian in Manichaean texts. A very restricted  corpus of older inscriptions from Iran also exist. Early Parthian (or related languages) were the main source for Middle Iranian loanwords in Armenian.Phonologization follows Durkin-Meisterernst 2004, except for <c>,<ž> and <j>, whereI have applied the findings of Korn 2010 (Bulletin of SOAS, 73/3, 415–436), i.e. <c>=<z> = /č/, <j> = /ž/ [ʒ ~ dʒ]",NA,NA,5,Martin Kümmel,FALSE,part1239,6,3,0,0,FALSE,FALSE,NA,,NA,NA,,60,7,0,0,0,NA,Parthian,TRUE,FALSE,N,NA,NA,NA,2100,150,NA,NA,37.95,58.2,FALSE,FALSE,FALSE,"Set on modern-day Nisa, Turkmenistan, an archaeological site of a fortress associated with Arsaces I (r. 247–217 BCE), the first king of Parthia and the founder of the Arsacid dynasty."
227,179,51821,3,33,xpr,6981,2600,0.91,Parthian,Parthian,"Middle Northwestern Iranian language, attested parallel to Middle Persian in Manichaean texts. A very restricted  corpus of older inscriptions from Iran also exist. Early Parthian (or related languages) were the main source for Middle Iranian loanwords in Armenian.Phonologization follows Durkin-Meisterernst 2004, except for <c>,<ž> and <j>, whereI have applied the findings of Korn 2010 (Bulletin of SOAS, 73/3, 415–436), i.e. <c>=<z> = /č/, <j> = /ž/ [ʒ ~ dʒ]",NA,NA,5,Martin Kümmel,FALSE,part1239,6,3,0,0,FALSE,FALSE,NA,,NA,NA,,60,7,0,0,0,NA,Parthian,TRUE,FALSE,N,NA,NA,NA,2100,150,NA,NA,37.95,58.2,FALSE,FALSE,FALSE,"Set on modern-day Nisa, Turkmenistan, an archaeological site of a fortress associated with Arsaces I (r. 247–217 BCE), the first king of Parthia and the founder of the Arsacid dynasty."
388,293,51774,2,24,glh,5520,2250,0.59,PashaiNorthWest,Pashai: North-West,"Pashai forms a large and messy dialect continuum, and any dialect/language division is prone to oversimplification. The present division of Pashai into north-west, south-west, north-east and south-east  is based on Morgenstierne (1967), but there are numerous sub-divisions that complicate the picture.",NA,NA,2,Henrik Liljegren,FALSE,nort2665,6,1,0,0,FALSE,FALSE,NA,,NA,NA,North-western Pashai as spoken in Dawlat Shah,88,0,0,0,0,NA,,FALSE,FALSE,_,NA,NA,NA,NA,NA,NA,NA,34.96,70.055,FALSE,FALSE,FALSE,"Set on Dawlat Shah (Laghman province), the home of the main language consultant for these IE-CoR data."
387,293,51773,3,33,glh,6981,2250,0.59,PashaiNorthWest,Pashai: North-West,"Pashai forms a large and messy dialect continuum, and any dialect/language division is prone to oversimplification. The present division of Pashai into north-west, south-west, north-east and south-east  is based on Morgenstierne (1967), but there are numerous sub-divisions that complicate the picture.",NA,NA,2,Henrik Liljegren,FALSE,nort2665,6,1,0,0,FALSE,FALSE,NA,,NA,NA,North-western Pashai as spoken in Dawlat Shah,88,0,0,0,0,NA,,FALSE,FALSE,_,NA,NA,NA,NA,NA,NA,NA,34.96,70.055,FALSE,FALSE,FALSE,"Set on Dawlat Shah (Laghman province), the home of the main language consultant for these IE-CoR data."
386,292,51812,2,23,pbu,5520,2550,0.63,Pashto,Pashto,,NA,NA,5,Muhammad Kamal Khan,FALSE,yusu1238,6,3,0,0,FALSE,FALSE,NA,,NA,NA,Yusufzai,27,0,0,0,0,NA,,FALSE,FALSE,_,NA,NA,NA,NA,NA,NA,NA,34.12,72.46,FALSE,FALSE,FALSE,"Provenance of primary coder near Swabi in Khyber Pakhtunkhwa province, Pakistan."
385,292,51811,3,33,pbu,6981,2550,0.63,Pashto,Pashto,,NA,NA,5,Muhammad Kamal Khan,FALSE,yusu1238,6,3,0,0,FALSE,FALSE,NA,,NA,NA,Yusufzai,27,0,0,0,0,NA,,FALSE,FALSE,_,NA,NA,NA,NA,NA,NA,NA,34.12,72.46,FALSE,FALSE,FALSE,"Provenance of primary coder near Swabi in Khyber Pakhtunkhwa province, Pakistan."
76,54,51846,2,23,pes,5520,750,0.38,PersianTehran,Persian: Tehran,,NA,NA,5,Arash Zeini,FALSE,west2369,6,3,0,0,FALSE,FALSE,NA,http://parsi.wiki/dehkhodasearchresult-fa.html?searchtype=0&word=,NA,NA,,82,7,0,0,0,NA,Persian,FALSE,FALSE,_,NA,NA,NA,NA,NA,NA,NA,35.7,51.4,FALSE,FALSE,FALSE,"City of Tehran, capital of modern Iran"
75,54,51845,3,33,pes,6981,750,0.38,PersianTehran,Persian: Tehran,,NA,NA,5,Arash Zeini,FALSE,west2369,6,3,0,0,FALSE,FALSE,NA,http://parsi.wiki/dehkhodasearchresult-fa.html?searchtype=0&word=,NA,NA,,82,7,0,0,0,NA,Persian,FALSE,FALSE,_,NA,NA,NA,NA,NA,NA,NA,35.7,51.4,FALSE,FALSE,FALSE,"City of Tehran, capital of modern Iran"
220,176,51916,3,11,pox,3663,650,1,Polabian,Polabian,Extinct West Slavic language documented in a few sources from the turn of the 17th to 18th centuries AD,NA,NA,5,Lechosław Jocz,FALSE,pola1255,7,2,2,0,FALSE,FALSE,NA,,NA,NA,,78,3,2,0,0,NA,Polabian,TRUE,FALSE,N,NA,NA,NA,320,20,NA,NA,52.94,11.13,FALSE,FALSE,FALSE,"Set in Klennow (near Wustrow), the home village of the main informant for the richest available documentation of Polabian, by Christian Hennig von Jessen.  For details, see Polański & Sehnert (1967: 15)."
221,176,51917,2,12,pox,3663,650,1,Polabian,Polabian,Extinct West Slavic language documented in a few sources from the turn of the 17th to 18th centuries AD,NA,NA,5,Lechosław Jocz,FALSE,pola1255,7,2,2,0,FALSE,FALSE,NA,,NA,NA,,78,3,2,0,0,NA,Polabian,TRUE,FALSE,N,NA,NA,NA,320,20,NA,NA,52.94,11.13,FALSE,FALSE,FALSE,"Set in Klennow (near Wustrow), the home village of the main informant for the richest available documentation of Polabian, by Christian Hennig von Jessen.  For details, see Polański & Sehnert (1967: 15)."
222,176,51918,1,46,pox,3663,650,1,Polabian,Polabian,Extinct West Slavic language documented in a few sources from the turn of the 17th to 18th centuries AD,NA,NA,5,Lechosław Jocz,FALSE,pola1255,7,2,2,0,FALSE,FALSE,NA,,NA,NA,,78,3,2,0,0,NA,Polabian,TRUE,FALSE,N,NA,NA,NA,320,20,NA,NA,52.94,11.13,FALSE,FALSE,FALSE,"Set in Klennow (near Wustrow), the home village of the main informant for the richest available documentation of Polabian, by Christian Hennig von Jessen.  For details, see Polański & Sehnert (1967: 15)."
77,55,51910,3,11,pol,3663,400,1,Polish,Polish,Standard Polish,NA,NA,5,Lechosław Jocz,FALSE,poli1260,7,2,2,0,FALSE,FALSE,NA,http://sjp.pwn.pl/szukaj/,NA,NA,Standard,71,3,2,0,0,NA,Polish,FALSE,FALSE,_,NA,NA,NA,NA,NA,NA,NA,52.23,21.01,TRUE,FALSE,FALSE,"Set on Warsaw, as the current capital of Poland"
78,55,51911,2,12,pol,3663,400,1,Polish,Polish,Standard Polish,NA,NA,5,Lechosław Jocz,FALSE,poli1260,7,2,2,0,FALSE,FALSE,NA,http://sjp.pwn.pl/szukaj/,NA,NA,Standard,71,3,2,0,0,NA,Polish,FALSE,FALSE,_,NA,NA,NA,NA,NA,NA,NA,52.23,21.01,TRUE,FALSE,FALSE,"Set on Warsaw, as the current capital of Poland"
79,55,51912,1,46,pol,3663,400,1,Polish,Polish,Standard Polish,NA,NA,5,Lechosław Jocz,FALSE,poli1260,7,2,2,0,FALSE,FALSE,NA,http://sjp.pwn.pl/szukaj/,NA,NA,Standard,71,3,2,0,0,NA,Polish,FALSE,FALSE,_,NA,NA,NA,NA,NA,NA,NA,52.23,21.01,TRUE,FALSE,FALSE,"Set on Warsaw, as the current capital of Poland"
80,56,52094,3,5,por,5564,950,1,Portuguese,Portuguese,,NA,NA,5,Kim Schulte,FALSE,port1283,9,1,1,0,FALSE,FALSE,NA,,NA,NA,Standard European Portuguese.,94,2,1,0,0,NA,Portuguese,FALSE,FALSE,_,NA,NA,NA,NA,NA,NA,NA,40.2,-8.4,FALSE,FALSE,FALSE,"Set in Coimbra, in the area between Figueria da Foz and Guarda, popularly considered to be where “the best” Portuguese is spoken.  In particular, Coimbra, as home to the oldest and most venerable university in Portugal, plays an important role in establishing what is accepted in the standard language. "
82,56,52096,1,34,por,5564,950,1,Portuguese,Portuguese,,NA,NA,5,Kim Schulte,FALSE,port1283,9,1,1,0,FALSE,FALSE,NA,,NA,NA,Standard European Portuguese.,94,2,1,0,0,NA,Portuguese,FALSE,FALSE,_,NA,NA,NA,NA,NA,NA,NA,40.2,-8.4,FALSE,FALSE,FALSE,"Set in Coimbra, in the area between Figueria da Foz and Guarda, popularly considered to be where “the best” Portuguese is spoken.  In particular, Coimbra, as home to the oldest and most venerable university in Portugal, plays an important role in establishing what is accepted in the standard language. "
81,56,52095,2,51,por,5564,950,1,Portuguese,Portuguese,,NA,NA,5,Kim Schulte,FALSE,port1283,9,1,1,0,FALSE,FALSE,NA,,NA,NA,Standard European Portuguese.,94,2,1,0,0,NA,Portuguese,FALSE,FALSE,_,NA,NA,NA,NA,NA,NA,NA,40.2,-8.4,FALSE,FALSE,FALSE,"Set in Coimbra, in the area between Figueria da Foz and Guarda, popularly considered to be where “the best” Portuguese is spoken.  In particular, Coimbra, as home to the oldest and most venerable university in Portugal, plays an important role in establishing what is accepted in the standard language. "
417,305,52097,3,5,por,5564,50,1,PortugueseBrazilian,Portuguese: Brazilian,,NA,NA,4,Tiago Tresoldi,FALSE,braz1246,9,1,1,0,FALSE,FALSE,NA,,NA,NA,,96,0,0,0,0,NA,,FALSE,FALSE,_,NA,NA,NA,NA,NA,NA,NA,38,-10.5,FALSE,FALSE,FALSE,"Set in Atlantic just off Portugal, to keep the IE-CoR map zoomed in on Eurasia"
419,305,52099,1,34,por,5564,50,1,PortugueseBrazilian,Portuguese: Brazilian,,NA,NA,4,Tiago Tresoldi,FALSE,braz1246,9,1,1,0,FALSE,FALSE,NA,,NA,NA,,96,0,0,0,0,NA,,FALSE,FALSE,_,NA,NA,NA,NA,NA,NA,NA,38,-10.5,FALSE,FALSE,FALSE,"Set in Atlantic just off Portugal, to keep the IE-CoR map zoomed in on Eurasia"
418,305,52098,2,51,por,5564,50,1,PortugueseBrazilian,Portuguese: Brazilian,,NA,NA,4,Tiago Tresoldi,FALSE,braz1246,9,1,1,0,FALSE,FALSE,NA,,NA,NA,,96,0,0,0,0,NA,,FALSE,FALSE,_,NA,NA,NA,NA,NA,NA,NA,38,-10.5,FALSE,FALSE,FALSE,"Set in Atlantic just off Portugal, to keep the IE-CoR map zoomed in on Eurasia"
344,266,51762,2,24,pan,5520,400,1,Punjabi,Punjabi,"Punjabi:  one of the major languages of Pakistan, as well as one of the 22 recognized languages of India, and an official language of the Indian state of Punjab.",NA,NA,5,Liudmila Khokhlova,FALSE,panj1256,6,1,0,0,FALSE,FALSE,NA,,NA,NA,Indian Punjabi,66,0,0,0,0,NA,,FALSE,FALSE,_,NA,NA,NA,NA,NA,NA,NA,31.633,74.872,FALSE,FALSE,FALSE,"Set on Amritsar, state of Punjab, India"
343,266,51761,3,33,pan,6981,400,1,Punjabi,Punjabi,"Punjabi:  one of the major languages of Pakistan, as well as one of the 22 recognized languages of India, and an official language of the Indian state of Punjab.",NA,NA,5,Liudmila Khokhlova,FALSE,panj1256,6,1,0,0,FALSE,FALSE,NA,,NA,NA,Indian Punjabi,66,0,0,0,0,NA,,FALSE,FALSE,_,NA,NA,NA,NA,NA,NA,NA,31.633,74.872,FALSE,FALSE,FALSE,"Set on Amritsar, state of Punjab, India"
384,291,51834,2,23,,5520,750,1,RajiBarzoki,Raji: Barzoki,,NA,NA,5,Mahnaz Talebi and Erik Anonby,FALSE,cent2264,6,3,0,0,FALSE,FALSE,NA,,NA,NA,,72,0,0,0,0,NA,,FALSE,FALSE,_,NA,NA,NA,NA,NA,NA,NA,33.79,51.22,FALSE,FALSE,FALSE,"These are the coordinates for the town of Barzok, where the language data were collected."
383,291,51833,3,33,,6981,750,1,RajiBarzoki,Raji: Barzoki,,NA,NA,5,Mahnaz Talebi and Erik Anonby,FALSE,cent2264,6,3,0,0,FALSE,FALSE,NA,,NA,NA,,72,0,0,0,0,NA,,FALSE,FALSE,_,NA,NA,NA,NA,NA,NA,NA,33.79,51.22,FALSE,FALSE,FALSE,"These are the coordinates for the town of Barzok, where the language data were collected."
86,59,52034,3,5,ron,5564,850,1,Romanian,Romanian,,NA,NA,5,Kim Schulte,FALSE,roma1327,9,1,1,0,FALSE,FALSE,NA,https://dexonline.ro/definitie/,NA,NA,,23,2,5,0,0,NA,Romanian,FALSE,FALSE,_,NA,NA,NA,NA,NA,NA,NA,45.45,25.46,FALSE,FALSE,FALSE,"Set in the Carpathians (the Bucegi mountains south of Brașov), as the transition between southern and Transylvanian dialects of Romanian. "
88,59,52036,1,34,ron,5564,850,1,Romanian,Romanian,,NA,NA,5,Kim Schulte,FALSE,roma1327,9,1,1,0,FALSE,FALSE,NA,https://dexonline.ro/definitie/,NA,NA,,23,2,5,0,0,NA,Romanian,FALSE,FALSE,_,NA,NA,NA,NA,NA,NA,NA,45.45,25.46,FALSE,FALSE,FALSE,"Set in the Carpathians (the Bucegi mountains south of Brașov), as the transition between southern and Transylvanian dialects of Romanian. "
87,59,52035,2,51,ron,5564,850,1,Romanian,Romanian,,NA,NA,5,Kim Schulte,FALSE,roma1327,9,1,1,0,FALSE,FALSE,NA,https://dexonline.ro/definitie/,NA,NA,,23,2,5,0,0,NA,Romanian,FALSE,FALSE,_,NA,NA,NA,NA,NA,NA,NA,45.45,25.46,FALSE,FALSE,FALSE,"Set in the Carpathians (the Bucegi mountains south of Brașov), as the transition between southern and Transylvanian dialects of Romanian. "
89,60,51937,3,11,rus,3663,700,1,Russian,Russian,Standard Russian,NA,NA,5,Lechosław Jocz,FALSE,russ1263,7,2,3,0,FALSE,FALSE,NA,http://gramota.ru/slovari/dic/?all=x&word=,NA,NA,Standard,50,3,1,0,0,NA,Russian,FALSE,FALSE,_,NA,NA,NA,NA,NA,NA,NA,55.75,37.62,TRUE,FALSE,FALSE,"Set on Moscow, as the capital of Russia"
90,60,51938,2,12,rus,3663,700,1,Russian,Russian,Standard Russian,NA,NA,5,Lechosław Jocz,FALSE,russ1263,7,2,3,0,FALSE,FALSE,NA,http://gramota.ru/slovari/dic/?all=x&word=,NA,NA,Standard,50,3,1,0,0,NA,Russian,FALSE,FALSE,_,NA,NA,NA,NA,NA,NA,NA,55.75,37.62,TRUE,FALSE,FALSE,"Set on Moscow, as the capital of Russia"
91,60,51939,1,47,rus,3663,700,1,Russian,Russian,Standard Russian,NA,NA,5,Lechosław Jocz,FALSE,russ1263,7,2,3,0,FALSE,FALSE,NA,http://gramota.ru/slovari/dic/?all=x&word=,NA,NA,Standard,50,3,1,0,0,NA,Russian,FALSE,FALSE,_,NA,NA,NA,NA,NA,NA,NA,55.75,37.62,TRUE,FALSE,FALSE,"Set on Moscow, as the capital of Russia"
309,249,51946,3,11,rue,3663,750,1,Rusyn,Rusyn,"East Slavic minority language spoken in the Carpathians and surrounding regions, showing (depending on the particular dialect) admixtures of West and South Slavic features. Rusyn as spoken in Toruń (Transcarpathian Ukraine) and documented by Nikolaev & Tolstaâ (2001)",NA,NA,5,Lechosław Jocz,FALSE,rusy1239,7,2,3,0,FALSE,FALSE,NA,,NA,NA,Toruń dialect (Transcarpathian Ukraine),63,0,0,0,0,NA,,FALSE,FALSE,_,NA,NA,NA,NA,NA,NA,NA,48.67,23.6,FALSE,FALSE,FALSE,Set on the village of Toruń in the Transcarpathia (Zakarpattia) province of Ukraine
310,249,51947,2,12,rue,3663,750,1,Rusyn,Rusyn,"East Slavic minority language spoken in the Carpathians and surrounding regions, showing (depending on the particular dialect) admixtures of West and South Slavic features. Rusyn as spoken in Toruń (Transcarpathian Ukraine) and documented by Nikolaev & Tolstaâ (2001)",NA,NA,5,Lechosław Jocz,FALSE,rusy1239,7,2,3,0,FALSE,FALSE,NA,,NA,NA,Toruń dialect (Transcarpathian Ukraine),63,0,0,0,0,NA,,FALSE,FALSE,_,NA,NA,NA,NA,NA,NA,NA,48.67,23.6,FALSE,FALSE,FALSE,Set on the village of Toruń in the Transcarpathia (Zakarpattia) province of Ukraine
311,249,51948,1,47,rue,3663,750,1,Rusyn,Rusyn,"East Slavic minority language spoken in the Carpathians and surrounding regions, showing (depending on the particular dialect) admixtures of West and South Slavic features. Rusyn as spoken in Toruń (Transcarpathian Ukraine) and documented by Nikolaev & Tolstaâ (2001)",NA,NA,5,Lechosław Jocz,FALSE,rusy1239,7,2,3,0,FALSE,FALSE,NA,,NA,NA,Toruń dialect (Transcarpathian Ukraine),63,0,0,0,0,NA,,FALSE,FALSE,_,NA,NA,NA,NA,NA,NA,NA,48.67,23.6,FALSE,FALSE,FALSE,Set on the village of Toruń in the Transcarpathia (Zakarpattia) province of Ukraine
436,317,51798,2,27,ask,6981,,,SanuviriWama,Saṇu-viri: Wâmâ,"Âṣkuṇu-Saṇu-viri comprises the dialects of three ethnic groups that inhabit portions of upper Laghmân and across the watershed in the middle Pech Valley.  Saṇu-viri is the dialect of the Saṇu people, centered on the village of Wâmâ in the Pech.  Âṣkuṇu-Saṇu-viri has been called ""Ashkun"" in previous literature, after the Âṣkuṇu people of upper Laghmân.",NA,NA,5,Richard Strand,FALSE,ashk1246,6,2,0,0,FALSE,FALSE,NA,,NA,NA,"Saṇu-viri, the dialect of Âṣkuṇu-Saṇu-viri spoken in Wâmâ.",50,0,0,0,0,NA,,FALSE,FALSE,_,NA,NA,NA,NA,NA,NA,NA,35.124,70.751,FALSE,FALSE,FALSE,"Location of the main community, Wâmâ (Sâma)."
435,317,51797,3,33,ask,6981,,,SanuviriWama,Saṇu-viri: Wâmâ,"Âṣkuṇu-Saṇu-viri comprises the dialects of three ethnic groups that inhabit portions of upper Laghmân and across the watershed in the middle Pech Valley.  Saṇu-viri is the dialect of the Saṇu people, centered on the village of Wâmâ in the Pech.  Âṣkuṇu-Saṇu-viri has been called ""Ashkun"" in previous literature, after the Âṣkuṇu people of upper Laghmân.",NA,NA,5,Richard Strand,FALSE,ashk1246,6,2,0,0,FALSE,FALSE,NA,,NA,NA,"Saṇu-viri, the dialect of Âṣkuṇu-Saṇu-viri spoken in Wâmâ.",50,0,0,0,0,NA,,FALSE,FALSE,_,NA,NA,NA,NA,NA,NA,NA,35.124,70.751,FALSE,FALSE,FALSE,"Location of the main community, Wâmâ (Sâma)."
266,215,51796,2,27,ask,6981,,,SanuViriWama_Legacy,Saṇu-viri: Wâmâ_Legacy,"Âṣkuṇu-Saṇu-viri comprises the dialects of three ethnic groups that inhabit portions of upper Laghmân and across the watershed in the middle Pech Valley.  Saṇu-viri is the dialect of the Saṇu people, centered on the village of Wâmâ in the Pech.  Âṣkuṇu-Saṇu-viri has been called ""Ashkun"" in previous literature, after the Âṣkuṇu people of upper Laghmân.",NA,NA,5,Richard Strand,FALSE,suru1257,6,2,0,0,FALSE,FALSE,NA,,NA,NA,"Saṇu-viri, the dialect of Âṣkuṇu-Saṇu-viri spoken in Wâmâ.",50,0,0,0,0,NA,Sanu-viriWama,FALSE,TRUE,_,NA,NA,NA,NA,NA,NA,NA,35.124,70.751,FALSE,FALSE,FALSE,"Location of the main community, Wâmâ (Sâma)."
265,215,51795,3,33,ask,6981,,,SanuViriWama_Legacy,Saṇu-viri: Wâmâ_Legacy,"Âṣkuṇu-Saṇu-viri comprises the dialects of three ethnic groups that inhabit portions of upper Laghmân and across the watershed in the middle Pech Valley.  Saṇu-viri is the dialect of the Saṇu people, centered on the village of Wâmâ in the Pech.  Âṣkuṇu-Saṇu-viri has been called ""Ashkun"" in previous literature, after the Âṣkuṇu people of upper Laghmân.",NA,NA,5,Richard Strand,FALSE,suru1257,6,2,0,0,FALSE,FALSE,NA,,NA,NA,"Saṇu-viri, the dialect of Âṣkuṇu-Saṇu-viri spoken in Wâmâ.",50,0,0,0,0,NA,Sanu-viriWama,FALSE,TRUE,_,NA,NA,NA,NA,NA,NA,NA,35.124,70.751,FALSE,FALSE,FALSE,"Location of the main community, Wâmâ (Sâma)."
92,62,52061,3,5,src,5564,550,1,SardinianLogudoro,Sardinian: Logudoro,Logudorese dialect,NA,NA,5,Simone Loi,FALSE,nuor1238,9,1,1,0,FALSE,FALSE,NA,,NA,NA,Logudorese dialect,57,2,4,0,0,NA,Sardinian_Logudoro,FALSE,FALSE,_,NA,NA,NA,NA,NA,NA,NA,40.5,8.85,FALSE,FALSE,FALSE,Set roughly in the geographical centre of the Logudoro-speaking area.
94,62,52063,1,34,src,5564,550,1,SardinianLogudoro,Sardinian: Logudoro,Logudorese dialect,NA,NA,5,Simone Loi,FALSE,nuor1238,9,1,1,0,FALSE,FALSE,NA,,NA,NA,Logudorese dialect,57,2,4,0,0,NA,Sardinian_Logudoro,FALSE,FALSE,_,NA,NA,NA,NA,NA,NA,NA,40.5,8.85,FALSE,FALSE,FALSE,Set roughly in the geographical centre of the Logudoro-speaking area.
93,62,52062,2,51,src,5564,550,1,SardinianLogudoro,Sardinian: Logudoro,Logudorese dialect,NA,NA,5,Simone Loi,FALSE,nuor1238,9,1,1,0,FALSE,FALSE,NA,,NA,NA,Logudorese dialect,57,2,4,0,0,NA,Sardinian_Logudoro,FALSE,FALSE,_,NA,NA,NA,NA,NA,NA,NA,40.5,8.85,FALSE,FALSE,FALSE,Set roughly in the geographical centre of the Logudoro-speaking area.
95,63,52058,3,5,src,5564,550,1,SardinianNuoro,Sardinian: Nuoro,Nuorese (Bitti) dialect (a conservative variety of Logudorese),NA,NA,5,Simone Loi,FALSE,logu1236,9,1,1,0,FALSE,FALSE,NA,,NA,NA,Nuorese (Bitti) dialect (a conservative variety of Logudorese),55,2,4,0,0,NA,Sardinian_Nuoro,FALSE,FALSE,_,NA,NA,NA,NA,NA,NA,NA,40.475,9.382,FALSE,FALSE,FALSE,"Set on the town of Bitti (Bitzi), the dialect used for the IE-CoR data for Nuoro Sardinian."
97,63,52060,1,34,src,5564,550,1,SardinianNuoro,Sardinian: Nuoro,Nuorese (Bitti) dialect (a conservative variety of Logudorese),NA,NA,5,Simone Loi,FALSE,logu1236,9,1,1,0,FALSE,FALSE,NA,,NA,NA,Nuorese (Bitti) dialect (a conservative variety of Logudorese),55,2,4,0,0,NA,Sardinian_Nuoro,FALSE,FALSE,_,NA,NA,NA,NA,NA,NA,NA,40.475,9.382,FALSE,FALSE,FALSE,"Set on the town of Bitti (Bitzi), the dialect used for the IE-CoR data for Nuoro Sardinian."
96,63,52059,2,51,src,5564,550,1,SardinianNuoro,Sardinian: Nuoro,Nuorese (Bitti) dialect (a conservative variety of Logudorese),NA,NA,5,Simone Loi,FALSE,logu1236,9,1,1,0,FALSE,FALSE,NA,,NA,NA,Nuorese (Bitti) dialect (a conservative variety of Logudorese),55,2,4,0,0,NA,Sardinian_Nuoro,FALSE,FALSE,_,NA,NA,NA,NA,NA,NA,NA,40.475,9.382,FALSE,FALSE,FALSE,"Set on the town of Bitti (Bitzi), the dialect used for the IE-CoR data for Nuoro Sardinian."
393,296,51816,2,23,srh,5520,1550,1,Sarikoli,Sarikoli,,NA,NA,5,Deborah Kim and Timothy Palmer,FALSE,sari1246,6,3,0,0,FALSE,FALSE,NA,,NA,NA,,30,0,0,0,0,NA,,FALSE,FALSE,_,NA,NA,NA,NA,NA,NA,NA,37.77,75.23,FALSE,FALSE,FALSE,"Location of the county seat of the Tashkorgan Tajik Autonomous County, main urban centre where Sarikoli is spoken."
392,296,51815,3,33,srh,6981,1550,1,Sarikoli,Sarikoli,,NA,NA,5,Deborah Kim and Timothy Palmer,FALSE,sari1246,6,3,0,0,FALSE,FALSE,NA,,NA,NA,,30,0,0,0,0,NA,,FALSE,FALSE,_,NA,NA,NA,NA,NA,NA,NA,37.77,75.23,FALSE,FALSE,FALSE,"Location of the county seat of the Tashkorgan Tajik Autonomous County, main urban centre where Sarikoli is spoken."
123,95,51886,3,11,hrv,3663,800,1,SerboCroatian,Serbo-Croat,"Standard Serbo-Croat, with transcriptions in Ijekavian pronunciation",NA,NA,5,Lechosław Jocz,FALSE,croa1245,7,2,1,0,FALSE,FALSE,NA,http://hjp.znanje.hr/index.php?show=search_by_id&id=,NA,NA,Standard,30,3,3,0,0,NA,Serbo-Croatian,FALSE,FALSE,_,NA,NA,NA,NA,NA,NA,NA,44.82,20.47,FALSE,FALSE,FALSE,"Set on Belgrade, as the capital  of Serbia"
124,95,51887,2,12,hrv,3663,800,1,SerboCroatian,Serbo-Croat,"Standard Serbo-Croat, with transcriptions in Ijekavian pronunciation",NA,NA,5,Lechosław Jocz,FALSE,croa1245,7,2,1,0,FALSE,FALSE,NA,http://hjp.znanje.hr/index.php?show=search_by_id&id=,NA,NA,Standard,30,3,3,0,0,NA,Serbo-Croatian,FALSE,FALSE,_,NA,NA,NA,NA,NA,NA,NA,44.82,20.47,FALSE,FALSE,FALSE,"Set on Belgrade, as the capital  of Serbia"
125,95,51888,1,45,hrv,3663,800,1,SerboCroatian,Serbo-Croat,"Standard Serbo-Croat, with transcriptions in Ijekavian pronunciation",NA,NA,5,Lechosław Jocz,FALSE,croa1245,7,2,1,0,FALSE,FALSE,NA,http://hjp.znanje.hr/index.php?show=search_by_id&id=,NA,NA,Standard,30,3,3,0,0,NA,Serbo-Croatian,FALSE,FALSE,_,NA,NA,NA,NA,NA,NA,NA,44.82,20.47,FALSE,FALSE,FALSE,"Set on Belgrade, as the capital  of Serbia"
99,65,51744,2,24,sin,5520,3050,1,Sinhalese,Sinhalese,,NA,NA,5,Roland Pooth,FALSE,sinh1246,6,1,0,0,FALSE,FALSE,NA,http://dsalsrv02.uchicago.edu/cgi-bin/philologic/search3advanced?dbname=carter&matchtype=exact&query=,NA,NA,,20,8,0,0,0,NA,Sinhalese,FALSE,FALSE,_,NA,NA,NA,NA,NA,NA,NA,6.93,79.86,FALSE,FALSE,FALSE,"Set on Colombo, the capital of Sri Lanka and the cultural centre of the country, where standard Sinhala is a primary language."
98,65,51743,3,33,sin,6981,3050,1,Sinhalese,Sinhalese,,NA,NA,5,Roland Pooth,FALSE,sinh1246,6,1,0,0,FALSE,FALSE,NA,http://dsalsrv02.uchicago.edu/cgi-bin/philologic/search3advanced?dbname=carter&matchtype=exact&query=,NA,NA,,20,8,0,0,0,NA,Sinhalese,FALSE,FALSE,_,NA,NA,NA,NA,NA,NA,NA,6.93,79.86,FALSE,FALSE,FALSE,"Set on Colombo, the capital of Sri Lanka and the cultural centre of the country, where standard Sinhala is a primary language."
100,66,51919,3,11,slk,3663,400,0.99,Slovak,Slovak,Standard Slovak,NA,NA,5,Lechosław Jocz,FALSE,slov1269,7,2,2,0,FALSE,FALSE,NA,http://slovnik.azet.sk/pravopis/?q=,NA,NA,Standard,80,3,2,0,0,NA,Slovak,FALSE,FALSE,_,NA,NA,NA,NA,NA,NA,NA,48.15,17.11,FALSE,FALSE,FALSE,"Set on Bratislava, as the capital of Slovakia"
101,66,51920,2,12,slk,3663,400,0.99,Slovak,Slovak,Standard Slovak,NA,NA,5,Lechosław Jocz,FALSE,slov1269,7,2,2,0,FALSE,FALSE,NA,http://slovnik.azet.sk/pravopis/?q=,NA,NA,Standard,80,3,2,0,0,NA,Slovak,FALSE,FALSE,_,NA,NA,NA,NA,NA,NA,NA,48.15,17.11,FALSE,FALSE,FALSE,"Set on Bratislava, as the capital of Slovakia"
102,66,51921,1,46,slk,3663,400,0.99,Slovak,Slovak,Standard Slovak,NA,NA,5,Lechosław Jocz,FALSE,slov1269,7,2,2,0,FALSE,FALSE,NA,http://slovnik.azet.sk/pravopis/?q=,NA,NA,Standard,80,3,2,0,0,NA,Slovak,FALSE,FALSE,_,NA,NA,NA,NA,NA,NA,NA,48.15,17.11,FALSE,FALSE,FALSE,"Set on Bratislava, as the capital of Slovakia"
126,97,51901,3,11,slv,3663,150,0.99,Slovene,Slovene,Standard Slovenian,NA,NA,5,Lechosław Jocz,FALSE,slov1268,7,2,1,0,FALSE,FALSE,NA,http://www.fran.si/193/marko-snoj-slovenski-etimoloski-slovar/,NA,NA,Standard,40,3,3,0,0,NA,Slovenian,FALSE,FALSE,_,NA,NA,NA,NA,NA,NA,NA,46.06,14.51,FALSE,FALSE,FALSE,"Set on Ljubljana, as the capital of Slovenia"
127,97,51902,2,12,slv,3663,150,0.99,Slovene,Slovene,Standard Slovenian,NA,NA,5,Lechosław Jocz,FALSE,slov1268,7,2,1,0,FALSE,FALSE,NA,http://www.fran.si/193/marko-snoj-slovenski-etimoloski-slovar/,NA,NA,Standard,40,3,3,0,0,NA,Slovenian,FALSE,FALSE,_,NA,NA,NA,NA,NA,NA,NA,46.06,14.51,FALSE,FALSE,FALSE,"Set on Ljubljana, as the capital of Slovenia"
128,97,51903,1,45,slv,3663,150,0.99,Slovene,Slovene,Standard Slovenian,NA,NA,5,Lechosław Jocz,FALSE,slov1268,7,2,1,0,FALSE,FALSE,NA,http://www.fran.si/193/marko-snoj-slovenski-etimoloski-slovar/,NA,NA,Standard,40,3,3,0,0,NA,Slovenian,FALSE,FALSE,_,NA,NA,NA,NA,NA,NA,NA,46.06,14.51,FALSE,FALSE,FALSE,"Set on Ljubljana, as the capital of Slovenia"
329,259,51898,3,11,slv,3663,500,1,SloveneEarlyModern,Slovene: Early Modern,Based on the dictionary of Kastelec & Vorenc from 1680-1710 (Stabej 1997),NA,NA,5,Lechosław Jocz,FALSE,slov1268,7,2,1,0,FALSE,FALSE,NA,,NA,NA,,38,0,0,0,0,NA,,TRUE,FALSE,N,NA,NA,NA,305,15,NA,NA,46.06,14.51,FALSE,FALSE,FALSE,"Set on Ljubljana, as the capital of Slovenia"
330,259,51899,2,12,slv,3663,500,1,SloveneEarlyModern,Slovene: Early Modern,Based on the dictionary of Kastelec & Vorenc from 1680-1710 (Stabej 1997),NA,NA,5,Lechosław Jocz,FALSE,slov1268,7,2,1,0,FALSE,FALSE,NA,,NA,NA,,38,0,0,0,0,NA,,TRUE,FALSE,N,NA,NA,NA,305,15,NA,NA,46.06,14.51,FALSE,FALSE,FALSE,"Set on Ljubljana, as the capital of Slovenia"
331,259,51900,1,45,slv,3663,500,1,SloveneEarlyModern,Slovene: Early Modern,Based on the dictionary of Kastelec & Vorenc from 1680-1710 (Stabej 1997),NA,NA,5,Lechosław Jocz,FALSE,slov1268,7,2,1,0,FALSE,FALSE,NA,,NA,NA,,38,0,0,0,0,NA,,TRUE,FALSE,N,NA,NA,NA,305,15,NA,NA,46.06,14.51,FALSE,FALSE,FALSE,"Set on Ljubljana, as the capital of Slovenia"
332,260,51904,3,11,slv,3663,150,0.99,SloveneKostel,Slovene: Kostel,Kostel dialect (belonging to the Lower Carniolan dialect group) as documented in the dictionary by Gregorič (2015),NA,NA,5,Lechosław Jocz,FALSE,lowe1384,7,2,1,0,FALSE,FALSE,NA,http://www.fran.si/197/joze-gregoric-kostelski-slovar/,NA,NA,Kostel dialect,42,0,0,0,0,NA,,FALSE,FALSE,_,NA,NA,NA,NA,NA,NA,NA,45.51,14.91,FALSE,FALSE,FALSE,"Set on the settlement of Kostel, the historical centre of the Lower Carniola region"
333,260,51905,2,12,slv,3663,150,0.99,SloveneKostel,Slovene: Kostel,Kostel dialect (belonging to the Lower Carniolan dialect group) as documented in the dictionary by Gregorič (2015),NA,NA,5,Lechosław Jocz,FALSE,lowe1384,7,2,1,0,FALSE,FALSE,NA,http://www.fran.si/197/joze-gregoric-kostelski-slovar/,NA,NA,Kostel dialect,42,0,0,0,0,NA,,FALSE,FALSE,_,NA,NA,NA,NA,NA,NA,NA,45.51,14.91,FALSE,FALSE,FALSE,"Set on the settlement of Kostel, the historical centre of the Lower Carniola region"
334,260,51906,1,45,slv,3663,150,0.99,SloveneKostel,Slovene: Kostel,Kostel dialect (belonging to the Lower Carniolan dialect group) as documented in the dictionary by Gregorič (2015),NA,NA,5,Lechosław Jocz,FALSE,lowe1384,7,2,1,0,FALSE,FALSE,NA,http://www.fran.si/197/joze-gregoric-kostelski-slovar/,NA,NA,Kostel dialect,42,0,0,0,0,NA,,FALSE,FALSE,_,NA,NA,NA,NA,NA,NA,NA,45.51,14.91,FALSE,FALSE,FALSE,"Set on the settlement of Kostel, the historical centre of the Lower Carniola region"
346,271,51808,2,23,sog,5520,2800,1,Sogdian,Sogdian,,NA,NA,5,Nicholas Sims-Williams,FALSE,sogd1245,6,3,0,0,FALSE,FALSE,NA,,NA,NA,,17,0,0,0,0,NA,,TRUE,FALSE,N,NA,NA,NA,1150,25,NA,NA,39.7,66.98,FALSE,FALSE,FALSE,"Set on Samarkand, one of the principal cities of ancient Sogdiana."
345,271,51807,3,33,sog,6981,2800,1,Sogdian,Sogdian,,NA,NA,5,Nicholas Sims-Williams,FALSE,sogd1245,6,3,0,0,FALSE,FALSE,NA,,NA,NA,,17,0,0,0,0,NA,,TRUE,FALSE,N,NA,NA,NA,1150,25,NA,NA,39.7,66.98,FALSE,FALSE,FALSE,"Set on Samarkand, one of the principal cities of ancient Sogdiana."
65,47,51931,3,11,dsb,3663,250,1,SorbianLower,Sorbian: Lower,West Slavic minority language spoken in eastern Germany,NA,NA,5,Lechosław Jocz,FALSE,lowe1385,7,2,2,0,FALSE,FALSE,NA,http://www.dolnoserbski.de/ndw/pokaz/Starosta/,NA,NA,Standard,95,3,2,0,0,NA,Sorbian_Lower,FALSE,FALSE,_,NA,NA,NA,NA,NA,NA,NA,51.77,14.33,FALSE,FALSE,FALSE,"Set on Chóśebuz (Cottbus), the historical capital of Lower Lusatia"
66,47,51932,2,12,dsb,3663,250,1,SorbianLower,Sorbian: Lower,West Slavic minority language spoken in eastern Germany,NA,NA,5,Lechosław Jocz,FALSE,lowe1385,7,2,2,0,FALSE,FALSE,NA,http://www.dolnoserbski.de/ndw/pokaz/Starosta/,NA,NA,Standard,95,3,2,0,0,NA,Sorbian_Lower,FALSE,FALSE,_,NA,NA,NA,NA,NA,NA,NA,51.77,14.33,FALSE,FALSE,FALSE,"Set on Chóśebuz (Cottbus), the historical capital of Lower Lusatia"
67,47,51933,1,46,dsb,3663,250,1,SorbianLower,Sorbian: Lower,West Slavic minority language spoken in eastern Germany,NA,NA,5,Lechosław Jocz,FALSE,lowe1385,7,2,2,0,FALSE,FALSE,NA,http://www.dolnoserbski.de/ndw/pokaz/Starosta/,NA,NA,Standard,95,3,2,0,0,NA,Sorbian_Lower,FALSE,FALSE,_,NA,NA,NA,NA,NA,NA,NA,51.77,14.33,FALSE,FALSE,FALSE,"Set on Chóśebuz (Cottbus), the historical capital of Lower Lusatia"
68,48,51928,3,11,hsb,3663,250,1,SorbianUpper,Sorbian: Upper,West Slavic minority language spoken in eastern Germany,NA,NA,5,Lechosław Jocz,FALSE,uppe1395,7,2,2,0,FALSE,FALSE,NA,,NA,NA,Standard,90,3,2,0,0,NA,Sorbian_Upper,FALSE,FALSE,_,NA,NA,NA,NA,NA,NA,NA,51.18,14.42,FALSE,FALSE,FALSE,"Set on Budyšin (Bautzen), the historical capital of Upper Lusatia"
69,48,51929,2,12,hsb,3663,250,1,SorbianUpper,Sorbian: Upper,West Slavic minority language spoken in eastern Germany,NA,NA,5,Lechosław Jocz,FALSE,uppe1395,7,2,2,0,FALSE,FALSE,NA,,NA,NA,Standard,90,3,2,0,0,NA,Sorbian_Upper,FALSE,FALSE,_,NA,NA,NA,NA,NA,NA,NA,51.18,14.42,FALSE,FALSE,FALSE,"Set on Budyšin (Bautzen), the historical capital of Upper Lusatia"
70,48,51930,1,46,hsb,3663,250,1,SorbianUpper,Sorbian: Upper,West Slavic minority language spoken in eastern Germany,NA,NA,5,Lechosław Jocz,FALSE,uppe1395,7,2,2,0,FALSE,FALSE,NA,,NA,NA,Standard,90,3,2,0,0,NA,Sorbian_Upper,FALSE,FALSE,_,NA,NA,NA,NA,NA,NA,NA,51.18,14.42,FALSE,FALSE,FALSE,"Set on Budyšin (Bautzen), the historical capital of Upper Lusatia"
103,68,52091,3,5,spa,5564,800,0.81,Spanish,Spanish,,NA,NA,5,Kim Schulte,FALSE,stan1288,9,1,1,0,FALSE,FALSE,NA,http://dle.rae.es/?,NA,NA,Standard Castilian Spanish.,84,2,1,0,0,NA,Spanish,FALSE,FALSE,_,NA,NA,NA,NA,NA,NA,NA,41.65,-4.72,TRUE,FALSE,FALSE,"Set on Valladolid, at the centre of the region popularly considered to speak the ‘purest’ Spanish, or the variety closest to the rules of the Real Academia Española. This area roughly coincides with the provinces of Salamanca, Valladolid, Palencia and Burgos."
105,68,52093,1,34,spa,5564,800,0.81,Spanish,Spanish,,NA,NA,5,Kim Schulte,FALSE,stan1288,9,1,1,0,FALSE,FALSE,NA,http://dle.rae.es/?,NA,NA,Standard Castilian Spanish.,84,2,1,0,0,NA,Spanish,FALSE,FALSE,_,NA,NA,NA,NA,NA,NA,NA,41.65,-4.72,TRUE,FALSE,FALSE,"Set on Valladolid, at the centre of the region popularly considered to speak the ‘purest’ Spanish, or the variety closest to the rules of the Real Academia Española. This area roughly coincides with the provinces of Salamanca, Valladolid, Palencia and Burgos."
104,68,52092,2,51,spa,5564,800,0.81,Spanish,Spanish,,NA,NA,5,Kim Schulte,FALSE,stan1288,9,1,1,0,FALSE,FALSE,NA,http://dle.rae.es/?,NA,NA,Standard Castilian Spanish.,84,2,1,0,0,NA,Spanish,FALSE,FALSE,_,NA,NA,NA,NA,NA,NA,NA,41.65,-4.72,TRUE,FALSE,FALSE,"Set on Valladolid, at the centre of the region popularly considered to speak the ‘purest’ Spanish, or the variety closest to the rules of the Real Academia Española. This area roughly coincides with the provinces of Salamanca, Valladolid, Palencia and Burgos."
106,69,51977,3,1,swe,4889,600,0.95,Swedish,Swedish,,NA,NA,5,Harald Hammarström,FALSE,swed1254,8,2,1,0,FALSE,FALSE,NA,http://www.saob.se/artikel/?seek=,NA,NA,Standard Swedish,54,1,2,0,0,NA,Swedish,FALSE,FALSE,_,NA,NA,NA,NA,NA,NA,NA,59.329,18.069,TRUE,FALSE,FALSE,"Set on Stockholm, a high-prestige dialect on which standard Swedish is heavily based."
108,69,51979,1,3,swe,4889,600,0.95,Swedish,Swedish,,NA,NA,5,Harald Hammarström,FALSE,swed1254,8,2,1,0,FALSE,FALSE,NA,http://www.saob.se/artikel/?seek=,NA,NA,Standard Swedish,54,1,2,0,0,NA,Swedish,FALSE,FALSE,_,NA,NA,NA,NA,NA,NA,NA,59.329,18.069,TRUE,FALSE,FALSE,"Set on Stockholm, a high-prestige dialect on which standard Swedish is heavily based."
107,69,51978,2,37,swe,4889,600,0.95,Swedish,Swedish,,NA,NA,5,Harald Hammarström,FALSE,swed1254,8,2,1,0,FALSE,FALSE,NA,http://www.saob.se/artikel/?seek=,NA,NA,Standard Swedish,54,1,2,0,0,NA,Swedish,FALSE,FALSE,_,NA,NA,NA,NA,NA,NA,NA,59.329,18.069,TRUE,FALSE,FALSE,"Set on Stockholm, a high-prestige dialect on which standard Swedish is heavily based."
354,277,51836,2,23,tks,5520,650,0.88,Tati,Tati,,NA,NA,5,Raheleh Izadifar,FALSE,take1255,6,3,0,0,FALSE,FALSE,NA,,NA,NA,,74,0,0,0,0,NA,,FALSE,FALSE,_,NA,NA,NA,NA,NA,NA,NA,36.07,49.7,FALSE,FALSE,FALSE,"Set on Takestan, Qazvin, Iran, the main urban centre where this variety is spoken."
353,277,51835,3,33,tks,6981,650,0.88,Tati,Tati,,NA,NA,5,Raheleh Izadifar,FALSE,take1255,6,3,0,0,FALSE,FALSE,NA,,NA,NA,,74,0,0,0,0,NA,,FALSE,FALSE,_,NA,NA,NA,NA,NA,NA,NA,36.07,49.7,FALSE,FALSE,FALSE,"Set on Takestan, Qazvin, Iran, the main urban centre where this variety is spoken."
118,81,3012,3,32,xto,6932,2850,1,TocharianA,Tocharian A,"Tocharian A texts come from the Šorčuq and Turfan areas and do not date before the 7th c. CE. There is continuing debate as to whether the language was still spoken at this time, but there is no evidence that Tocharian A speakers ever lived to the west of Šorčuq. The Turfan texts exhibit a few minor linguistic peculiarities, suggesting that there were once actual living Tocharian A speech communities in both places.",NA,NA,5,Ronald Kim,FALSE,tokh1242,2,0,0,0,FALSE,FALSE,NA,,NA,NA,"Tocharian A, the relatively uniform language attested in texts of almost exclusively religious content, from Šorčuq and Turfan.",10,9,5,0,0,NA,Tocharian_A,TRUE,FALSE,N,NA,NA,NA,1375,75,NA,NA,42.484,87.87,FALSE,FALSE,FALSE,Set at a point geographically roughly intermediate between the two main areas where Tocharian A texts have been found: Šorčuq and Turfan.  
119,82,3013,3,32,txb,6932,2850,1,TocharianB,Tocharian B,"Archaic/early Tocharian B of the Kuča region, attested in manuscripts from the 5th and 6th centuries CE.  From Kuča, the language spread to Šorčuq c. 600 CE, and then eastwards to Turfan and (marginally) westwards to Murtuq in the late 7th century CE.  The archaic/early form of Tocharian B, as targeted in the IE-CoR data, is from Kuča, while what is sometimes termed “classical” Tocharian B, represented by the majority of the surviving literary manuscripts, comes from Kuča and sites immediately to its east (Šorčuq, Qarašahr, etc.).",NA,NA,5,Ronald Kim,FALSE,tokh1243,2,0,0,0,FALSE,TRUE,NA,,NA,NA,Archaic/early Tocharian B of the Kuča region.,20,9,5,0,0,NA,Tocharian_B,TRUE,FALSE,N,NA,NA,NA,1350,75,NA,NA,41.718,82.962,FALSE,FALSE,FALSE,"Set on Kuča, since manuscript evidence indicates that the original location of Tocharian B speakers was Kuča and its environs (including Qumtura and Subashi) — see especially Peyrot (2008)."
270,217,51794,2,27,trm,6981,,,TregamiGambir,Tregâmî: Gambir,,NA,NA,3,Richard Strand,FALSE,treg1243,6,2,0,0,FALSE,FALSE,NA,,NA,NA,,40,0,0,0,0,NA,TregamiGambir,FALSE,TRUE,_,NA,NA,NA,NA,NA,NA,NA,NA,NA,FALSE,FALSE,FALSE,
269,217,51793,3,33,trm,6981,,,TregamiGambir,Tregâmî: Gambir,,NA,NA,3,Richard Strand,FALSE,treg1243,6,2,0,0,FALSE,FALSE,NA,,NA,NA,,40,0,0,0,0,NA,TregamiGambir,FALSE,TRUE,_,NA,NA,NA,NA,NA,NA,NA,NA,NA,FALSE,FALSE,FALSE,
203,152,51733,3,21,tsd,5310,600,1,TsakonianPeloponnese,Tsakonian: Peloponnese,"Last living relic of Doric, spoken in the towns of Kastanitsa, Sitena, Prastos, Leonidi, Pramatefti, Sapounakeika, Tyros, and Melana, possibly also still in Korakovunio, on the east coast of the Peloponnese.",NA,NA,5,Nikos Liosis,FALSE,tsak1248,3,2,0,0,FALSE,FALSE,NA,,NA,NA,,60,5,0,0,0,NA,Tsakonian_Peloponnese,FALSE,FALSE,_,NA,NA,NA,NA,NA,NA,NA,37.16,22.85,FALSE,FALSE,FALSE,"Set on the village of Leonidio (Λεωνίδιο), the de facto capital of the Tsakonian region."
204,152,51734,2,42,tsd,5310,600,1,TsakonianPeloponnese,Tsakonian: Peloponnese,"Last living relic of Doric, spoken in the towns of Kastanitsa, Sitena, Prastos, Leonidi, Pramatefti, Sapounakeika, Tyros, and Melana, possibly also still in Korakovunio, on the east coast of the Peloponnese.",NA,NA,5,Nikos Liosis,FALSE,tsak1248,3,2,0,0,FALSE,FALSE,NA,,NA,NA,,60,5,0,0,0,NA,Tsakonian_Peloponnese,FALSE,FALSE,_,NA,NA,NA,NA,NA,NA,NA,37.16,22.85,FALSE,FALSE,FALSE,"Set on the village of Leonidio (Λεωνίδιο), the de facto capital of the Tsakonian region."
229,188,51735,3,21,tsd,5310,400,1,TsakonianPropontis,Tsakonian: Propontis,"Extinct variety of Tsakonian formerly spoken at a Tsakonian colony in the Propontis region of Asia Minor. Speakers of Propontic Tsakonian were relocated to various areas of Greece following the population exchanges of 1922, and later shifted to Standard Modern Greek.",NA,NA,5,Nikos Liosis,FALSE,prop1240,3,2,0,0,FALSE,FALSE,NA,,NA,NA,,65,0,0,0,0,NA,Tsakonian_Propontis,TRUE,FALSE,N,NA,NA,NA,40,10,NA,NA,40.18,27.42,FALSE,FALSE,FALSE,"Location of a former Tsakonian colony in the Propontis region of Asia Minor. Cf. Tsakonian dialect map in Liosis, Nikos. 2016. ""Tsakonian Studies: The State-of-the-Art"" Μελέτες για την ελληνική γλώσσα [Studies in Greek Linguistics] 36 : 205-17."
230,188,51736,2,42,tsd,5310,400,1,TsakonianPropontis,Tsakonian: Propontis,"Extinct variety of Tsakonian formerly spoken at a Tsakonian colony in the Propontis region of Asia Minor. Speakers of Propontic Tsakonian were relocated to various areas of Greece following the population exchanges of 1922, and later shifted to Standard Modern Greek.",NA,NA,5,Nikos Liosis,FALSE,prop1240,3,2,0,0,FALSE,FALSE,NA,,NA,NA,,65,0,0,0,0,NA,Tsakonian_Propontis,TRUE,FALSE,N,NA,NA,NA,40,10,NA,NA,40.18,27.42,FALSE,FALSE,FALSE,"Location of a former Tsakonian colony in the Propontis region of Asia Minor. Cf. Tsakonian dialect map in Liosis, Nikos. 2016. ""Tsakonian Studies: The State-of-the-Art"" Μελέτες για την ελληνική γλώσσα [Studies in Greek Linguistics] 36 : 205-17."
109,73,51943,3,11,ukr,3663,200,1,Ukrainian,Ukrainian,Standard Ukrainian,NA,NA,5,Lechosław Jocz,FALSE,ukra1253,7,2,3,0,FALSE,FALSE,NA,http://sum.in.ua/s/,NA,NA,Standard,60,3,1,0,0,NA,Ukrainian,FALSE,FALSE,_,NA,NA,NA,NA,NA,NA,NA,50.45,30.52,FALSE,FALSE,FALSE,"Set on Kiev, given the general perception of the Kiev region as one where the 'standard' form of Ukrainian is spoken."
110,73,51944,2,12,ukr,3663,200,1,Ukrainian,Ukrainian,Standard Ukrainian,NA,NA,5,Lechosław Jocz,FALSE,ukra1253,7,2,3,0,FALSE,FALSE,NA,http://sum.in.ua/s/,NA,NA,Standard,60,3,1,0,0,NA,Ukrainian,FALSE,FALSE,_,NA,NA,NA,NA,NA,NA,NA,50.45,30.52,FALSE,FALSE,FALSE,"Set on Kiev, given the general perception of the Kiev region as one where the 'standard' form of Ukrainian is spoken."
111,73,51945,1,47,ukr,3663,200,1,Ukrainian,Ukrainian,Standard Ukrainian,NA,NA,5,Lechosław Jocz,FALSE,ukra1253,7,2,3,0,FALSE,FALSE,NA,http://sum.in.ua/s/,NA,NA,Standard,60,3,1,0,0,NA,Ukrainian,FALSE,FALSE,_,NA,NA,NA,NA,NA,NA,NA,50.45,30.52,FALSE,FALSE,FALSE,"Set on Kiev, given the general perception of the Kiev region as one where the 'standard' form of Ukrainian is spoken."
180,132,52102,3,5,xum,5564,2750,0.95,Umbrian,Umbrian,,NA,NA,5,Matthew Scarborough,FALSE,umbr1253,9,2,0,0,FALSE,FALSE,NA,,NA,NA,,20,2,0,0,0,NA,Umbrian,TRUE,FALSE,N,NA,NA,NA,2150,75,NA,NA,43.35,12.57,FALSE,FALSE,FALSE,"Modern Gubbio, Italy. Find site of the Iguvine Tables which comprise the main bulk of the Umbrian corpus."
181,132,52103,2,35,xum,5564,2750,0.95,Umbrian,Umbrian,,NA,NA,5,Matthew Scarborough,FALSE,umbr1253,9,2,0,0,FALSE,FALSE,NA,,NA,NA,,20,2,0,0,0,NA,Umbrian,TRUE,FALSE,N,NA,NA,NA,2150,75,NA,NA,43.35,12.57,FALSE,FALSE,FALSE,"Modern Gubbio, Italy. Find site of the Iguvine Tables which comprise the main bulk of the Umbrian corpus."
157,119,51758,2,24,urd,5520,200,1,Urdu,Urdu,"Urdu:  the official language of Pakistan, as well as one of the 22 recognized languages of India.",NA,NA,5,Krzysztof Stroński,FALSE,urdu1245,6,1,0,0,FALSE,FALSE,NA,,NA,NA,Pakistani Urdu,47,8,0,0,0,NA,Urdu,FALSE,FALSE,_,NA,NA,NA,NA,NA,NA,NA,33.684,73.047,FALSE,FALSE,FALSE,"Set on Islamabad, Pakistan"
156,119,51757,3,33,urd,6981,200,1,Urdu,Urdu,"Urdu:  the official language of Pakistan, as well as one of the 22 recognized languages of India.",NA,NA,5,Krzysztof Stroński,FALSE,urdu1245,6,1,0,0,FALSE,FALSE,NA,,NA,NA,Pakistani Urdu,47,8,0,0,0,NA,Urdu,FALSE,FALSE,_,NA,NA,NA,NA,NA,NA,NA,33.684,73.047,FALSE,FALSE,FALSE,"Set on Islamabad, Pakistan"
421,307,51802,2,27,prn,6981,1600,1,VasiVariPaski,Vâsi-vari: Paṣki,"Vâsi-vari is spoken in the six villages of the Pârûn Valley.  Each village has its own dialect.  Vâsi-vari has been called ""Prasun"" and ""Paruni"" in the literature, but these are not native names. ",NA,NA,5,Richard Strand,FALSE,lowe1390,6,2,0,0,FALSE,FALSE,NA,,NA,NA,The dialect of Vâsi-vari spoken in Paṣki.,61,0,0,0,0,NA,,FALSE,FALSE,_,NA,NA,NA,NA,NA,NA,NA,35.33,70.893,FALSE,FALSE,FALSE,"Set on the lowest community in the Pârûn Valley, Paṣki (Uṣʹüt)."
420,307,51801,3,33,prn,6981,1600,1,VasiVariPaski,Vâsi-vari: Paṣki,"Vâsi-vari is spoken in the six villages of the Pârûn Valley.  Each village has its own dialect.  Vâsi-vari has been called ""Prasun"" and ""Paruni"" in the literature, but these are not native names. ",NA,NA,5,Richard Strand,FALSE,lowe1390,6,2,0,0,FALSE,FALSE,NA,,NA,NA,The dialect of Vâsi-vari spoken in Paṣki.,61,0,0,0,0,NA,,FALSE,FALSE,_,NA,NA,NA,NA,NA,NA,NA,35.33,70.893,FALSE,FALSE,FALSE,"Set on the lowest community in the Pârûn Valley, Paṣki (Uṣʹüt)."
260,212,51800,2,27,prn,6981,2500,0.69,VasiVariPaski_Legacy,Vâsi-vari: Paṣki_Legacy,"Vâsi-vari is spoken in the six villages of the Pârûn Valley.  Each village has its own dialect.  Vâsi-vari has been called ""Prasun"" and ""Paruni"" in the literature, but these are not native names. ",NA,NA,5,Richard Strand,FALSE,lowe1390,6,2,0,0,FALSE,FALSE,NA,,NA,NA,The dialect of Vâsi-vari spoken in Paṣki.,60,0,0,0,0,NA,Vasi-variPaski,FALSE,TRUE,_,NA,NA,NA,NA,NA,NA,NA,35.33,70.893,FALSE,FALSE,FALSE,"Set on the lowest community in the Pârûn Valley, Paṣki (Uṣʹüt)."
259,212,51799,3,33,prn,6981,2500,0.69,VasiVariPaski_Legacy,Vâsi-vari: Paṣki_Legacy,"Vâsi-vari is spoken in the six villages of the Pârûn Valley.  Each village has its own dialect.  Vâsi-vari has been called ""Prasun"" and ""Paruni"" in the literature, but these are not native names. ",NA,NA,5,Richard Strand,FALSE,lowe1390,6,2,0,0,FALSE,FALSE,NA,,NA,NA,The dialect of Vâsi-vari spoken in Paṣki.,60,0,0,0,0,NA,Vasi-variPaski,FALSE,TRUE,_,NA,NA,NA,NA,NA,NA,NA,35.33,70.893,FALSE,FALSE,FALSE,"Set on the lowest community in the Pârûn Valley, Paṣki (Uṣʹüt)."
137,105,51738,2,24,san,5520,4400,1,VedicEarly,Vedic: Early,,NA,NA,5,Roland Pooth,FALSE,sans1269,6,1,0,0,FALSE,FALSE,NA,http://www.sanskrit-lexicon.uni-koeln.de/scans/MWScan/2014/web/webtc/servepdf.php?page=,NA,NA,,5,8,0,0,0,NA,Vedic_Sanskrit,TRUE,FALSE,O,700,3000,0.8,NA,NA,NA,NA,34.04,72.36,FALSE,FALSE,FALSE,"Set at Śalātura, the birthplace of Pāṇini."
136,105,51737,3,33,san,6981,4400,1,VedicEarly,Vedic: Early,,NA,NA,5,Roland Pooth,FALSE,sans1269,6,1,0,0,FALSE,FALSE,NA,http://www.sanskrit-lexicon.uni-koeln.de/scans/MWScan/2014/web/webtc/servepdf.php?page=,NA,NA,,5,8,0,0,0,NA,Vedic_Sanskrit,TRUE,FALSE,O,700,3000,0.8,NA,NA,NA,NA,34.04,72.36,FALSE,FALSE,FALSE,"Set at Śalātura, the birthplace of Pāṇini."
279,228,51740,2,24,san,5520,,,VedicLate,Vedic: Late,,NA,NA,5,Roland Pooth,FALSE,sans1269,6,1,0,0,FALSE,TRUE,NA,http://www.sanskrit-lexicon.uni-koeln.de/scans/MWScan/2014/web/webtc/servepdf.php?page=,NA,NA,,6,0,0,0,0,NA,,TRUE,TRUE,N,NA,NA,NA,2750,100,NA,NA,30,75,FALSE,FALSE,FALSE,
278,228,51739,3,33,san,6981,,,VedicLate,Vedic: Late,,NA,NA,5,Roland Pooth,FALSE,sans1269,6,1,0,0,FALSE,TRUE,NA,http://www.sanskrit-lexicon.uni-koeln.de/scans/MWScan/2014/web/webtc/servepdf.php?page=,NA,NA,,6,0,0,0,0,NA,,TRUE,TRUE,N,NA,NA,NA,2750,100,NA,NA,30,75,FALSE,FALSE,FALSE,
113,75,51814,2,23,wbl,5520,1550,1,Wakhi,Wakhi,,NA,NA,3,John Mock,FALSE,wakh1245,6,3,0,0,FALSE,FALSE,NA,,NA,NA,"Wakhi of Wakhan District, Afghanistan",29,7,0,0,0,NA,Wakhi,FALSE,FALSE,_,NA,NA,NA,NA,NA,NA,NA,36.99,72.75,FALSE,FALSE,FALSE,Based on fieldwork by the author in the Wakhan District of Afghanistan.
112,75,51813,3,33,wbl,6981,1550,1,Wakhi,Wakhi,,NA,NA,3,John Mock,FALSE,wakh1245,6,3,0,0,FALSE,FALSE,NA,,NA,NA,"Wakhi of Wakhan District, Afghanistan",29,7,0,0,0,NA,Wakhi,FALSE,FALSE,_,NA,NA,NA,NA,NA,NA,NA,36.99,72.75,FALSE,FALSE,FALSE,Based on fieldwork by the author in the Wakhan District of Afghanistan.
114,76,52073,3,5,wln,5564,600,0.98,Walloon,Walloon,,NA,NA,5,Esther Baiwir,FALSE,wall1255,9,1,1,0,FALSE,FALSE,NA,http://gallica.bnf.fr/ark:/12148/bpt6k50663j/,NA,NA,Liège Walloon.,65,2,2,0,0,NA,Walloon,FALSE,FALSE,_,NA,NA,NA,NA,NA,NA,NA,50.64,5.57,FALSE,FALSE,FALSE,"Set in Liège, the variety coded here."
116,76,52075,1,34,wln,5564,600,0.98,Walloon,Walloon,,NA,NA,5,Esther Baiwir,FALSE,wall1255,9,1,1,0,FALSE,FALSE,NA,http://gallica.bnf.fr/ark:/12148/bpt6k50663j/,NA,NA,Liège Walloon.,65,2,2,0,0,NA,Walloon,FALSE,FALSE,_,NA,NA,NA,NA,NA,NA,NA,50.64,5.57,FALSE,FALSE,FALSE,"Set in Liège, the variety coded here."
115,76,52074,2,51,wln,5564,600,0.98,Walloon,Walloon,,NA,NA,5,Esther Baiwir,FALSE,wall1255,9,1,1,0,FALSE,FALSE,NA,http://gallica.bnf.fr/ark:/12148/bpt6k50663j/,NA,NA,Liège Walloon.,65,2,2,0,0,NA,Walloon,FALSE,FALSE,_,NA,NA,NA,NA,NA,NA,NA,50.64,5.57,FALSE,FALSE,FALSE,"Set in Liège, the variety coded here."
292,236,52112,3,15,cym,4889,950,0.84,WelshNorth,Welsh: North,,NA,NA,5,Guto Rhys,FALSE,nort2668,10,2,1,0,FALSE,FALSE,NA,,NA,NA,North Wales,51,0,0,0,0,NA,,FALSE,FALSE,_,NA,NA,NA,NA,NA,NA,NA,53.09,-3.8,TRUE,FALSE,FALSE,Approximate mid-point of the northern dialect area of Welsh.
293,236,52113,2,17,cym,4889,950,0.84,WelshNorth,Welsh: North,,NA,NA,5,Guto Rhys,FALSE,nort2668,10,2,1,0,FALSE,FALSE,NA,,NA,NA,North Wales,51,0,0,0,0,NA,,FALSE,FALSE,_,NA,NA,NA,NA,NA,NA,NA,53.09,-3.8,TRUE,FALSE,FALSE,Approximate mid-point of the northern dialect area of Welsh.
294,236,52114,1,49,cym,4889,950,0.84,WelshNorth,Welsh: North,,NA,NA,5,Guto Rhys,FALSE,nort2668,10,2,1,0,FALSE,FALSE,NA,,NA,NA,North Wales,51,0,0,0,0,NA,,FALSE,FALSE,_,NA,NA,NA,NA,NA,NA,NA,53.09,-3.8,TRUE,FALSE,FALSE,Approximate mid-point of the northern dialect area of Welsh.
251,208,52151,2,23,yai,5520,1800,1,Yaghnobi,Yaghnobi,"The estern dialect of Yaghnobi, which has a slightly more archaic sound shape than the Eastern variety (preserving the diphthong [ai̯] vs. Eastern [ɛ:]).",NA,NA,1,Martin Kümmel,FALSE,yagn1238,6,3,0,0,FALSE,FALSE,NA,,NA,NA,Western Yaghnobi,42,0,0,0,0,NA,Yaghnobi,FALSE,FALSE,_,NA,NA,NA,NA,NA,NA,NA,39.15,69.24,FALSE,FALSE,FALSE,"The location is set to the Yaghnob valley, Tajikistan, which is where the language was spoken for centuries until the 1970s when a major resettlement took place. Some speakers have returned only recently."
250,208,52150,3,33,yai,6981,1800,1,Yaghnobi,Yaghnobi,"The estern dialect of Yaghnobi, which has a slightly more archaic sound shape than the Eastern variety (preserving the diphthong [ai̯] vs. Eastern [ɛ:]).",NA,NA,1,Martin Kümmel,FALSE,yagn1238,6,3,0,0,FALSE,FALSE,NA,,NA,NA,Western Yaghnobi,42,0,0,0,0,NA,Yaghnobi,FALSE,FALSE,_,NA,NA,NA,NA,NA,NA,NA,39.15,69.24,FALSE,FALSE,FALSE,"The location is set to the Yaghnob valley, Tajikistan, which is where the language was spoken for centuries until the 1970s when a major resettlement took place. Some speakers have returned only recently."